OBJECTID,Name of Facility,Location Street,Location City,Location State,ZIP Code,Facility #,Admin Name & Phone,Facility Email,Fac. Cont. Email,License / Expiration,County / Ownership Type,Mailing Address,Mailing City,Mailing State,Mailing ZIP,Licensee,Alzheimer Unit,Alzheimer Care,Number of Licensed Beds,x,y
10783,BISHOP GADSDEN EPISCOPAL RETIREMENT COMMUNITY,1 BISHOP GADSDEN WAY,CHARLESTON,SC,29412-3506,843-762-3300,"COOK, JONNA PH#: 843-406-6252",JONNA.COOK@BISHOPGADSDEN.ORG,JONNA.COOK@BISHOPGADSDEN.ORG,CRC-0451 / 12/31/2026,Charleston / Non-Profit Corporation,1 GADSDEN WAY,CHARLESTON,SC,29412,BISHOP GADSDEN EPISCOPAL RETIREMENT COMMUNITY,Y,Y,123,595763.512,3622298.048
10864,FOREST CIRCLE COMMUNITY RESIDENCE,505 FOREST CIR,WALTERBORO,SC,29488-2869,843-549-5140,"FARMER, THERESA L. PH#: 843-549-5140",TFARMER@COLLETONDSN.ORG,TFARMER@COLLETONDSN.ORG,CRC-1527 / 09/30/2026,Colleton / State,505 FOREST CIR,WALTERBORO,SC,29488-2869,COLLETON COUNTY BOARD OF DISABILITIES AND SPECIAL NEEDS,N,N,8,530039.891,3641968.915
10870,JOSIE DRIVE COMMUNITY RESIDENCE,210 JOSIE DR,WALTERBORO,SC,29488-2791,843-549-6979,"FARMER, THERESA L. PH#: 843-549-6979",TFARMER@COLLETONDSN.ORG,TFARMER@COLLETONDSN.ORG,CRC-1528 / 09/30/2026,Colleton / State,210 JOSIE DR,WALTERBORO,SC,29488-2791,COLLETON COUNTY BOARD OF DISABILITIES AND SPECIAL NEEDS,N,N,8,530684.205,3642021.853
10890,BENCHMARK HOMES - SPARTANBURG,450 W HENRY ST,SPARTANBURG,SC,29306-6037,864-308-8852,"SMAL, LUCY PH#: 864-585-0322",LUCY.SMAL@CHARLESLEA.ORG,,CRC-1509 / 09/30/2026,Spartanburg / Corporation,195 BURDETTE ST,SPARTANBURG,SC,29307-1003,CHARLES LEA CENTER,N,N,12,414080.278,3867237.882
10891,BLACK'S DRIVE COMMUNITY RESIDENCE,160 BLACKS DR,WILLISTON,SC,29853-3558,803-266-3211,"WALKER, BRIANNA SYMONE PH#: ",WALKER_SYMONE@YAHOO.COM,160 BLACKS DR,CRC-1524 / 08/31/2026,Barnwell / County,20 PARK ST,BARNWELL,SC,29812-0556,ALLENDALE/BARNWELL COUNTIES DISABILITIES AND SPECIAL NEEDS BOARD,N,N,8,459319.409,3696928.017
10894,CAMDEN I,975 WATEREE BLVD,CAMDEN,SC,29020-4134,803-432-0973,"WRIGHT, CRYSTAL J. PH#: 803-432-0973",C.WRIGHT@CHESCOSERVICES.ORG,C.WRIGHT@CHESCOSERVICES.ORG,CRC-1525 / 09/30/2026,Kershaw / Sole Proprietorship,"110 PONTIAC BUSINESS CENTER DR STE C, CHESCO SERVICES",ELGIN,SC,29045,CHESCO SERVICES,N,N,8,534437.299,3789505.96
10895,CAMDEN II,975 WATEREE BLVD,CAMDEN,SC,29020-4134,803-432-1345,"WRIGHT, CRYSTAL J. PH#: 803-432-0973",C.WRIGHT@CHESCOSERVICES.ORG,C.WRIGHT@CHESCOSERVICES.ORG,CRC-1522 / 05/31/2026,Kershaw / Sole Proprietorship,110 PONTIAC BUSINESS CENTER DR STE C,ELGIN,SC,29045,CHESCO SERVICES,N,N,8,534437.299,3789505.96
10904,IDA LANE I CRCF,120 IDA LN,COLUMBIA,SC,29203-9234,803-786-7522,"PRIVETTE-HOLMES, CYNTHIA D. PH#: ",CHPRIVETTE@BABCOCKCENTER.ORG,,CRC-1520 / 03/31/2026,Richland / Corporation,2725 BANNY JONES AVE,WEST COLUMBIA,SC,29170-2109,BABCOCK CENTER INC,N,N,8,501812.94,3774574.927
10905,IDA LANE II CRCF,124 IDA LN,COLUMBIA,SC,29203-9234,803-786-7522,"PRIVETTE-HOLMES, CYNTHIA D. PH#: ",RWROTEN@BABCOCKCENTER.ORG,,CRC-1518 / 12/31/2026,Richland / Corporation,2725 BANNY JONES AVE,WEST COLUMBIA,SC,29170-2109,BABCOCK CENTER INC,N,N,8,501890.787,3774572.983
10908,KENSINGTON I,100 KENSINGTON RD,COLUMBIA,SC,29203-5451,803-931-3263,"BROWN, LETIA T. PH#: 803-256-0504",C.WRIGHT@CHESCOSERVICES.ORG,,CRC-1532 / 06/30/2026,Richland / Sole Proprietorship,"110 PONTIAC BUSINESS CENTER DR STE C, CHESCO SERVICES",ELGIN,SC,29045,CHESCO SERVICES,N,N,8,494714.991,3765579.855
10916,NORTH PINES COMMUNITY RESIDENCE,313 N PINES RD,BLYTHEWOOD,SC,29016-8788,803-788-6272,"LOCKHART, ELESHA J. PH#: 803-608-0767",C.WRIGHT@CHESCOSERVICES.ORG,E.LOCKHART@CHESCOSERVICES.ORG,CRC-1504 / 04/30/2026,Richland / Sole Proprietorship,110 PONTIAC BUSINESS CENTER DR STE C,ELGIN,SC,29045,CHESCO SERVICES,N,N,8,501926.06,3778651.055
11258,MAPLES OF HONEA PATH,224 WILDWOOD DR,HONEA PATH,SC,29654-1335,864-369-2000,"WILLIS, MARK N. PH#: 864-369-2000",MARKNYEWILLIS@GMAIL.COM,,CRC-0819 / 05/31/2026,Anderson / Corporation,224 WILDWOOD DR,HONEA PATH,SC,29654-1335,MAPLE MANOR INC,N,N,74,370432.455,3812969.616
11259,SC EPISCOPAL HOME AT STILL HOPES (CRCF),1 STILL HOPES DR,WEST COLUMBIA,SC,29169-7164,803-796-6490,"ROBERTSON, NIKKI W. PH#: 803-739-5043",NROBERTSON@STILLHOPES.ORG,NROBERTSON@STILLHOPES.ORG,CRC-0144 / 07/31/2026,Lexington / Corporation,1 STILL HOPES DR,WEST COLUMBIA,SC,29169-7164,SOUTH CAROLINA EPISCOPAL HOME AT STILL HOPES INC,Y,Y,48,494267.549,3760572.775
11261,ROLLING GREEN VILLAGE ASSISTED LIVING FACILITY,1 HOKE SMITH BLVD,GREENVILLE,SC,29615-5308,864-987-9800,"LORD, ANNA GRACE PH#: 864-987-9800",ANNAGRACED@ROLLINGGREENVILLAGE.COM,,CRC-0573 / 03/31/2026,Greenville / Non-Profit Corporation,1 HOKE SMITH BLVD,GREENVILLE,SC,29615-5308,ROLLING GREEN VILLAGE,Y,Y,52,384470.269,3856350.576
11262,JOANNE'S COMMUNITY CARE HOME #1,5048 PERCIVAL RD,ELGIN,SC,29045-9156,803-736-3860,"CALDWELL, JOANNE M. PH#: 803-736-3860",TOWANA_HAYES@ATT.NET,JOANNESCCH@AOL.COM,CRC-0932 / 06/30/2026,Richland / Sole Proprietorship,PO BOX 23494,COLUMBIA,SC,29224-3494,JOANNE M CALDWELL,N,N,10,517720.657,3774189.366
11263,DIXON'S COMMUNITY CARE HOME,1456 DIXON RD,ELGIN,SC,29045-9030,803-729-4309,"DIXON, JAMES M. PH#: 803-729-4309",JADIXON35@GMAIL.COM,JAMES.DIXON@RICHLANDONE.ORG,CRC-0934 / 09/30/2026,Kershaw / Corporation,1498 DIXON RD,ELGIN,SC,29045-9030,DIXON'S COMMUNITY CARE HOME INC,N,N,5,519637.286,3783336.544
11264,PRESBYTERIAN COMMUNITIES OF SOUTH CAROLINA-FLORENCE,2350 W LUCAS ST,FLORENCE,SC,29501-1201,843-665-2222,"SANDERS, RHONDA PH#: 843-601-3861",RHONDA.SANDERS@PRESCOMM.ORG,,CRC-0242 / 09/30/2026,Florence / Corporation,2350 W LUCAS ST,FLORENCE,SC,29501-1201,PRESBYTERIAN COMMUNITIES OF SOUTH CAROLINA,Y,Y,47,609514.117,3788963.842
11265,ROUSE COMMUNITY CARE HOME #2,8809 WILSON BLVD,COLUMBIA,SC,29203-1817,803-786-9357,"ROUSE, MATRICE PH#: 803-513-0821",MATRICEROUSE@AOL.COM,,CRC-0328 / 12/31/2025,Richland / Corporation,PO BOX 134,STATE PARK,SC,29147-0134,ROUSE COMMUNITY CARE HOME INC,N,N,9,501135.438,3774492.381
11267,TRINITY ON LAURENS,213 LAURENS ST NW,AIKEN,SC,29801-3911,803-643-4200,"DORRIES, HEATHER E. PH#: 803-643-4200",HDORRIES@TRINITYONLAURENS.ORG,HDORRIES@TRINITYONLAURENS.ORG,CRC-0935 / 06/30/2026,Aiken / Non-Profit Corporation,213 LAURENS ST NW,AIKEN,SC,29801-3911,LUTHERAN HOMES OF SOUTH CAROLINA INC,N,N,55,433011.765,3714079.622
11268,LENEVAR COMMUNITY RESIDENCE,1435 W LENEVAR DR,CHARLESTON,SC,29407-5118,843-766-3061,"MILES, BRANDI PH#: 843-805-5800",BMILES@DSNCC.COM,BMILES@DSNCC.COM,CRC-0943 / 07/31/2026,Charleston / State,"PO BOX 22708, DISABILITIES BOARD OF CHARLESTON COUNTY",CHARLESTON,SC,29413-2708,DISABILITIES BOARD OF CHARLESTON COUNTY,N,N,8,593815.633,3630636.968
11270,SPRINGFIELD PLACE RESIDENTIAL CARE,2006 SPRINGFIELD CIR,NEWBERRY,SC,29106,803-405-1585,"MONTGOMERY, KATHY N. PH#: 803-276-2601",KMONTGOMERY@NEWBERRYCCRC.COM,KMONTGOMERY@NEWBERRYCCRC.COM,CRC-1250 / 02/28/2026,Fairfield / Limited Liability,2006 SPRINGFIELD CIR,NEWBERRY,SC,29108-3084,NEWBERRY OPERATOR LLC,N,Y,50,444597.22,3794046.778
11271,JOY COMMUNITY CARE HOME,6800 DOBY DR,COLUMBIA,SC,29203-5133,803-754-3157,"DOUGLAS, JONATHAN PH#: 803-754-3157",JDQCSI@AOL.COM,JDQCSI@AOL.COM,CRC-0961 / 11/30/2026,Richland / Sole Proprietorship,PO BOX 25215,COLUMBIA,SC,29224-5215,DEBORAH A SCOTT,N,N,10,501200.05,3769439.456
11273,MARTHA FRANKS BAPTIST RETIREMENT COMMUNITY,1 MARTHA FRANKS DR,LAURENS,SC,29360-1799,864-984-4541,"SPROUSE, ROBERT PH#: 864-681-8266",AP@SCBMA.COM,,CRC-0360 / 02/28/2026,Laurens / Corporation,1 MARTHA FRANKS DR,LAURENS,SC,29360-1799,SOUTH CAROLINA BAPTIST MINISTRIES FOR THE AGING INC,Y,Y,82,405846.533,3818078.143
11274,PALMETTOS OF CHARLESTON,1900 ASHLEY CROSSING DR,CHARLESTON,SC,29414-5751,843-852-0505,"HUETHER, KALYN PH#: 843-852-0505",KALYN.HUETHER@NHCCARE.COM,,CRC-1263 / 07/31/2026,Charleston / Limited Liability,1900 ASHLEY CROSSING DR,CHARLESTON,SC,29414-5751,NHC PLACE-CHARLESTON LLC,Y,Y,60,590152.923,3631304.853
11275,GARDENS AT SUMTER,2065 MCCRAYS MILL RD,SUMTER,SC,29154-6111,803-778-9690,"DEVAUGHN, TRACY PH#: 843-292-0012",DIRECTOR@SUMTERSENIORS.COM,TDEVAUGHN@5SSL.COM,CRC-0988 / 06/30/2026,Sumter / Limited Liability,PO BOX 2568,HICKORY,NC,28603-2568,SUMTER AL HOLDINGS LLC,Y,Y,140,556711.593,3751770.684
11276,SOUTHERN HERITAGE,1713 CHARLESTON HWY,WEST COLUMBIA,SC,29169-5051,803-796-3113,"DOUGLAS, JONATHAN PH#: 803-796-3113",JDQCSI@AOL.COM,JDQCSI@AOL.COM,CRC-0993 / 03/31/2026,Lexington / Corporation,PO BOX 25215,COLUMBIA,SC,29224-5215,QUALITY CARE SERVICES INC,N,N,10,492792.735,3758560.264
11277,HERRIOTT'S RESIDENTIAL CARE FACILITY,114 LIME LN,SUMTER,SC,29150-6630,803-773-6682,"YORK-HERRIOTT, LUCINDA PH#: 803-773-6882",LUCINDAHERRIOTT@GMAIL.COM,LUCINDAHERRIOTT@GMAIL.COM,CRC-1013 / 06/30/2026,Sumter / Partnership,1685 REEDROMAN RD,SUMTER,SC,29153-8497,JOHN & LUCINDA HERRIOTT,N,N,14,561231.282,3751540.646
11278,SUMMIT HILLS ASSISTED LIVING COMMUNITY,100 SUMMIT HILLS DR,SPARTANBURG,SC,29307-1532,864-591-2222,"CROWE, JANA MARIE PH#: 864-208-8976",LICENSING@SUMMIT-HILLS.COM,JCROWE@SUMMIT-HILLS.COM,CRC-1113 / 09/30/2026,Spartanburg / Ltd. Liability,3530 TORINGDON WAY STE 204,CHARLOTTE,NC,28277-3436,SUMMIT HILLS LLC,Y,Y,79,418630.08,3871653.284
11279,PRESBYTERIAN COMMUNITIES OF SOUTH CAROLINA-FOOTHILLS,205 BUD NALLEY DR,EASLEY,SC,29642,864-859-3367,"FRYAR, LESLIE PH#: 864-859-3367",LESLIE.ANZALONE@PRESCOMM.ORG,LESLIE.FRYAR@PRESCOMM.ORG,CRC-1030 / 07/31/2026,Pickens / Non-Profit Corporation,,,,,PRESBYTERIAN COMMUNITIES OF SOUTH CAROLINA,Y,Y,52,359009.045,3851687.15
11281,BROAD CREEK CARE CENTER ASSISTED LIVING,801 LEMON GRASS CT,HILTON HEAD ISLAND,SC,29928-3022,843-341-7300,"FRIEDEL, MICHAEL PH#: 843-341-7202",MFRIEDEL@VILIVING.COM,,CRC-1036 / 07/31/2026,Beaufort / Corporation,71 S WACKER DR STE 900,CHICAGO,IL,60606-4610,CC-HILTON HEAD INC,N,Y,50,521180.978,3559800.324
11282,LAKES AT LITCHFIELD ASSISTED LIVING,120 LAKES AT LITCHFIELD DR,PAWLEYS ISLAND,SC,29585-5515,843-235-9393,"MASON, JOSEPH PH#: 843-235-9393",WMASON@LAKES-LITCHFIELD.COM,,CRC-1116 / 08/31/2026,Georgetown / Ltd. Liability,3530 TORINGDON WAY STE 204,CHARLOTTE,NC,28277-3436,LITCHFIELD RETIREMENT LLC,Y,Y,79,675913.78,3705554.729
11284,RICE ESTATE - ASSISTED LIVING,100 FINLEY RD,COLUMBIA,SC,29203-9264,803-691-5720,"AMODIO, DANIEL JOHN PH#: 803-691-5723",DAMODIO@RICEESTATE.ORG,DAMODIO@RICEESTATE.ORG,CRC-1075 / 03/31/2026,Richland / Non-Profit Corporation,100 FINLEY RD,COLUMBIA,SC,29203-9264,LUTHERAN HOMES OF SOUTH CAROLINA INC,N,N,40,503245.949,3774024.079
11285,WALTERS BROTHERS RESIDENTIAL CARE FACILITY INC,110 GEDDINGS RD,SUMTER,SC,29150-8812,803-506-2743,"WALTERS, JOHNNIE L., SR. PH#: 803-506-2743",JOHNNIE15@FTC-I.NET,JOHNNIE15@FTC-I.NET,CRC-1080 / 04/30/2026,Sumter / Sole Proprietorship,3300 OLD MANNING RD,SUMTER,SC,29150-9701,JOHNNIE L WALTERS,N,Y,20,559746.41,3739516.374
11286,FRANKE HOME,1885 RIFLE RANGE RD,MOUNT PLEASANT,SC,29464-9440,843-856-4700,"STOLL, SANDY A. PH#: 843-856-4705",SSTOLL@FRANKEATSEASIDE.ORG,SSTOLL@FRANKEATSEASIDE.ORG,CRC-1082 / 09/30/2026,Charleston / Non-Profit Corporation,1885 RIFLE RANGE RD,MOUNT PLEASANT,SC,29464-9440,LUTHERAN HOMES OF SOUTH CAROLINA INC,Y,Y,86,610422.872,3632156.306
11287,KIVA LODGE,200 CLAUDE BUNDRICK RD,BLYTHEWOOD,SC,29016-9420,803-764-2761,"MCCRAY, JAMUS PH#: 803-764-2761",JAMUS.MCCRAY@SCDMH.ORG,,CRC-1092 / 07/31/2026,Richland / Corporation,1823 GADSDEN ST,COLUMBIA,SC,29201-2344,MENTAL HEALTH AMERICA OF SOUTH CAROLINA,N,N,5,507507.32,3785843.789
11288,CANTRELL'S RESIDENTIAL CARE FACILITY,124 GLADYS CT,SPARTANBURG,SC,29301-3701,864-587-1993,"WALKER, LINDA C. PH#: 864-587-1993",WYOMINGSWITZER@ICLOUD.COM,LCWALKER428@YAHOO.COM,CRC-1105 / 06/30/2026,Spartanburg / Corporation,124 GLADYS CT,SPARTANBURG,SC,29301-3701,CANTRELL'S RESIDENTIAL CARE FACILITY INC,N,N,22,410322.945,3864723.02
11290,GENERATIONS OF CHAPIN,431 E BOUNDARY ST,CHAPIN,SC,29036-8388,803-345-1911,"SLICE, TIM PH#: 803-606-9456",TIM@GENERATIONSOFCHAPIN.COM,,CRC-1128 / 10/31/2026,Lexington / Corporation,431 E BOUNDARY ST,CHAPIN,SC,29036-8388,GENERATIONS OF CHAPIN INC,N,N,56,468694.159,3780158.634
11291,SUMMIT PLACE OF ANDERSON,107 PERPETUAL SQUARE DR,ANDERSON,SC,29621-1713,864-222-9880,"ROODT, HEATHER PH#: 864-222-9880",HROODT@SONIDALIVING.COM,,CRC-1151 / 10/31/2026,Anderson / Limited Liability,107 PERPETUAL SQUARE DR,ANDERSON,SC,29621-1713,CSL SUMMIT PLACE SC LLC,Y,Y,89,350286.868,3824573.611
11293,CLEMSON DOWNS ASSISTED LIVING,500 DOWNS LOOP,CLEMSON,SC,29631-2099,864-654-1155,"HILL, JAMES A. PH#: 864-722-6149",JHILL@CLEMSONDOWNS.COM,JHILL@CLEMSONDOWNS.COM,CRC-1154 / 07/31/2026,Pickens / Corporation,500 DOWNS LOOP,CLEMSON,SC,29631-2099,CARC INC,Y,N,56,335609.105,3838566.157
11294,SEVILLE'S RESIDENTIAL CARE FACILITY,109 BENNETT LN,HAMPTON,SC,29924-1375,803-914-0105,"JENKINS, GENORA W. PH#: 803-914-0105",KAMILLE.JENKINS@GMAIL.COM,KAMILLE.JENKINS@GMAIL.COM,CRC-1178 / 08/31/2026,Hampton / Sole Proprietorship,109 BENNETT LN,HAMPTON,SC,29924-1375,GENORA W JENKINS,N,N,10,490667.142,3636801.029
11296,COTTONWOOD VILLAS,800 W CHURCH ST,BISHOPVILLE,SC,29010-1054,803-483-5100,"GAINEY, FELICIA PH#: 803-484-5303",FELICIA@PATRIOTLIVING.US,FELICIA@LAKEFIELDPROP.COM,CRC-1186 / 06/30/2026,Lee / Limited Liability,800 W CHURCH ST,BISHOPVILLE,SC,29010-1054,LAKEFIELD PROPERTIES LLC,Y,Y,85,568235.011,3787665.439
11297,SPRINGS AT SIMPSONVILLE,214 E CURTIS ST,SIMPSONVILLE,SC,29681-2622,864-962-8570,"FREEMAN, LEIGHA M. PH#: 864-421-4700",LEIGHAF@CARAVITA.COM,LEIGHA.FREEMAN@QUILLENMANORLIVING.COM,CRC-1198 / 05/31/2026,Greenville / Ltd. Liability,104 S MAIN ST STE 3,SIMPSONVILLE,SC,29681-2707,CURTIS GROUP LLC,Y,Y,89,385363.498,3844634.009
11298,CLS CARE HOME,1024 TUCKER TOWN RD,GADSDEN,SC,29052-9789,803-353-2151,"DOWDY-SPEARMAN, HELEN PH#: 803-353-2151",HEDOWDY52@AOL.COM,HEDOWDY52@AOL.COM,CRC-1200 / 06/30/2026,Richland / Sole Proprietorship,1024 TUCKER TOWN RD STE 1024A,GADSDEN,SC,29052-9789,CORA SCOTT,N,N,5,527891.728,3742203.408
11299,RENAISSANCE,19 FRANK PRESSLEY DR,DUE WEST,SC,29639,864-379-2570,"OWENS, JACQUELINE PH#: 864-379-2570",JACKIE@CHOOSERENAISSANCE.COM,,CRC-1207 / 12/31/2025,Abbeville / Corporation,PO BOX 6384,SPARTANBURG,SC,29304-6384,RENAISSANCE LLC,N,N,20,371508.049,3799632.255
11300,EDEN TERRACE OF SPARTANBURG,2780 E MAIN ST,SPARTANBURG,SC,29307-1248,864-579-7387,"HUGHES, CINDY B. PH#: 864-579-7387",CINDY.HUGHES@ARBORCOMPANY.COM,CHUGHES@ARBORCOMPANY.COM,CRC-1213 / 05/31/2026,Spartanburg / Ltd. Liability,2780 E MAIN ST,SPARTANBURG,SC,29307,BRISTOL SPARTANBURG LLC,Y,Y,140,420659.025,3871274.672
11301,BROOKWOOD COMMUNITY RESIDENCE,181 BROOKWOOD DR,BATESBURG,SC,29006-2324,803-532-4440,"DAVIS, TORRANCE PH#: 803-532-4440",TDAVIS@ORGANIZATIONALNETWORK.ORG,,CRC-0879 / 09/30/2026,Lexington / Non-Profit Corporation,2725 BANNY JONES AVE,WEST COLUMBIA,SC,29170-2109,BABCOCK CENTER INC,N,N,8,451022.288,3751695.245
11302,ROSECREST COMMUNITY RESIDENTIAL CARE,200 FORTRESS DR,INMAN,SC,29349-9160,864-599-8600,"MCCURRY, REBECCA PH#: 864-599-8600",RMCCURRY@ROSECREST.ORG,,CRC-1208 / 07/31/2026,Spartanburg / Non-Profit Corporation,200 FORTRESS DR,INMAN,SC,29349-9160,LUTHERAN HOMES OF SOUTH CAROLINA INC,Y,Y,45,406283.395,3877777.304
11303,WESLEY COMMONS ASSISTED LIVING FACILITY & SPECIAL CARE HOUSE,1110 MARSHALL RD,GREENWOOD,SC,29646-4299,864-227-7480,"DAVIS, DORIS E. PH#: 864-227-7480",DDAVIS@WESLEYCOMMONS.ORG,DDAVIS@WESLEYCOMMONS.ORG,CRC-1218 / 08/31/2026,Greenwood / Non-Profit Corporation,1110 MARSHALL RD,GREENWOOD,SC,29646-4299,WESLEY COMMONS,Y,Y,70,396090.348,3782700.873
11304,VARNVILLE COMMUNITY RESIDENCE,266 HAMPTON RD,VARNVILLE,SC,29944,803-943-4818,"MCQUIRE, ELISE S. PH#: 803-943-4818",ELISEMCQUIRE9@GMAIL.COM,ELISEMAC@HCBDSN.ORG,CRC-1211 / 05/31/2026,Hampton / ,PO BOX 128,HAMPTON,SC,29924,HAMPTON COUNTY DISABILITIES AND SPECIAL NEEDS BOARD,N,N,8,492917.954,3635884.744
11305,GARDENS AT EASTSIDE,275 COMMONWEALTH DR,GREENVILLE,SC,29615-4814,864-329-1200,"FORD, JANE A. PH#: 864-329-1200",JANE.FORD@ARBORCOMPANY.COM,JFORD@ARBORCOMPANY.COM,CRC-1222 / 08/31/2026,Greenville / Ltd. Liability,275 COMMONWEALTH DR,GREENVILLE,SC,29615-4814,EASTSIDE ASSISTED LIVING LLC,Y,Y,83,379279.161,3857509.686
11306,BIRD STREET II COMMUNITY RESIDENTIAL CARE FACILITY,1711 BIRD ST,ROCK HILL,SC,29730-3830,803-366-6113,"CROUCH, KELLY M. PH#: ",KELLY.CROUCH2@MAXABILITIES.ORG,,CRC-1358 / 06/30/2026,York / ,PO BOX 549,YORK,SC,29745-0549,YORK COUNTY DISIBILITIES AND SPECIAL NEEDS BOARD,N,N,8,499934.504,3866879.981
11307,OASIS RESIDENTIAL HOME,2317 PRINCE ST,GEORGETOWN,SC,29440-2925,843-527-4848,"GRAHAM, MAZIE E. PH#: 843-527-4848",OASISINC2001@YAHOO.COM,OASISINC2001@YAHOO.COM,CRC-1219 / 08/31/2026,Georgetown / Corporation,2317 PRINCE ST,GEORGETOWN,SC,29440-2925,OASIS RESIDENTIAL HOME INC,N,N,22,657732.21,3694709.603
11308,ALEXANDER'S GOLDEN STARR COMMUNITY CARE HOME,218 GOLDEN STARR RD,SANTEE,SC,29142-9363,803-854-2496,"OUTLAW-THOMAS, DONNA S. PH#: 803-854-2496",DONNAOUTLAW62@YAHOO.COM,DONNAOUTLAW62@YAHOO.COM,CRC-0171 / 08/31/2026,Orangeburg / Sole Proprietorship,PO BOX 405,SANTEE,SC,29142-0405,DONNA OUTLAW-THOMAS,N,N,8,545388.512,3700763.821
11309,UPSTATE RESIDENTIAL CARE,1302 S MCDUFFIE ST,ANDERSON,SC,29624-2745,864-225-6901,"ALEXANDER, HORACE PH#: 864-225-6901",HORACEALEXANDER@MYLASOUNDS.COM,HORACEALEXANDER@MYLASOUNDS.COM,CRC-0233 / 08/31/2026,Anderson / Limited Liability Limited Partnership,1302 S MCDUFFIE ST,ANDERSON,SC,29624-0036,UPSTATE RESIDENTIAL CARE LLC,N,N,10,348815.295,3818080.989
11310,BTU REST HOME,113 ELLISON ST,BENNETTSVILLE,SC,29512-0352,843-479-9053,"CAIN, MICHAEL PH#: 803-528-3371",MICHAELCAIN94@AOL.COM,MICHAELCAIN94@AOL.COM,CRC-0235 / 09/30/2026,Marlboro / Corporation,PO BOX 352,BENNETTSVILLE,SC,29512-0352,BTU REST HOME INC,N,N,80,619166.439,3830265.827
11311,BOSTICK'S ADULT RESIDENTIAL CARE FACILITY,1912 DUKE ST,BEAUFORT,SC,29902-4404,843-524-3906,"BURNS, WANDA BOSTICK PH#: 843-524-3906",BARCF1@GMAIL.COM,WRBOSTICK@YAHOO.COM,CRC-0143 / 05/31/2026,Beaufort / Limited Liability,,,,,BOSTICK S ADULT RESIDENTIAL CARE FACILITY LLC,N,N,20,529711.566,3588806.087
11314,FAMILY RESIDENTIAL CARE HOME I,21 EDWARDS ST,SUMTER,SC,29150-4808,803-757-1032,"WALTERS, MICHAEL A. PH#: 803-775-9555",TWRG32@YAHOO.COM,TWRG32@YAHOO.COM,CRC-1233 / 02/28/2026,Sumter / Sole Proprietorship,PO BOX 562,SUMTER,SC,29151-0562,MICHAEL A WALTERS,N,N,5,559806.835,3753363.352
11315,REID'S RESIDENTIAL CARE FACILITY,726 OLD SPARTANBURG HWY,WELLFORD,SC,29385-9668,864-439-9238,"DANIELS, JUDY C. PH#: 864-439-9238",ADMIN@REIDSRCF.COM,ADMIN@REIDSRCF.COM,CRC-0771 / 05/31/2026,Spartanburg / Sole Proprietorship,726 OLD SPARTANBURG HWY,WELLFORD,SC,29385-9668,JUDY DANIELS,N,N,23,399215.718,3867626.751
11316,ROUSE COMMUNITY CARE HOME #1,102 BALLENTON RD,COLUMBIA,SC,29203-9073,803-724-2820,"ROUSE, CHARLENE E. PH#: 803-788-1753",MATRICEROUSE@GMAIL.COM,MATRICEROUSE@GMAIL.COM,CRC-0327 / 12/31/2025,Richland / Corporation,PO BOX 134,STATE PARK,SC,29147-0134,ROUSE COMMUNITY CARE HOME INC,N,N,8,503585.605,3774316.187
11317,ROUSE COMMUNITY CARE HOME #3,9316 WILSON BLVD,COLUMBIA,SC,29203-9769,803-754-5720,"ROUSE, CHARLENE E. PH#: 803-754-5720",MATRICEROUSE@AOL.COM,MATRICEROUSE@AOL.COM,CRC-0238 / 09/30/2026,Richland / Corporation,PO BOX 134,STATE PARK,SC,29147-0134,ROUSE COMMUNITY CARE HOME INC,N,N,10,500757.573,3776426.822
11318,MIDWAY RESIDENTIAL CARE FACILITY #1,4026 MOORE DUNCAN HWY,MOORE,SC,29369-9721,864-433-8999,"WALKER, LINDA C. PH#: 864-433-8999",MIDWAYRESIDENTIALCARE@YAHOO.COM,MIDWAYRESIDENTIALCARE@YAHOO.COM,CRC-0318 / 12/31/2025,Spartanburg / Corporation,4026 MOORE DUNCAN HWY,MOORE,SC,29369-9721,MIDWAY RESIDENTIAL CARE FACILITY INC,N,N,13,402750.228,3860842.788
11319,MIDWAY RESIDENTIAL CARE FACILITY #1A,4026 MOORE DUNCAN HWY,MOORE,SC,29369-9721,864-433-8999,"WALKER, LINDA C. PH#: 864-433-8999",MIDWAYRESIDENTIALCARE@YAHOO.COM,MIDWAYRESIDENTIALCARE@YAHOO.COM,CRC-0320 / 12/31/2025,Spartanburg / Corporation,4026 MOORE DUNCAN HWY,MOORE,SC,29369-9721,MIDWAY RESIDENTIAL CARE FACILITY INC,N,N,14,402750.228,3860842.788
11320,MIDWAY RESIDENTIAL CARE FACILITY #2,4026 MOORE DUNCAN HWY,MOORE,SC,29369-9721,864-433-8999,"WALKER, LINDA C. PH#: 864-433-8999",MIDWAYRESIDENTIALCARE@YAHOO.COM,MIDWAYRESIDENTIALCARE@YAHOO.COM,CRC-0321 / 12/31/2025,Spartanburg / Corporation,4026 MOORE DUNCAN HWY,MOORE,SC,29369-9721,MIDWAY RESIDENTIAL CARE FACILITY INC,N,N,25,402750.228,3860842.788
11321,MIDWAY RESIDENTIAL CARE FACILITY #3,4026 MOORE DUNCAN HWY,MOORE,SC,29369-9721,864-433-8999,"WALKER, LINDA C. PH#: 864-433-8999",MIDWAYRESIDENTIALCARE@YAHOO.COM,MIDWAYRESIDENTIALCARE@YAHOO.COM,CRC-0346 / 12/31/2025,Spartanburg / Corporation,4026 MOORE DUNCAN HWY,MOORE,SC,29369-9721,MIDWAY RESIDENTIAL CARE FACILITY INC,N,N,17,402750.228,3860842.788
11322,MIDWAY RESIDENTIAL CARE FACILITY #4,4026 MOORE DUNCAN HWY,MOORE,SC,29369-9721,864-433-8999,"WALKER, LINDA C. PH#: 864-433-8999",MIDWAYRESIDENTIALCARE@YAHOO.COM,MIDWAYRESIDENTIALCARE@YAHOO.COM,CRC-0322 / 12/31/2025,Spartanburg / Corporation,4026 MOORE DUNCAN HWY,MOORE,SC,29369-9721,MIDWAY RESIDENTIAL CARE FACILITY INC,N,N,14,402750.228,3860842.788
11324,JOANNE'S COMMUNITY CARE HOME II,756 FARROWOOD DR,COLUMBIA,SC,29223-7801,803-736-3094,"CALDWELL, JOANNE M. PH#: 803-736-3094",JOANNESCCH@AOL.COM,JOANNESCCH@AOL.COM,CRC-0030 / 03/31/2026,Richland / Sole Proprietorship,PO BOX 23494,COLUMBIA,SC,29224-3494,JOANNE M CALDWELL,N,N,9,505629.016,3774497.428
11325,ELLIOTT'S RESIDENTIAL CARE HOME,2432 LANDSDOWNE RD,BOWMAN,SC,29018-9583,803-829-3348,"LEVINS, DEBORAH Y. PH#: 803-829-3348",ELLIOTTSCAREHOME@GMAIL.COM,ELLIOTTSCAREHOME@GMAIL.COM,CRC-0272 / 10/31/2025,Orangeburg / Corporation,PO BOX 265,BOWMAN,SC,29018-0265,ELLIOTT'S RESIDENTIAL CARE HOME INC,N,N,7,535997.986,3693282.759
11326,GREENVILLE COMMUNITY RESIDENCE,158 CAVALIER DR,GREENVILLE,SC,29607-4262,864-277-9656,"MOSS, TATYANA PH#: 864-277-9656",AMANDA.STONE@THRIVEUPSTATE.ORG,,CRC-0073 / 03/31/2026,Greenville / State,1700 RIDGE RD,GREENVILLE,SC,29607-4730,GREENVILLE COUNTY DISABILITIES & SPECIAL NEEDS BOARD,N,N,12,376356.704,3850951.095
11327,LAKEVIEW ASSISTED LIVING,320 CAMP RD,WALHALLA,SC,29691-4811,864-638-5212,"WRIGHT, DOUGLAS A. PH#: 864-225-3370",DWRIGHT@SENIORSOLUTIONS-SC.ORG,DWRIGHT@SENIORSOLUTIONS-SC.ORG,CRC-0086 / 04/30/2026,Oconee / Non-Profit Corporation,3420 CLEMSON BLVD STE 17,ANDERSON,SC,29621-1324,LAKEVIEW ASSISTED LIVING INC,N,Y,19,306484.933,3844395.286
11328,LAURENS MEMORIAL HOME FOR AGED,3744 TORRINGTON RD,LAURENS,SC,29360-0638,864-682-2322,"VRBAS, SUSAN PH#: 843-486-2712",ACOLEMANLMHEXEC@PRTCNET.COM,SVRBAS@HARMONYSENIORSERVICES.COM,CRC-0316 / 12/31/2025,Laurens / Non-Profit Corporation,PO BOX 638,LAURENS,SC,29360-0638,LAURENS MEMORIAL HOME FOR AGED INC,N,N,50,413302.727,3819058.94
11330,HERITAGE AT LOWMAN RESIDENTIAL CARE,2101 DUTCH FORK RD,CHAPIN,SC,29036,803-732-8800,"KNOWLES, AMANDA PH#: 803-732-8800",AKNOWLES@THEHERITAGEATLOWMAN.ORG,,CRC-0840 / 09/30/2026,Richland / Non-Profit Corporation,PO BOX 444,WHITE ROCK,SC,29177-0444,LUTHERAN HOMES OF SOUTH CAROLINA INC,Y,Y,132,474592.19,3778088.144
11331,QUIET ACRES RETIREMENT HOME,2968 OLD DOUGLAS MILL RD,HODGES,SC,29653-8930,864-378-3848,"MULLINS, STEPHANIE PH#: 864-446-2264",JOYMULL4@CS.COM,JOYMULL4@CS.COM,CRC-0588 / 05/31/2026,Abbeville / Limited Liability,173 MAGGIE LN,ABBEVILLE,SC,29620,PROMISES KEPT CUSTOMER SERVICE LLC,N,N,10,378341.798,3792640.21
11333,PRESBYTERIAN COMMUNITIES OF SOUTH CAROLINA-COLUMBIA,700 DAVEGA DR,LEXINGTON,SC,29073-9698,803-796-8700,"HUGHES, MEREDITH PH#: 803-796-8700",MEREDITH.HUGHES@PRESCOMM.ORG,,CRC-0387 / 06/30/2026,Lexington / Non-Profit Corporation,700 DAVEGA DR,LEXINGTON,SC,29073-9698,PRESBYTERIAN COMMUNITIES OF SOUTH CAROLINA,Y,Y,91,488058.619,3764659.791
11335,TYLER RESTMORE HOME,1681 BROUGHTON ST,ORANGEBURG,SC,29115-4873,803-536-0740,"ANTLEY, MICHELLE L. PH#: 803-536-0740",MICHELLEANTLEY@ICLOUD.COM,MICHELLEANTLEY@ICLOUD.COM,CRC-0841 / 07/31/2026,Orangeburg / Ltd. Liability,1681 BROUGHTON ST,ORANGEBURG,SC,29115-4873,TYLER RESTMORE HOME LLC,N,N,10,512001.246,3706110.559
11337,VILLAGE INN COMMUNITY CARE HOME,112 POWELL ST,GRANITEVILLE,SC,29829-2906,803-663-9495,"HERRON, MICHELLE A. PH#: 803-663-9495",VILLAGEINNCCH@BELLSOUTH.NET,HARMONYHOUSERCF@ATT.NET,CRC-0396 / 04/30/2026,Aiken / Sole Proprietorship,112 POWELL ST,GRANITEVILLE,SC,29829-2906,MICHELE A HERRON,N,N,10,424427.422,3714278.417
11339,FLANAGAN COMMUNITY CARE HOME,665 SHARPE RD,COLUMBIA,SC,29203-9304,803-754-2136,MARY E BRIGGS PH#: 803-754-2136,MARYPBRIGGS@GMAIL.COM,MARYPBRIGGS1@GMAIL.COM,CRC-0314 / 09/30/2026,Richland / Sole Proprietorship,665 SHARPE RD,COLUMBIA,SC,29203-9304,MARY E BRIGGS,N,N,9,499905.534,3772162.189
11340,ADDISON'S COMMUNITY CARE HOME,4013 PERCIVAL RD,COLUMBIA,SC,29229-8321,803-736-0455,"DOCTOR-GREENWADE, SARAH PH#: 803-736-0455",ADDISONCRCF@GMAIL.COM,SARDOCGWADE@UNIVERSALCARESOLUTIONS.COM,CRC-0815 / 05/31/2026,Richland / Corporation,PO BOX 23328,COLUMBIA,SC,29224-3328,ADDISON'S COMMUNITY CARE HOME INC,N,N,9,512438.145,3771761.158
11341,WALTERS RESIDENTIAL CARE,821 DUKE AVE,COLUMBIA,SC,29203-5651,803-252-8918,"JOHNSON, DELORES W. PH#: 803-252-8918",WALTERS1987@BELLSOUTH.NET,WALTERS1987@BELLSOUTH.NET,CRC-0985 / 03/31/2026,Richland / Non-Profit Corporation,PO BOX 211263,COLUMBIA,SC,29221-6263,MIPD INC,N,N,35,495946.43,3766670.041
11344,PINEDALE RESIDENTIAL CENTER,798 HERMITAGE POND RD,CAMDEN,SC,29020-9534,803-432-9900,"HUDSON, PHILLIP E. PH#: 803-432-9900",STEPHANIESHUDSON@OUTLOOK.COM,PHUDSON@PINEDALERESIDENTIAL.COM,CRC-0460 / 02/28/2026,Kershaw / Corporation,PO BOX 331,CAMDEN,SC,29021-0331,SHARECARE CORPORATION,N,N,50,541772.732,3789133.474
11346,FAMILY RESIDENTIAL CARE HOME II,23 EDWARDS ST,SUMTER,SC,29150-4808,803-565-2132,"WALTERS, MICHAEL A. PH#: 803-775-9555",TWRG32@YAHOO.COM,TWRG32@YAHOO.COM,CRC-1277 / 05/31/2026,Sumter / Sole Proprietorship,19 EDWARDS ST,SUMTER,SC,29150,MICHAEL A WALTERS,N,N,5,559807.924,3753347.77
11347,FOREST VIEW MANOR RETIREMENT CENTER,141 CALLISON HWY,MCCORMICK,SC,29835-3524,864-443-5857,"NIXON, LESLIE ANNETTE PH#: 864-443-5857",FORESTVIEWCONTACT@GMAIL.COM,,CRC-0500 / 11/30/2026,Edgefield / Corporation,141 CALLISON HWY,MCCORMICK,SC,29835-3524,HILLSIDE INC,N,Y,40,396233.997,3755585.882
11348,EUGENIA'S RESIDENTIAL CARE FACILITY,2232 HEYWARD BROCKINGTON RD,COLUMBIA,SC,29203-9677,803-786-1047,"DAVIS-EARGLE, EUGENIA M. PH#: 803-786-1047",DCCHANDERCF.INFO@GMAIL.COM,EMARIEEARGLE@YAHOO.COM,CRC-0538 / 08/31/2026,Richland / Partnership,PO BOX 3273,COLUMBIA,SC,29230-3273,ELIJAH DAVIS THOMASENA DAVIS & EUGENIA M EARGLE,N,N,23,494987.833,3776744.487
11349,BELL'S PROFESSIONAL RESIDENTIAL HOME CARE,1910 DALTON ST,NORTH CHARLESTON,SC,29406-3961,843-744-1765,"JACKSON, JACQUELYN PH#: 843-744-1765",BELLSRESIDENTIAL@GMAIL.COM,,CRC-1209 / 05/31/2026,Charleston / Ltd. Liability,1910 DALTON ST,NORTH CHARLESTON,SC,29406-3961,BELL'S PROFESSIONAL RESIDENTIAL HOME CARE LLC,N,N,20,601534.646,3637843.206
11350,VILLAGE COMMUNITY CARE HOME-UNIT A,1250 SALEM CHURCH RD,ANDERSON,SC,29625-1310,864-225-4336,"WILLIAMS, PHYLLIS S. PH#: 864-225-4336",VILLAGECARE365@GMAIL.COM,VILLAGECARE365@GMAIL.COM,CRC-0563 / 01/31/2026,Anderson / Corporation,PO BOX 5107,ANDERSON,SC,29623-5107,VILLAGE COMMUNITY CARE HOME INC,N,N,11,344553.116,3824436.68
11351,VILLAGE COMMUNITY CARE HOME-UNIT B,1250 SALEM CHURCH RD,ANDERSON,SC,29625-1310,864-225-4336,"WILLIAMS, PHYLLIS S. PH#: 864-225-4336",VILLAGECARE365@GMAIL.COM,VILLAGECARE365@GMAIL.COM,CRC-0564 / 01/31/2026,Anderson / Corporation,PO BOX 5107,ANDERSON,SC,29623-5107,VILLAGE COMMUNITY CARE HOME INC,N,N,11,344553.116,3824436.68
11352,VILLAGE COMMUNITY CARE HOME-UNIT C,1250 SALEM CHURCH RD,ANDERSON,SC,29625-1310,864-225-4336,"WILLIAMS, PHYLLIS S. PH#: 864-225-4336",VILLAGECARE365@GMAIL.COM,VILLAGECARE365@GMAIL.COM,CRC-0565 / 01/31/2026,Anderson / Corporation,PO BOX 5107,ANDERSON,SC,29623-5107,VILLAGE COMMUNITY CARE HOME INC,N,N,11,344553.116,3824436.68
11353,VILLAGE COMMUNITY CARE HOME-UNIT D,1250 SALEM CHURCH RD,ANDERSON,SC,29625-1310,864-225-4336,"WILLIAMS, PHYLLIS S. PH#: 864-225-4336",VILLAGECARE365@GMAIL.COM,VILLAGECARE365@GMAIL.COM,CRC-0566 / 01/31/2026,Anderson / Corporation,PO BOX 5107,ANDERSON,SC,29623-5107,VILLAGE COMMUNITY CARE HOME INC,N,N,11,344553.116,3824436.68
11354,RILEY'S RESIDENTIAL CARE HOME,2327 BRIAN CHRISTOPHER RD,GREAT FALLS,SC,29055-8844,803-482-3290,"GOODE-RILEY, BEVERLY PH#: 803-482-3290",BPRILEY09@YAHOO.COM,BPRILEY09@YAHOO.COM,CRC-0900 / 10/31/2026,Chester / Sole Proprietorship,2327 BRIAN CHRISTOPHER RD,GREAT FALLS,SC,29055-8844,BEVERLY GOODE-RILEY,N,N,10,506070.599,3828638.984
11358,WHITNEY PLACE,107 CORNWELL ST,UNION,SC,29379-2404,864-427-4275,"DAWKINS, TIFFANY Y. PH#: 803-792-5522",DAWKINST98@GMAIL.COM,,CRC-0572 / 02/28/2026,Union / Corporation,11 PARTRIDGE DR,GREENVILLE,SC,29609-6626,WHITNEY CORPORATION OF COLUMBIA INC,N,N,24,443506.702,3841176.42
11360,WESTMINSTER TOWERS RESIDENTIAL,1330 INDIA HOOK RD,ROCK HILL,SC,29732-2412,803-328-5000,"BOSDELL, WILLIAM F., III. PH#: 803-328-5000",WBOSDELL@WESTMINSTERTOWERS.ORG,,CRC-0580 / 09/30/2026,York / Non-Profit Corporation,1330 INDIA HOOK RD,ROCK HILL,SC,29732-2412,WESTMINSTER PRESBYTERIAN CENTER INC,N,Y,57,497358.254,3867808
11362,MARIA'S PRIORITY CARE RESIDENTIAL HOME I,3117 MEETING STREET RD,NORTH CHARLESTON,SC,29405-7980,843-554-0064,ROGERIA R PARANAL PH#: 843-554-0064,RRPARANAL@GMAIL.COM,RRPARANAL@GMAIL.COM,CRC-0937 / 07/31/2026,Charleston / Sole Proprietorship,3117 MEETING STREET RD,NORTH CHARLESTON,SC,29405-7980,ROGERIA R PARANAL,N,N,7,596390.594,3635083.992
11365,GOOD SAMARITAN RESIDENTIAL CARE,1356 BUBZY RD,KINGSTREE,SC,29556-5246,843-382-3530,"SCOTT, MARY INEZ PH#: ",GSRFC1356@GMAIL.COM,,CRC-1015 / 05/31/2026,Williamsburg / Corporation,1356 BUBZY RD,KINGSTREE,SC,29556-5246,GOOD SAMARITAN RESIDENTIAL CARE FACILITY INC,N,N,12,615859.667,3722148.977
11366,MIDWAY RESIDENTIAL CARE FACILITY #5,4026 MOORE DUNCAN HWY,MOORE,SC,29369-9721,864-433-8999,"WALKER, LINDA C. PH#: 864-433-8999",MIDWAYRESIDENTIALCARE@YAHOO.COM,MIDWAYRESIDENTIALCARE@YAHOO.COM,CRC-0616 / 12/31/2025,Spartanburg / Corporation,4026 MOORE DUNCAN HWY,MOORE,SC,29369-9721,MIDWAY RESIDENTIAL CARE FACILITY INC,N,N,12,402750.228,3860842.788
11367,WRIGHT'S RESIDENTIAL CARE FACILITY 1,950 OLD SPARTANBURG HWY,WELLFORD,SC,29385,864-249-0412,"WRIGHT, DIANNE E. PH#: 864-497-5741",WRIGHTSCARE91@GMAIL.COM,WRIGHTSCARE91@GMAIL.COM,CRC-0617 / 01/31/2026,Spartanburg / Sole Proprietorship,PO BOX 268,WELLFORD,SC,29385-0268,DIANNE E WRIGHT,N,N,10,398864.351,3867952.521
11369,GENERATIONS OF BATESBURG,111 GENERATIONS BLVD,BATESBURG,SC,29006-2315,803-532-8428,"NIX, HAMMIE R. PH#: 803-532-8428",HAMMIE@GENERATIONSOFBATESBURG.COM,HAMMIE@GENERATIONSOFBATESBURG.COM,CRC-0647 / 09/30/2026,Lexington / Corporation,431 E BOUNDARY ST,CHAPIN,SC,29036-8388,GENERATIONS OF BATESBURG INC,N,N,88,450556.96,3751967.394
11370,WESLEYAN SUITES,2100 TWIN CHURCH RD,FLORENCE,SC,29501-8200,843-664-0700,"REICH, TERESSA L. PH#: 843-664-0700",TREICH@THEMANORSENIORLIVING.COM,TREICH@THEMANORSENIORLIVING.COM,CRC-0662 / 12/31/2025,Florence / Non-Profit Corporation,2100 TWIN CHURCH RD,FLORENCE,SC,29501-8200,UNITED METHODIST MANOR OF THE PEE DEE,Y,Y,95,605098.991,3779544.633
11373,QUALITY CARE RESIDENTIAL HOME,107 ETLING AVE,GOOSE CREEK,SC,29445-3001,843-863-0209,"HITCHMAN, MARTINA E. PH#: 843-863-0209",BRUCE@JONESMGTREALTY.COM,MARTINA@QUALITYCAREOFSC.COM,CRC-0715 / 01/31/2026,Berkeley / ,PO BOX 129,CHINA GROVE,NC,28023,QUALITY CARE RESIDENTIAL HOME SC LLC,N,N,29,589437.672,3651655.656
11375,DREAMLAND RESIDENTIAL CARE,6941 NORTH RD,NORTH,SC,29112-8832,803-533-7492,"WRIGHT, DELORES M. PH#: 803-533-7492",DELORESWRIGHT4@AOL.COM,DELORESWRIGHT4@AOL.COM,CRC-0795 / 10/31/2026,Orangeburg / Sole Proprietorship,6941 NORTH RD,NORTH,SC,29112-8832,DELORES M WRIGHT,N,N,5,499189.469,3718854.952
11376,LONGWOOD PLANTATION,1687 LONGWOOD DR,ORANGEBURG,SC,29118-2307,803-535-0250,"JOHNSON-STILL, JERRI PH#: 803-535-0250",JERRI.JOHNSON-STILL@LONGWOODPLANTATION.,JERRI.JOHNSON-STILL@LONGWOODPLANTATION,CRC-0797 / 10/31/2026,Orangeburg / Limited Liability,1687 LONGWOOD DR,ORANGEBURG,SC,29118-2307,LONGWOOD PLANTATION-FHE LLC,Y,Y,42,512295.328,3709813.038
11377,MARIA'S PRIORITY CARE RESIDENTIAL HOME III,3115 MEETING STREET RD,NORTH CHARLESTON,SC,29405-7980,843-554-0064,ROGERIA R PARANAL PH#: 843-554-0064,RRPARANAL@GMAIL.COM,RRPARANAL@GMAIL.COM,CRC-0938 / 07/31/2026,Charleston / ,3115 MEETING STREET RD,NORTH CHARLESTON,SC,29405-7980,ROGERIA R PARANAL,N,N,7,596390.594,3635083.992
11379,BRIDGE ASSISTED LIVING AT LIFE CARE CENTER OF CHARLESTON,2590 ELMS PLANTATION BLVD,NORTH CHARLESTON,SC,29406-8105,843-553-6342,"DAUGHERTY, KATHERYN G. PH#: ",KATEDAUGHERTY19@GMAIL.COM,,CRC-1064 / 10/31/2026,Charleston / Ltd. Liability,2590 ELMS PLANTATION BLVD,NORTH CHARLESTON,SC,29406,CHARLESTON RETIREMENT INVESTORS LLC,N,N,100,587735.378,3649584.684
11382,WESLEY COURT ASSISTED LIVING COMMUNITY,916 WESLEY CT,BOILING SPRINGS,SC,29316-5649,864-599-9929,"PAUL, KEITH ALDON PH#: ",WESLEYCOURT@TUTERA.COM,KEITH.PAUL@FUNDLTC.COM,CRC-1289 / 12/31/2025,Spartanburg / Limited Liability,916 WESLEY CT,BOILING SPRINGS,SC,29316-5649,WESLEY COURT ASSISTED LIVING FACILITY LLC,N,N,70,411195.643,3878063.426
11384,PRESBYTERIAN COMMUNITIES OF SOUTH CAROLINA-CLINTON,801 MUSGROVE ST,CLINTON,SC,29325-1796,864-833-5190,"HAWKINS, TAMIEKA PH#: 864-833-5190",TAMIEKA.HAWKINS@PRESCOMM.ORG,TAMIEKA.HAWKINS@PRESCOMM.ORG,CRC-0014 / 04/30/2026,Laurens / Non-Profit Corporation,801 MUSGROVE ST,CLINTON,SC,29325-1796,PRESBYTERIAN COMMUNITIES OF SOUTH CAROLINA,Y,Y,43,419663.418,3816289.152
11386,VANGUARD RESIDENTIAL SERVICES I,100 E HOSPITAL ST,MANNING,SC,29102-3158,803-435-2330,"WAY, JAMES RYAN PH#: 803-435-2330",RWAY@CCDSNB.ORG,RWAY@CCDSNB.ORG,CRC-1313 / 06/30/2026,Clarendon / Non-Profit Corporation,PO BOX 40,MANNING,SC,29102-0040,VANGUARD RESIDENTIAL SERVICES INC,N,N,8,573378.905,3727786.804
11387,VANGUARD RESIDENTIAL SERVICES II,512 S CHURCH ST,MANNING,SC,29102-3122,803-435-2330,"CONYERS, STACEY EVETTE PH#: 803-435-2330",RWAY@CCDSNB.ORG,,CRC-1314 / 06/30/2026,Clarendon / Corporation,PO BOX 40,MANNING,SC,29102-0040,VANGUARD RESIDENTIAL SERVICES INC,N,N,8,573301.679,3727670.295
11388,BROOKDALE EBENEZER ROAD,1920 EBENEZER RD,ROCK HILL,SC,29732-1014,803-366-1189,"JENKINS, HOWARD K. PH#: ",HJENKINS@BROOKDALE.COM,,CRC-1308 / 02/28/2026,York / Corporation,1920 EBENEZER RD,ROCK HILL,SC,29732-1014,BROOKDALE SENIOR LIVING COMMUNITIES INC,N,N,52,495478.488,3868982.201
11389,SECESSIONVILLE COMMUNITY RESIDENCE,1217 SECESSIONVILLE RD,CHARLESTON,SC,29412-9749,843-795-1355,"COLEMAN, SHARON PH#: ",SCOLEMAN@DSNCC.COM,SCOLEMAN@DSNCC.COM,CRC-1287 / 12/31/2025,Charleston / State,PO BOX 22708,CHARLESTON,SC,29413-2708,DISABILITIES BOARD OF CHARLESTON COUNTY,N,N,8,597773.687,3620958.461
11390,BROOKDALE NORTH AUGUSTA,105 N HILLS DR OFC,NORTH AUGUSTA,SC,29841-0113,803-819-0034,"ARANT, RONALD PH#: 803-819-0034",RARANT@BROOKDALE.COM,,CRC-1298 / 02/28/2026,Aiken / Corporation,105 N HILLS DR OFC,NORTH AUGUSTA,SC,29841-0113,BROOKDALE SENIOR LIVING COMMUNITIES INC,N,N,52,409864.527,3708250.101
11391,QUILLEN MANOR,709 QUILLEN AVE,FOUNTAIN INN,SC,29644-9444,864-601-1440,"SCHAAF, HEIDI RENEE PH#: 864-414-1967",HSCHAAF@LIVE.COM,HSCHAAF@ENLIVANT.COM,CRC-1321 / 06/30/2026,Greenville / Limited Liability,709 QUILLEN AVE,FOUNTAIN INN,SC,29644-9444,QUILLEN MANOR LLC,Y,Y,78,390057.155,3841321.935
11392,MEADOWLARK DRIVE COMMUNITY RESIDENTIAL CARE FACILITY,1183 MEADOWLARK DR,ROCK HILL,SC,29730,803-327-9770,"HART, LEETTA PH#: ",LEETTA.HART@MAXABILITIES.ORG,LEETTA.HART@MAXATILITIES.ORG,CRC-0881 / 08/31/2026,York / Non-Profit Corporation,PO BOX 549,YORK,SC,29745-0549,YORK COUNTY BOARD OF DISIBALITIES AND SPECIAL NEEDS,N,N,8,492668.732,3867498.292
11393,PRESBYTERIAN COMMUNITIES OF SOUTH CAROLINA-SUMMERVILLE,201 W 9TH NORTH ST,SUMMERVILLE,SC,29483-6721,843-873-2550,"KING, ELIZABETH PH#: 843-873-2550",ELIZABETH.KING@PRESCOMM.ORG,,CRC-0245 / 09/30/2026,Dorchester / Non-Profit Corporation,201 W 9TH NORTH ST OFC 140,SUMMERVILLE,SC,29483-6701,PRESBYTERIAN COMMUNITIES OF SOUTH CAROLINA,Y,Y,114,577537.351,3655293.479
11395,BRIANA'S RESIDENTIAL CARE FACILITY,252 CHARLESTON AVE N,FAIRFAX,SC,29827-4502,803-632-9813,"WALKER, SYMONE B. PH#: 803-632-9813",WALKER_SYMONE@YAHOO.COM,,CRC-1333 / 11/30/2025,Allendale / Sole Proprietorship,649 HAMPTON AVE N,FAIRFAX,SC,29827-4313,JOHN W WALKER,N,N,10,478075.719,3646855.035
11398,BIRD STREET I COMMUNITY RESIDENTIAL CARE FACILITY,1705 BIRD ST,ROCK HILL,SC,29730-3830,803-366-7121,"CROUCH, KELLY M. PH#: ",KELLY.CROUCH2@MAXABILITIES.ORG,,CRC-1357 / 06/30/2026,York / State,PO BOX 549,YORK,SC,29745-0549,YORK COUNTY DISABILITIES AND SPECIAL NEEDS BOARD,N,N,8,499899.163,3866840.676
11399,LEGACY OF NORTH MYRTLE BEACH,491 HWY 17,LITTLE RIVER,SC,29566-8082,843-399-5662,"FERENCE, LORI PH#: 843-903-8300",LORI.FERENCE@NAVIONSL.COM,LFERENCE@BRIGHTWATER-LIVING.COM,CRC-1360 / 06/30/2026,Horry / Corporation,"400 CENTRE ST, LICENSING DEPT",NEWTON,MA,02458-2094,SNH SE N MYRTLE BEACH TENANT LLC,Y,Y,80,717407.969,3749711.668
11400,DIVINE MANOR ASSISTED LIVING CENTER,2210 OAK POND RD,ROCK HILL,SC,29730-7958,803-329-4494,"AFAM, DORIS O. PH#: 803-329-4494",DIVINEMANOR@COMPORIUM.NET,DIVINEMANOR@COMPORIUM.NET,CRC-1361 / 07/31/2026,York / Limited Liability,2210 OAK POND RD,ROCK HILL,SC,29730-7958,DIVINE NURSE CONSULTANT LLC,N,Y,32,502710.078,3859873.197
11402,FOOTHILLS ASSISTED LIVING,999 W UNION RD,WEST UNION,SC,29696-2642,864-638-4370,"NICHOLS, KYMBERLY PH#: 864-638-4370",KNICHOLS@CITE-MGMT.COM,KNICHOLS@CITE-MGMT.COM,CRC-1364 / 08/31/2026,Oconee / Corporation,106 MARLEE CT,LEXINGTON,SC,29072-8492,CITE HEALTH MANAGEMENT SERVICES INC,Y,Y,76,314184.532,3845755.106
11403,ROSEWOOD ASSISTED LIVING,5221 HWY 215,PAULINE,SC,29374-1908,864-573-4060,"CLOBES, KIMBERLY H. PH#: 864-573-4060",WIJG38@GMAIL.COM,WIJG38@GMAIL.COM,CRC-1367 / 11/30/2025,Spartanburg / Ltd. Liability,PO BOX 35,PAULINE,SC,29374-0035,ROSEWOOD ASSISTED LIVING LLC,N,N,75,421123.035,3854037.693
11404,FARMINGTON COMMUNITY RESIDENCE,1269 CAMP RD,JAMES ISLAND,SC,29412-9212,843-795-2461,"COLEMAN, SHARON PH#: ",SCOLEMAN@DSNCC.COM,SCOLEMAN@DSNCC.COM,CRC-1370 / 01/31/2026,Charleston / State,"PO BOX 22708, DISABILITIES BOARD OF CHARLESTON COUNTY",CHARLESTON,SC,29413-2708,DISABILITIES BOARD OF CHARLESTON COUNTY,N,N,8,598326.839,3621615.291
11405,CAMP COMMUNITY RESIDENCE,1251 CAMP RD,JAMES ISLAND,SC,29412-9212,843-795-6983,"MILES, BRANDI PH#: 843-795-6983",ETURNER@DSNCC.COM,BMILES@DSNCC.COM,CRC-1371 / 01/31/2026,Charleston / State,"PO BOX 22708, DISABILITIES BOARD OF CHARLESTON COUNTY",CHARLESTON,SC,29413-2708,DISABILITIES BOARD OF CHARLESTON COUNTY,N,N,8,598406.165,3621583.354
11406,OAKS AT BEAUFORT,1119 PICKPOCKET PLANTATION DR,BEAUFORT,SC,29902-3771,843-770-0105,"WOOD, WAYNE PH#: 843-770-0105",WAYNEW2@OSLCARES.COM,,CRC-1375 / 06/30/2026,Beaufort / Corporation,"400 CENTRE ST, LICENSING DEPT",NEWTON,MA,02458-2094,SNH SE TENANT TRS INC,Y,Y,87,528023.584,3589102.965
11407,OAKS AT CHARLESTON,2333 ASHLEY RIVER RD,CHARLESTON,SC,29414-4755,843-766-9898,"SUMMERS, DETRA PH#: 843-271-7398",DETRA.SUMMERS@OSLCARES.COM,,CRC-1376 / 06/30/2026,Charleston / Limited Liability,"400 CENTRE ST, LICENSING DEPT",NEWTON,MA,02458-2094,SNH SE ASHLEY RIVER TENANT LLC,Y,Y,123,590063.994,3632017.13
11408,EMERALD GARDENS OF GREENWOOD,201 OVERLAND DR,GREENWOOD,SC,29646-4097,864-953-2174,"HASTING, SARAH F. PH#: 864-223-6510",SHASTING@EMERALDGARDENSASSISTEDLIVING.,,CRC-1378 / 10/31/2026,Greenwood / Ltd. Liability,201 OVERLAND DR,GREENWOOD,SC,29646-4097,EMERALD GARDENS OF GREENWOOD LLC,Y,Y,66,393381.177,3781548.333
11409,DILLON COMMUNITY RESIDENCE,506 S 14TH AVE,DILLON,SC,29536-4369,843-841-0778,"WHEELER HAYNES, SHARON PH#: 843-632-1956",SHAYNES@MDDSN.ORG,SHAYNES@MDDSN.ORG,CRC-1377 / 04/30/2026,Dillon / County,"400 MARTIN LUTHER KING BLVD, MARION-DILLON CO BRD OF DISAB & SPECIAL",MARION,SC,29571,MARION-DILLON COUNTY BOARD OF DISABILITIES AND SPECIAL NEEDS,N,N,8,649977.334,3808786.242
11410,DAYSPRING ASSISTED LIVING,5146 TOWLES RD,HOLLYWOOD,SC,29449-6119,843-889-9757,"MARSHALL, GRAEME PH#: 843-889-9757",DAYSPRINGSC@YAHOO.COM,DAYSPRINGSC@YAHOO.COM,CRC-1385 / 03/31/2026,Charleston / Ltd. Liability,5146 TOWLES RD,HOLLYWOOD,SC,29449-6119,DAYSPRING ASSISTED LIVING LLC,N,Y,16,574263.654,3622855.248
11411,WINDSOR HOUSE GREENVILLE,1931 PELHAM RD,GREENVILLE,SC,29615-4002,864-288-9450,"WILSON, RENEE PH#: 864-288-9450",CLAY.FOWLERHEALTHCAREENTERPRISE@GMAIL.CO,RWILSON@WINDSORHOUSEGREENVILLE.COM,CRC-1388 / 01/31/2026,Greenville / ,1931 PELHAM RD,GREENVILLE,SC,29615-4002,WINDOR HOUSE GREENVILLE-FHE LLC,N,N,50,382321.024,3858538.227
11412,PALMETTO RIDGE ASSISTED LIVING & MEMORY CARE,840 MANOR RD,CHERAW,SC,29520-4035,843-537-4197,"BARNHILL, AVONLEA PH#: 843-537-4197",PALMETTORIDGE@YAHOO.COM,ABARNHILL@PRUITTHEALTH.COM,CRC-1393 / 03/31/2026,Chesterfield / Limited Liability,840 MANOR RD,CHERAW,SC,29520-4035,PALMETTO RIDGE ASSISTED LIVING AND MEMORY CARE LLC,Y,Y,106,599356.861,3837715.785
11413,GREER COMMUNITY RESIDENCE,112 S BEVERLY LN,GREER,SC,29651-1738,864-879-8570,"MOSS, TATYANA PH#: 864-277-9656",AMANDA.STONE@THRIVEUPSTATE.ORG,,CRC-0237 / 09/30/2026,Greenville / State,1700 RIDGE RD,GREENVILLE,SC,29607-4730,GREENVILLE COUNTY DISABILITIES & SPECIAL NEEDS BOARD,N,N,12,386449.963,3867132.19
11414,PALMETTO VILLAGE OF CHESTER,570 CENTER RD,CHESTER,SC,29706,336-581-7319,"KAZER, AUDREY T. PH#: 336-749-1015",ATKAZER@GMAIL.COM,,CRC-1399 / 06/30/2026,Chester / Ltd. Liability,PO BOX 1597,KING,NC,27021,BHM OF CHESTER LLC,N,N,92,479201.09,3842043.972
11415,ANGELIC'S PLACE,902 W BARTLETTE ST,SUMTER,SC,29150-8005,803-775-1404,"GREENE, SHIRLEY H. PH#: 803-775-1404",BBETTMOU@AOL.COM,GREENESRESIDENTIALCARE@GMAIL.COM,CRC-1400 / 09/30/2026,Sumter / Ltd. Liability,903 W BARTLETTE ST,SUMTER,SC,29150-8005,ANGELIC'S PLACE LLC,N,N,11,559494.408,3753193.96
11417,MILL STREET COMMUNITY RESIDENCE,415 MILL ST,LAURENS,SC,29360-1905,864-984-3506,"TAVENNER, JASON PH#: 864-984-3506",JTAVENNER@LCDSNB.ORG,JTAVENNER@LCDSNB.ORG,CRC-1419 / 12/31/2025,Laurens / Non-Profit Corporation,1860 HWY 14,LAURENS,SC,29360-1068,LAURENS COUNTY DISABILITIES AND SPECIAL NEEDS BOARD,N,N,8,407701.064,3818812.469
11418,DAVIDSON STREET COMMUNITY RESIDENCE,313 DAVIDSON ST,CLINTON,SC,29325-2023,864-833-7284,"TAVENNER, JASON PH#: 864-833-7284",LANDERS@LCDSNB.ORG,JTAVENNER@LCDSNB.ORG,CRC-1420 / 12/31/2025,Laurens / Non-Profit Corporation,1860 HWY 14,LAURENS,SC,29360-1068,LAURENS COUNTY DISABILITIES AND SPECIAL NEEDS BOARD,N,N,8,419812.496,3815674.68
11419,SAVANNAH HALL ASSISTED LIVING,1010 LAKE HUNTER CIR,MOUNT PLEASANT,SC,29464-5417,843-888-2030,"DOLAN, ALLISON PH#: 843-884-6949",ADOLAN@DISCOVERYMANAGEMENTGROUP.COM,,CRC-1431 / 05/31/2026,Charleston / Limited Liability,"400 CENTRE ST, LICENSING DEPT",NEWTON,MA,02458-2094,SNH SE SG TENANT LLC,Y,Y,16,606576.091,3631313.585
11420,COOPER HALL AT THE PALMS OF MT PLEASANT,937 BOWMAN RD,MOUNT PLEASANT,SC,29464-3222,843-884-6949,"DOLAN, ALLISON PH#: 843-884-6949",ADOLAN@DISCOVERYMANAGEMENTGROUP.COM,,CRC-1432 / 06/30/2026,Charleston / Limited Liability,"400 CENTRE ST, LICENSING DEPT",NEWTON,MA,02458-2094,SNH SE SG TENANT LLC,N,N,44,606705.887,3631434.995
11421,ANOINTED RESIDENTIAL CARE,551 S SUMTER ST,SUMTER,SC,29150-5765,803-883-4427,"BRADLEY, DAISY E. PH#: 803-883-4427",DAISY78BRADLEY@GMAIL.COM,DAISY78BRADLEY@OUTLOOK.COM,CRC-1435 / 03/31/2026,Sumter / Partnership,551 S SUMTER ST,SUMTER,SC,29150-5765,COREY T WRIGHT & DAISY BRADLEY,N,N,8,560613.8,3752287.179
11422,GARDEN HOUSE,201 EDGEBROOK DR,ANDERSON,SC,29621-2573,864-964-5668,"SHERRER, KEELEE P. PH#: 864-964-5668",LICENSING@PRINCIPALSENIORLIVING.COM,DIRECTOR@GARDENHOUSEANDERSON.COM,CRC-1437 / 07/31/2026,Anderson / Ltd. Liability,11175 CICERO DR STE 500,ALPHARETTA,GA,30022-0004,ARHC GHANDSC01 TRS LLC,Y,Y,75,350140.407,3824694.939
11423,CHARLES M INGRAM SR COMMUNITY RESIDENCE,1615 STATE RD,CHERAW,SC,29520-5107,843-537-5122,"CUE, TANGELA C PH#: 843-623-6586",T.CUE@CHESCOSERVICES.ORG,,CRC-1440 / 05/31/2026,Chesterfield / Sole Proprietorship,1224 EAST BLVD,CHESTERFIELD,SC,29709-5148,CHESCO SERVICES,N,N,8,598136.497,3840279.607
11424,LANGIT'S ASSISTED LIVING FACILITY,1273 REMOUNT RD,NORTH CHARLESTON,SC,29406-3439,843-554-1671,"LANGIT, CRESENCIA B. PH#: 843-554-1671",JAMES.LANGIT@LANGITSASSISTEDLIVING.NET,LANGITSASSISTEDLIVING@COMCAST.NET,CRC-0861 / 03/31/2026,Charleston / Corporation,1273 REMOUNT RD,NORTH CHARLESTON,SC,29406-3439,LANGIT'S RESIDENTIAL HOME CARE INC,N,N,70,594268.455,3640838.927
11425,CHESTERFIELD COMMUNITY RESIDENCE,817 E MAIN ST,CHESTERFIELD,SC,29709-1807,843-623-6586,"CUE, TANGELA C PH#: 843-623-6586",T.CUE@CHESCOSERVICESORG,,CRC-1441 / 05/31/2026,Chesterfield / Sole Proprietorship,1224 EAST BLVD,CHESTERFIELD,SC,29709-5148,CHESCO SERVICES,N,N,8,584803.284,3843586.938
11427,MARYVILLE COMMUNITY RESIDENCE,2602 OLD CHARLESTON RD,GEORGETOWN,SC,29440-1471,843-546-7268,"RANDOLPH, STACEY PH#: 843-546-7268",EKRAUSS@GCBDSN.COM,SANTLEY@GCBDSN.COM,CRC-1446 / 06/30/2026,Georgetown / County,"95 ACADEMY AVE, GEORGETOWN COUNTY DSNB",GEORGETOWN,SC,29440,GEORGETOWN COUNTY BOARD OF DISABILITIES AND SPECIAL NEEDS,N,N,8,658127.162,3689913.167
11428,EASLEY RETIREMENT CENTER,102 DOWLING ST,EASLEY,SC,29641,864-859-3722,"WOODS, SHARON PH#: 864-859-3722",ERCSWOODS3927@GMAIL.COM,,CRC-0359 / 02/28/2026,Pickens / Corporation,"102 DOWLING ST, PO BOX 736",EASLEY,SC,29640-2424,WEST END RETIREMENT CENTER INC,N,N,16,355744.641,3855961.448
11429,PADD-WREN HOME,2350 REGIONAL RD,FLORENCE,SC,29501-7028,843-673-1005,"TUMBLESON, KIMBERLY PH#: 843-673-1005",KTUMBLESON@PADDSC.ORG,KIMBERLYTUMBLESON2014@YAHOO.COM,CRC-1451 / 06/30/2026,Florence / Non-Profit Corporation,2350 REGIONAL RD,FLORENCE,SC,29501-7028,PRESBYTERIAN AGENCY FOR THE DEVELOPMENTALLY DISABLED INC,N,N,6,609339.281,3788985.944
11430,NORTH POINTE ASSISTED LIVING,701 SIMPSON RD,ANDERSON,SC,29621-3077,864-226-5501,"WESSON, BERTHA PH#: 864-226-5505",BWESSON@SONIDALIVING.COM,,CRC-1454 / 10/31/2026,Anderson / Limited Liability,701 SIMPSON RD,ANDERSON,SC,29621-3077,CSL NORTH POINTE SC LLC,Y,Y,70,351995.357,3822670.489
11431,REFLECTIONS AT CAROLINA FOREST,219 MIDDLEBURG DR,MYRTLE BEACH,SC,29579-3409,843-903-0700,"JORDAN, CHELSEA S. PH#: 843-903-0700",CHELSEA@REFLECTIONSASSISTEDLIVING.COM,CHELSEA@REFLECTIONSASSISTEDLIVING.COM,CRC-1456 / 11/30/2026,Horry / Corporation,219 MIDDLEBURG DR,MYRTLE BEACH,SC,29579-3409,REFLECTIONS AT CAROLINA FOREST INC,Y,Y,42,689051.271,3737712.652
11432,WARE SHOALS MANOR,10 N GREENWOOD AVE,WARE SHOALS,SC,29692-1239,864-456-7127,"OBI-MELEKWE, BERNICE O. PH#: 864-456-7127",OSKARMANI@AOL.COM,OSKARMANI@AOL.COM,CRC-1457 / 10/31/2026,Greenwood / Ltd. Liability,10 N GREENWOOD AVE,WARE SHOALS,SC,29692,HARMONY RESIDENTIAL CARE CENTER LLC,N,N,24,384680.072,3807871.803
11433,IVY GROVE RESIDENTIAL CARE CENTER,483 LOCKHART LN,GAFFNEY,SC,29341-2841,864-487-0869,"MELEKWE, OBIAJULU E. PH#: 864-487-0869",OSKARMANI@AOL.COM,OSKARMANI@AOL.COM,CRC-1458 / 10/31/2025,Cherokee / Ltd. Liability,483 LOCKHART LN,GAFFNEY,SC,29341-2841,HARMONY RESIDENTIAL CARE CENTER LLC,N,Y,62,440960.112,3884142.533
11434,BELVEDERE COMMONS OF SENECA,515 BENTON ST,SENECA,SC,29672-6883,864-888-4114,"WITZEL, JENNIE PH#: 864-888-4114",ED.SC@BELVEDERECOMMONS.COM,,CRC-1466 / 10/31/2026,Oconee / Ltd. Liability,515 BENTON ST,SENECA,SC,29672-6883,FKP SENECA SENIOR LIVING TENANT LLC,Y,Y,62,317491.416,3844025.187
11435,COUNTRY COMFORT COMMUNITY HOME,204 JOE ARTHUR CIR,BLYTHEWOOD,SC,29016-8807,803-735-9777,"COUNTS, CLIFFORD A. PH#: 803-735-9777",COUNTS_COUNTRYCOMFORT@YAHOO.COM,COUNTS_COUNTRYCOMFORT@YAHOO.COM,CRC-1467 / 02/28/2026,Richland / ,2452 ROLLING PINES RD,COLUMBIA,SC,29210,COUNTRY COMFORT HOMES LLC,N,N,9,503792.531,3779132.38
11436,GENERATIONS OF MONETTA,77 CATO RD,MONETTA,SC,29105-9319,803-685-7820,"EVANS, KASATRA PH#: 803-642-1041",KASATRA.EVANS@SCDMH.ORG,KEVENS@AIKENTDC.ORG,CRC-0876 / 10/31/2026,Aiken / Ltd. Liability,77 CATO RD,MONETTA,SC,29105-9319,GENERATIONS OF MONETTA LLC,N,N,22,444712.331,3745770.335
11437,ROCKHAVEN COMMUNITY CARE HOME,524 ROCKHAVEN DR,COLUMBIA,SC,29223-7805,803-699-5361,"BARNES, RICHIE D. PH#: 803-699-5361",RBARNES3469@GMAIL.COM,RBARNES3469@GMAIL.COM,CRC-0800 / 01/31/2026,Richland / Sole Proprietorship,524 ROCKHAVEN DR,COLUMBIA,SC,29223-7805,RICHIE D BARNES,N,N,10,505371.06,3774560.05
11438,MIDLAND PARK RESIDENTIAL HOME CARE,2712 MIDLAND PARK RD,NORTH CHARLESTON,SC,29406-4551,843-569-0025,"BALAGTAS, GERALDO PH#: 843-569-0025",MIDLANDPARKRCF@GMAIL.COM,MIDLANDPARKRCF@GMAIL.COM,CRC-0905 / 01/31/2026,Charleston / Corporation,104 BIRKBECK CT,GOOSE CREEK,SC,29445,MIDLAND PARK ENTERPRISES INC,N,N,52,589106.483,3642975.343
11439,GOD'S HAVEN OF REST,516 BELVEDERE CLEARWATER RD,NORTH AUGUSTA,SC,29841-2583,803-226-2872,"AYERS, HAZEL LEIGH PH#: 803-279-1129",LEIGH.3@COMCAST.NET,LEIGH.3@COMCAST.NET,CRC-1237 / 12/31/2025,Aiken / Sole Proprietorship,516 BELVEDERE CLEARWATER RD,NORTH AUGUSTA,SC,29841-2583,HAZEL L AYERS,N,N,9,412988.857,3710546.843
11496,GRACE RESIDENTIAL CARE FACILITY,6534 CAROLINA HWY,DENMARK,SC,29042-2366,803-793-3423,"DAVIS, BERNESTINE C. PH#: 803-793-3423",BERNESTINEDAVIS@YAHOO.COM,BERNESTINEDAVIS@YAHOO.COM,CRC-0584 / 08/31/2026,Bamberg / Corporation,PO BOX 326,DENMARK,SC,29042-0326,GRACE RESIDENTIAL CARE FACILITY INC,N,Y,22,485039.118,3679470.263
11499,ACLINE PLACE,200 N ACLINE AVE,LAKE CITY,SC,29560-2635,843-394-5677,"RAVENELL, HELEN W. PH#: 843-412-1246",HRAVENELL@HOMESC.COM,NEW.BEGINNINGS@TDS.NET,CRC-1257 / 01/31/2026,Florence / State,1211 E NATIONAL CEMETERY RD,FLORENCE,SC,29506-3240,FLORENCE COUNTY DISABILITIES AND SPECIAL NEEDS BOARD,N,N,8,615079.442,3748399.671
11501,CAROLINA PLACE,240 CHARLES ST,LAKE CITY,SC,29560-2161,843-394-5707,"RAVENELL, HELEN W. PH#: 843-412-1246",HRAVENELL@HOMESC.COM,NEW.BEGINNINGS@TDS.NET,CRC-1258 / 01/31/2026,Florence / State,"1211 E NATIONAL CEMETERY RD, FLORENCE COUNTY DSNB",FLORENCE,SC,29506-3240,FLORENCE COUNTY DISABILITIES AND SPECIAL NEEDS BOARD,N,N,8,615705.754,3748874.103
11547,MARIA'S PRIORITY CARE RESIDENTIAL HOME II-B,4583 DURANT AVE,NORTH CHARLESTON,SC,29405-5212,843-566-0460,"RELLORA, JESUS N. PH#: 843-566-0460",JNRELLORA4SUS@GMAIL.COM,JNRELLORA4SUS@GMAIL.COM,CRC-0772 / 06/30/2026,Charleston / Partnership,PO BOX 61870,NORTH CHARLESTON,SC,29419-1870,JESUS N AND WILHELMINA C RELLORA,N,N,7,593618.195,3637222.202
11548,MARIA'S PRIORITY CARE RESIDENTIAL HOME II-F,4583 DURANT AVE STE F,NORTH CHARLESTON,SC,29405-5212,843-566-0460,"RELLORA, JESUS N. PH#: 843-566-0460",JNRELLORA4SUS@GMAIL.COM,JNRELLORA4SUS@GMAIL.COM,CRC-0774 / 06/30/2026,Charleston / Partnership,PO BOX 61870,NORTH CHARLESTON,SC,29419-1870,JESUS N AND WILHELMINA C RELLORA,N,N,5,593618.195,3637222.202
11574,OLIVER'S CARE HOME,1200 LAWHORN RD,BLYTHEWOOD,SC,29016-8975,803-754-3585,"ANDERSON, VALENCIA W. PH#: 803-754-3585",MSVSLITTLE@AOL.COM,MSVSLITTLE@AOL.COM,CRC-1480 / 08/31/2026,Richland / Limited Liability,1200 LAWHORN RD,BLYTHEWOOD,SC,29016-8975,OLIVER CARE HOME LLC,N,N,5,509189.036,3787610.892
11591,GENERATIONS OF IRMO,7142 WOODROW ST,IRMO,SC,29063-2832,803-227-8991,"EDWARDS, CHARLES DAVID PH#: 803-227-8991",DEDWARDS@CAREBYGENERATIONS.COM,DEDWARDS@CAREBYGENERATIONS.COM,CRC-1477 / 05/31/2026,Lexington / Limited Liability,7142 WOODROW ST,IRMO,SC,29063-2832,GENERATIONS OF IRMO LLC,Y,Y,78,483503.655,3770975.155
11596,PALMETTOS OF MAULDIN,810 E BUTLER RD,GREENVILLE,SC,29607-5842,864-627-0803,"DAVIS, KATHRYN H. PH#: 864-627-0803",KATHRYN.DAVIS@NHCCARE.COM,KATHYRN.DAVIS@NHCCARE.COM,CRC-1503 / 03/31/2026,Greenville / Ltd. Liability,810 E BUTLER RD,GREENVILLE,SC,29607-5842,NHC HEALTHCARE/MAULDIN LLC,Y,Y,60,382456.946,3851822.185
11599,ASHLAN VILLAGE,415 BRENDA WAY,LYMAN,SC,29365-9264,864-949-7825,"HILL, LYNEL PH#: 864-949-7825",LHILL@ASHLANVILLAGE.COM,LHILL@ASHLANVILLAGE.COM,CRC-1483 / 10/31/2026,Spartanburg / Limited Liability,415 BRENDA WAY,LYMAN,SC,29365-9264,ASHLAN PROPERTIES LLC,Y,Y,75,395758.901,3870747.645
11601,ANDERSON OAKS ASSISTED LIVING,997 HWY 90,CONWAY,SC,29526-7520,843-347-9280,"MILLER, JUSTIN PH#: ",JMILLER@ANDERSONOAKSASSISTEDLIVING.COM,,CRC-1506 / 07/31/2026,Horry / Corporation,997 HWY 90,CONWAY,SC,29526-2750,HERMAN L ANDERSON INC,N,N,80,685544.28,3744347.72
11606,WILLIES II RCH,46 WILSON ST,SUMTER,SC,29150-3050,803-773-4724,TRACEY L COOPER PH#: 803-236-1415,ACETW90@AOL.COM,TRACEYLDUNN7@GMAIL.COM,CRC-1485 / 12/31/2025,Sumter / Sole Proprietorship,46 WILSON ST,SUMTER,SC,29150-3050,TRACEY L COOPER,N,N,13,561566.239,3755323.705
11607,BUILDERS CARE HOME,731 SIMS AVE,COLUMBIA,SC,29205-1837,803-376-8991,"HUNTER, KIMBERLY M. PH#: 843-545-5427",COLUMBIAHOMECARE73@ATT.NET,ADMIN@SOUTHISLAND-LIVING.COM,CRC-1491 / 04/30/2026,Richland / Non-Profit Corporation,731 SIMS AVE,COLUMBIA,SC,29205-1837,ALDERSGATE SPECIAL NEEDS MINISTRY,N,N,6,500076.666,3762079.754
11608,PASSIONATE CARE COMMUNITY CENTER,2206 HERTFORD DR,COLUMBIA,SC,29210-6130,803-404-2278,DONALD E MARTIN PH#: 803-404-2278,MARTINDONALD49@YAHOO.COM,MARTINDONALD49@YAHOO.COM,CRC-1500 / 12/31/2025,Richland / Sole Proprietorship,2206 HERTFORD DR,COLUMBIA,SC,29210-6130,DONALD E MARTIN,N,N,5,491652.272,3768115.117
11611,ALDERSGATE AT THE OAKS,921 METHODIST OAKS DR,ORANGEBURG,SC,29115-1814,803-531-2332,"SUMTER, ASHLEY PH#: 803-531-2332",OAKS@ALDERSGATESNM.ORG,,CRC-1488 / 03/31/2026,Orangeburg / Non-Profit Corporation,921 METHODIST OAKS DR,ORANGEBURG,SC,29115-1814,ALDERSGATE SPECIAL NEEDS MINISTRY,N,N,6,513938.24,3698429.892
11615,CABADING HOMES #3,2149 DORCHESTER RD,NORTH CHARLESTON,SC,29405-7763,843-745-9182,"CABADING, ALLAN M. PH#: 843-745-9182",CABOOTY105@AOL.COM,CABOOTY105@AOL.COM,CRC-0825 / 07/31/2026,Charleston / Corporation,2149 DORCHESTER RD,NORTH CHARLESTON,SC,29405-7763,CABADING HOMES INC,N,N,25,595427.794,3635561.057
11619,RESIDENCES AT PARK PLACE,115 GILLESPIE RD,SENECA,SC,29678-1126,864-882-0783,"MEDLIN, ANTHONY PH#: 864-430-4498",KHICKS@MSAHEALTHCARE.COM,AMEDLIN@BELVEDERECOMMONSSENECA.COM,CRC-1493 / 08/31/2026,Oconee / Corporation,PO BOX 609,LEXINGTON,SC,29071-0609,AMERICAN SENIOR LIVING COMMUNITIES INC,Y,Y,100,317971.86,3839912.38
11620,BRIGHTWATER ASSISTED LIVING,201 BRIGHTWATER DR,MYRTLE BEACH,SC,29579-8298,843-903-8940,"DUNN, DAVID PH#: 843-903-8940",DDUNN@MAXWELL-GROUP.COM,,CRC-1489 / 04/30/2026,Horry / Limited Liability,3530 TORINGDON WAY STE 204,CHARLOTTE,NC,28277-3436,BRIGHTWATER RETIREMENT LLC,Y,Y,56,699742.046,3737955.081
11621,HAMPTON STREET COMMUNITY RESIDENCE,425 HAMPTON ST,DENMARK,SC,29042-1368,803-793-4093,"MURRAY, TRACY R. PH#: 803-793-4093",TDAVIS@BCDSNB.ORG,TMURRAY@BCDSNB.ORG,CRC-1296 / 06/30/2026,Bamberg / ,"16553 HERITAGE HWY, BAMBERG COUNTY DSNB",DENMARK,SC,29042,BAMBERG COUNTY DISABILITIES AND SPECIAL NEEDS BOARD,N,N,8,487427.772,3687299.299
11623,ZEIGLER STREET COMMUNITY RESIDENCE,71 ZEIGLER ST,BAMBERG,SC,29003-1034,803-245-6169,"MURRAY, TRACY R. PH#: 803-245-6169",TDAVIS@BCDSNB.ORG,TMURRAY@BCDSNB.ORG,CRC-1297 / 06/30/2026,Bamberg / ,"16553 HERITAGE HWY, BCDSNB",DENMARK,SC,29042-8901,BAMBERG COUNTY DISABILITIES AND SPECIAL NEEDS BOARD,N,N,9,495888.729,3684942.933
11627,CASCADES VERDAE ASSISTED LIVING,30 SPRINGCREST CT,GREENVILLE,SC,29607-4034,864-528-5529,"MANNING, KEVEN E. PH#: 864-630-9743",LICENSING@CASCADES-VERDAE.COM,KEVEN.MANNING@FUNDLTC.COM,CRC-1490 / 04/30/2026,Greenville / Limited Liability,3530 TORINGDON WAY STE 204,CHARLOTTE,NC,28277-3436,CASCADES NURSING LLC,Y,Y,92,379759.61,3854543.961
11633,ARBORETUM AT THE WOODLANDS AT FURMAN,50 ARBORETUM LN,GREENVILLE,SC,29617-6228,864-371-3100,"PAGLIARO, CHRISTOPHER LYNN PH#: 864-371-3133",CPAGLIARO@TWAFSC.ORG,CPAGLIARO@TWAFSC.ORG,CRC-1492 / 05/31/2026,Greenville / Non-Profit Corporation,1500 TRAILHEAD CT,GREENVILLE,SC,29617-6226,UPSTATE SENIOR LIVING INC,Y,Y,64,368131.412,3866866.218
11635,IVORY'S LOVING CARE RESIDENTIAL FACILITY,2827 SPRUILL AVE,NORTH CHARLESTON,SC,29405-8050,843-745-2339,"SANDERS, JUANITA PH#: 843-745-2339",SISTERSANDERS@COMCAST.NET,SISTERSANDERS@COMCAST.NET,CRC-1383 / 04/30/2026,Charleston / Partnership,2827 SPRUILL AVE,NORTH CHARLESTON,SC,29405-8050,JUANITA SANDERS & GENEVA NELSON,N,N,7,595394.636,3638522.543
11637,MARY'S HOME CARE,224 WARD LOOP,HEMINGWAY,SC,29554-3415,843-558-0953,"HOLMES, MARY W. PH#: 843-558-9053",MARYSHOMECARE1@GMAIL.COM,MARYSHOMECARE1@GMAIL.COM,CRC-1505 / 05/31/2026,Georgetown / Sole Proprietorship,224 WARD LOOP,HEMINGWAY,SC,29554-3415,"HOLMES, MARY W.",N,N,21,654040.53,3730489.684
11642,SANDERS CRCF,625 CHESTERFIELD ST,AIKEN,SC,29801-4053,803-642-1044,"ROBINSON, CHIQUITTA L. PH#: 803-290-2782",CROBINSON@AIKENTDC.ORG,,CRC-1430 / 02/28/2026,Aiken / Corporation,PO BOX 698,AIKEN,SC,29802-0698,TRI-DEVELOPMENT CENTER OF AIKEN COUNTY INC,N,N,8,433714.853,3714837.257
11646,MARY'S RESIDENTIAL CARE FACILITY,10425 WILSON BLVD,BLYTHEWOOD,SC,29016-9017,803-708-1739,"SIMMONS, NHAJIYAH RAHESSIA PH#: 803-708-1739",MBACOTE69@GMAIL.COM,NHAJIYAH.SIMMONS@YAHOO.COM,CRC-1501 / 12/31/2025,Richland / Sole Proprietorship,529 HUMBLE DR,COLUMBIA,SC,29223-5435,MARY BACOTE,N,N,5,502844.196,3782454.234
11647,PALMETTOS OF PARKLANE,7811 PARKLANE RD,COLUMBIA,SC,29223-5620,803-741-7233,"DAVILA, KIMBERLY P. PH#: 803-741-7233",KIMBERLY.DAVILA@NHCCARE.COM,KIMBERLY.DAVILA@NHCCARE.COM,CRC-1513 / 04/30/2026,Richland / Limited Liability,7811 PARKLANE RD,COLUMBIA,SC,29223-5620,PALMETTOS OF PARKLANE LLC,Y,Y,85,503773.518,3771372.692
11678,RUDNICK CRCF,629 CHESTERFIELD ST,AIKEN,SC,29801-4053,803-642-1041,"ROBINSON, CHIQUITTA L. PH#: 803-290-2782",CROBINSON@AIKENTDC.ORG,,CRC-1429 / 02/28/2026,Aiken / Corporation,PO BOX 698,AIKEN,SC,29802-0698,TRI-DEVELOPMENT CENTER OF AIKEN COUNTY INC,N,N,8,433719.87,3714846.501
11679,REID HOUSE,117 DODD ST,WELLFORD,SC,29385-9475,864-949-5120,"DANIELS, KEISHA G. PH#: 864-949-5120",KDANIELS@THE-REIDHOUSE.COM,KDANIELS@THE-REIDHOUSE.COM,CRC-1463 / 04/30/2026,Spartanburg / Corporation,117 DODD ST,WELLFORD,SC,29385-9475,REID HOUSE,N,N,42,399269.384,3867641.568
11691,J & T RESIDENTIAL CARE FACILITY,604 WAGON WHEEL RD,HAMPTON,SC,29924-5346,803-943-7177,"HAMILTON, DA'ASIA S. PH#: 803-943-7177",JTRESIDENTIALCARE@GMAIL.COM,JTRESIDENTIALCARE@GMAIL.COM,CRC-1094 / 05/31/2026,Hampton / Sole Proprietorship,604 WAGON WHEEL RD,HAMPTON,SC,29924-5346,THELMA S MYERS,N,Y,10,494915.781,3639503.34
11692,SPRINGHILL ASSISTED LIVING,514 S GUM ST,PAGELAND,SC,29728-9143,843-675-2500,"WILLIAMS, SUSAN PH#: 843-675-2500",SFBARNES11@GMAIL.COM,,CRC-1171 / 07/31/2026,Chesterfield / Corporation,514 S GUM ST,PAGELAND,SC,29728-9143,HOSPICE OF CHESTERFIELD COUNTY INC,N,N,32,556522.953,3847628.712
11719,CABADING HOMES #1,3431 RIVERS AVE,NORTH CHARLESTON,SC,29405-7760,843-747-3050,"CABADING, LOLITA B. PH#: 843-745-3050",CABOOTY105@AOL.COM,CABOOTY105@AOL.COM,CRC-0394 / 07/31/2026,Charleston / Corporation,2149 DORCHESTER RD,NORTH CHARLESTON,SC,29405-7763,CABADING HOMES INC,N,N,18,595622.404,3635796.653
11720,CABADING HOMES #2,3435 RIVERS AVE,NORTH CHARLESTON,SC,29405-7760,843-566-1075,"CABADING, LOLITA B. PH#: 843-566-1075",CABOOTY105@AOL.COM,CABOOTY105@AOL.COM,CRC-0571 / 02/28/2026,Charleston / Corporation,2149 DORCHESTER RD,NORTH CHARLESTON,SC,29405-7763,CABADING HOMES INC,N,N,15,595617.417,3635799.813
11721,GUARDIAN ANGELS RESIDENTIAL CARE,2126 SUCCESS ST,NORTH CHARLESTON,SC,29405-7992,843-744-0448,"JANKE, BONIFACIA E. PH#: 843-744-0448",BARRY.JANKE@YAHOO.COM,BONIFACIA.JANKE@YAHOO.COM,CRC-1049 / 11/30/2025,Charleston / Corporation,3204 MEETING STREET RD,NORTH CHARLESTON,SC,29405-7968,GUARDIAN ANGELS ASSISTED LIVING INC,N,N,18,596230.001,3635383.206
11722,LADIES COMMUNITY RESIDENCE,408 WEBB ST,CONWAY,SC,29526,843-349-7271,"CORNELL, TERRY PH#: 843-349-7271",ACORNELL@HCDSN.COM,ACORNELL@HCDSN.ORG,CRC-1449 / 07/31/2026,Horry / County,408 WEBB ST,CONWAY,SC,29527-5842,HORRY COUNTY DISABILITIES AND SPECIAL NEEDS BOARD,N,N,8,677880.796,3743510.433
11723,LOIS EARGLE HOME,406 WEBB ST,CONWAY,SC,29527-5842,843-349-7272,"CORNELL, TERRY A. PH#: 843-349-7272",ACORNELL@ABBSC.ORG,ACORNELL@HCDSN.ORG,CRC-1450 / 07/31/2026,Horry / County,408 WEBB ST,CONWAY,SC,29527-5842,HORRY COUNTY DISABILITIES AND SPECIAL NEEDS BOARD,N,N,8,677883.582,3743509.9
11724,NORTH HAVEN RESIDENTIAL CARE HOME,4326 LESLIE ST,NORTH CHARLESTON,SC,29418-5441,843-767-2541,"LANGIT, LEONORA D. PH#: 843-767-2541",NORAALFLLC@YAHOO.COM,NORAALFLLC@YAHOO.COM,CRC-0877 / 08/31/2026,Charleston / Corporation,4326 LESLIE ST,NORTH CHARLESTON,SC,29418-5441,NORTH HAVEN RESIDENTIAL CARE HOME INC,N,Y,16,588739.984,3636714.229
11727,MARETT BOULEVARD COMMUNITY RESIDENTIAL CARE FACILITY,1721 MARETT BLVD EXT,ROCK HILL,SC,29730,803-327-9466,"HART, LEETTA PH#: ",LEETTA.HART@MAXABILITIES.ORG,LEETTA.HART@MAXATILITIES.ORG,CRC-0883 / 08/31/2026,York / Non-Profit Corporation,PO BOX 549,YORK,SC,29745-0549,YORK COUNTY BOARD OF DISIBALITIES AND SPECIAL NEEDS,N,N,8,497907.638,3860460.523
11779,BETHEA BAPTIST ASSISTED LIVING,157 HOME AVE,DARLINGTON,SC,29532-7625,843-393-2867,"SPURLING, BENJAMIN S. PH#: 843-393-2867",BSPURLING@SCBMA.COM,BSPURLING@SCBMA.COM,CRC-1533 / 08/31/2026,Darlington / Non-Profit Corporation,157 HOME AVE,DARLINGTON,SC,29532-7625,SOUTH CAROLINA BAPTIST MINISTRIES FOR THE AGING INC,N,N,14,606835.297,3791294.558
11784,MARY'S RESIDENTIAL #2,633 SHARPE RD,COLUMBIA,SC,29203-9304,803-708-0300,"SIMMONS, NHAJIYAH PH#: 803-708-0300",M.BACOTE@HOTMAIL.COM,NHAJIYAH.SIMMONS@YAHOO.COM,CRC-1534 / 08/31/2026,Richland / Sole Proprietorship,529 HUMBLE DR,COLUMBIA,SC,29223-5435,MARY BACOTE,N,N,5,499529.806,3772226.547
11801,FAMILY RESIDENTIAL CARE HOME III,25 EDWARDS ST,SUMTER,SC,29150-4808,803-775-9555,"WALTER, MICHAEL PH#: 803-775-9555",TWRG32@YAHOO.COM,TWRG32@YAHOO.COM,CRC-1537 / 02/28/2026,Sumter / Sole Proprietorship,2625 CASEY LN,SUMTER,SC,29153,MICHAEL A WALTERS,N,N,12,559810.556,3753334.389
11803,KENSINGTON II GROUP HOME,120 KENSINGTON RD,COLUMBIA,SC,29203-5451,803-252-0848,"BROWN, LETIA T. PH#: 803-256-0504",L.BROWN@CHESCOSERVICES.ORG,,CRC-1536 / 11/30/2026,Richland / Sole Proprietorship,,,,,CHESCO SERVICES,N,N,8,494716.361,3765626.786
11810,HARMONY COLLECTION AT COLUMBIA (AL/MC),2300 CLEMSON RD,COLUMBIA,SC,29229-8029,803-223-9560,"CASSANOVA, CATHY PH#: ",CATHYCASANOVA@HARMONYATCOLUMBIA.COM,,CRC-1544 / 03/31/2026,Richland / Limited Liability,2300 CLEMSON RD,COLUMBIA,SC,29229-8029,COLUMBIA AL OPERATIONS LLC,Y,Y,110,507253.392,3777516.18
11817,ASHLEY GARDENS ALZHEIMER'S SPECIAL CARE CENTER,2290 HENRY TECKLENBURG DR,CHARLESTON,SC,29414,843-556-4100,"KACER, SARAH PH#: 843-556-4100",SARAH.KACER@SUNSHINERET.COM,,CRC-1595 / 06/30/2026,Charleston / Limited Liability,PO BOX 820528,VANCOUVER,WA,98682-0011,CHARLESTON CARE GROUP LLC,Y,Y,66,589523.052,3629947.833
11825,PALMETTOS OF GARDEN CITY,9415 HWY 17 BYPASS,MURRELLS INLET,SC,29576,843-668-2500,"CRONIN, TERIANN PH#: 843-668-2500",TERI.CRONIN@NHCCARE.COM,TERI.CRONIN@NHCCARE.COM,CRC-1649 / 06/30/2026,Horry / Limited Liability Company (multiple member),9415 HWY 17 BYPASS,MURRELLS INLET,SC,29576,PALMETTOS OF GARDEN CITY LLC,Y,Y,90,683793.836,3719413.584
11838,CARLISLE PLACE,21 FRANK PRESSLY DR,DUE WEST,SC,29639-9705,864-379-2570,"OWENS, JACQUELINE PH#: 864-379-2570",JACKIE@CHOOSERENAISSANCE.COM,,CRC-1538 / 12/31/2025,Abbeville / ,PO BOX 6384,SPARTANBURG,SC,29304-6384,THE RENAISSANCE LLC,Y,Y,28,371551.529,3799620.356
11916,INLET COASTAL RESORT,5087 HWY 17 N BP,MURRELLS INLET,SC,29576,843-405-2005,"GATTI, WILLIAM PH#: 843-357-0317",BILL.HEALTHPROS@GMAIL.COM,,CRC-1549 / 08/31/2026,Georgetown / Limited Liability,5087 OCEAN HWY 17 N BYPASS,MURRELL'S INLET,SC,29576,INLET COASTAL RESORT LLC,Y,Y,62,680837.05,3716098.591
11917,WELLMORE OF LEXINGTON,200 WELLMORE DR,LEXINGTON,SC,29072,803-520-1200,"BUTCHER, CRYSTAL C. PH#: 704-246-1606",CRYSTAL.BUTCHER@WELL-MORE.COM,CBUTCHER@WILDEWOOD-DOWNS.COM,CRC-1557 / 06/30/2026,Lexington / Limited Liability,3530 TORINGDON WAY STE 204,CHARLOTTE,NC,28277-3436,WELLMORE OF LEXINGTON LLC,Y,Y,174,480066.233,3761763.445
11991,HARMONY AT WESCOTT,5130 WESCOTT BLVD,SUMMERVILLE,SC,29485,843-486-2712,"LUKITSCH, DUSTIN PH#: 843-486-2712",DUSTINLUKITSCH@HARMONYATWESCOTT.COM,,CRC-1596 / 06/30/2026,Dorchester / Limited Liability,5130 WESCOTT BLVD,SUMMERVILLE,SC,29485,CHARLESTON OPERATIONS LLC,Y,Y,105,580176.493,3645477.281
12053,BLAKE AT WOODCREEK FARMS,385 SPEARS CREEK CHURCH RD,ELGIN,SC,29045-9312,803-828-7370,"FAULISI, NANCY PH#: ",NANCY.FAULISI@BLAKELIVING.COM,,CRC-1570 / 02/28/2026,Richland / ,4266 I-55N STE 108,JACKSON,MS,39211,BLAKE AT WOODCREEK FARMS LLC,Y,Y,100,514555.185,3774876.546
12078,CLEMSON HERITAGE,140 CAMBRIDGE DR,CLEMSON,SC,29631-1208,864-635-2146,"NAUSS, NATHANIEL PH#: 864-513-4105",NATHANIEL.NAUSS@CLEMSONHERITAGESENIOR,,CRC-1563 / 11/30/2026,Pickens / Limited Liability,203 OAKWOOD CT,GREENVILLE,SC,29607-5831,CLEMSON HERITAGE LLC,Y,Y,96,335608.726,3841223.589
12082,WELLMORE OF DANIEL ISLAND,580 ROBERT DANIEL DR,CHARLESTON,SC,29492,843-566-1000,"HAWTHORNE, JULIANNA RAE-LAU PH#: 717-818-8500",DANIELISLAND.LICENSING@WELL-MORE.COM,,CRC-1569 / 04/30/2026,Berkeley / Limited Liability,3530 TORINGDON WAY STE 204,CHARLOTTE,NC,28277-3436,WELLMORE OF DANIEL ISLAND LLC,Y,Y,174,602114.423,3637421.742
12092,CANTERFIELD OF BLUFFTON,567 N OKATIE HWY,RIDGELAND,SC,29936,843-645-4000,"BOWEN, RONALD PH#: 843-645-4000",RON@CANTERFIELDOFBLUFFTON.COM,,CRC-1571 / 11/30/2026,Jasper / Limited Liability,,,,,CANTERFIELD OF BLUFFTON LLC,Y,Y,93,506029.637,3574603.609
12130,RETREAT AT LADYS ISLAND,9 SUNSET BLVD,BEAUFORT,SC,29907,843-379-9502,"OWENS, ALICIA PH#: 843-379-9502",ALICIA.OWENS@PHOENIXSRLIVING.COM,,CRC-1898 / 05/31/2026,Beaufort / Limited Liability,10933 CRABAPPLE RD,ROSWELL,GA,30075,FACTORY CREEK AL LLC,Y,Y,83,532240.092,3586848.339
12131,HARMONY AT WEST ASHLEY,1925 ESSEX FARMS DR,CHARLESTON,SC,29414,843-804-8850,"NIVEN, RYAN PH#: 843-819-6687",RYANNIVEN@HARMONYATWESTASHLEY.COM,,CRC-1899 / 10/31/2026,Charleston / Limited Liability,1925 ESSEX FARMS DR,CHARLESTON,SC,29414,WEST ASHLEY OPERATIONS LLC,Y,Y,105,588765.516,3630583.736
12152,HEATH SPRINGS RESIDENTIAL CARE CENTER,614 HART ST,HEATH SPRINGS,SC,29058-8411,803-273-3227,"WILLIAMS, SUSAN S. PH#: 803-273-3227",SFBARNES11@GMAIL.COM,SFBARNES11@GMAIL.COM,CRC-1903 / 12/31/2026,Lancaster / Corporation,PO BOX 8118,SADDLE BROOK,NJ,07663-8118,HSRCC PARTNERS LLC,N,N,64,530225.603,3828058.4
12160,BURGESS RESIDENTIAL CARE #3,615 W EVANS ST,FLORENCE,SC,29501-3409,843-407-4901,"BURGESS, AUBRE PH#: 843-665-6843",ABREEZY8@YAHOO.COM,,CRC-1913 / 08/31/2026,Florence / Limited Liability,PO BOX 6023,FLORENCE,SC,29502-6023,DELLAVISION LLC,N,N,9,612656.852,3784675.242
12164,DAYSPRING OF JOHNS ISLAND,3455 BOHICKET RD,JOHNS ISLAND,SC,29455-7222,843-768-5335,"MARSHALL, YASSAMIN B. PH#: 843-768-5335",DAYSPRINGSC@YAHOO.COM,DAYSPRINGSC@YAHOO.COM,CRC-1915 / 03/31/2026,Charleston / Corporation,3455 BOHICKET RD,JOHNS ISLAND,SC,29455-7222,DAYSPRING OF JOHNS ISLAND INC,N,Y,24,581687.256,3613842.702
12166,PALMETTO GARDENS,425 S WHEELER AVE,PROSPERITY,SC,29127,803-364-9113,"PEOPLES, TIFFANY PH#: 803-364-9113",PALMETTOGARDENSRESIDENTIAL@GMAIL.COM,PALMETTOGARDENSRESIDENTIAL@GMAIL.COM,CRC-1916 / 07/31/2026,Newberry / Sole Proprietorship,425 S WHEELER AVE,PROSPERITY,SC,29127,YVONNE HARRISON,N,N,30,452124.779,3785958.324
12172,MERRILL GARDENS AT CAROLINA PARK,3501 MERRILL PL,MOUNT PLEASANT,SC,29466,843-606-5705,"BARRESI, TIMOTHY PH#: 843-606-5840",TIMBAR@MERRILLGARDENS.COM,,CRC-1917 / 11/30/2026,Charleston / Limited Liability,1938 FAIRVIEW AVE E STE 300,SEATTLE,WA,98102,NEW MERRILL GARDENS AT CAROLINA PARK LLC,Y,Y,193,614965.748,3639244.547
12178,INDIGO HALL,509 STANDARD WAY,CHARLESTON,SC,29412,843-406-4747,"FRENCH, LINDSAY PH#: 843-352-4986",NOTICES@STONEVILLEACCEPTANCE.COM,LINDSAY.FRENCH@THEOAKSSC.COM,CRC-1922 / 11/30/2026,Charleston / Limited Liability,,,,,INDIGO HALL OPERATING CO LLC,Y,Y,179,595399.607,3625212.009
12180,S&S BOARDING HOME,3589 BLUFF RD,ALLENDALE,SC,29810-4139,803-573-7006,"JENKINS, GENORA W. PH#: 803-632-9813",ESABB@ALLENDALECOUNTY.GOV,KAMILLE.JENKINS@GMAIL.COM,CRC-1923 / 10/31/2026,Allendale / Sole Proprietorship,3629 BLUFF RD,ALLENDALE,SC,29810,ELAINE SABB,N,N,5,470151.647,3651922.346
12181,LAKEWOOD SENIOR LIVING,3701 CLARK RD,BOILING SPRINGS,SC,29316,864-586-1457,"KUHL, SHAWN PH#: 864-859-3303",ED@LAKEWOODASSISTEDLIVINGSC.COM,,CRC-1924 / 10/31/2026,Spartanburg / Limited Liability,PO BOX 6384,SPARTANBURG,SC,29304-6384,CR LAKEWOOD LLC,Y,Y,75,408706.403,3880347.24
12197,WELLMORE OF TEGA CAY,111 WELLMORE DR,TEGA CAY,SC,29708-0039,803-835-7000,"RICHARD, JESAMINE PH#: 803-835-7001",TEGACAY.LICENSING@WELL-MORE.COM,,CRC-1935 / 07/31/2026,York / ,111 WELLMORE DR,FORT MILL,SC,29708,WELLMORE OF TEGA CAY LLC,Y,Y,150,500651.412,3878516.913
12199,ARBOR LANDING AT PAWLEYS,7419 OCEAN HWY,PAWLEYS ISLAND,SC,29585,843-314-3720,"WEEDON, JENNIFER PH#: 540-369-1839",JEN.WEEDON@RIDGECARE.COM,,CRC-1937 / 09/30/2026,Georgetown / Limited Liability,853 OLD WINSTON RD STE 118,KERNERSVILLE,NC,27284,ARBOR LANDING AT PAWLEYS LLC,Y,Y,100,669620.267,3699424.093
12229,WATERSTONE ON AUGUSTA SENIOR LIVING,1004 AUGUSTA ST,GREENVILLE,SC,29605-3906,864-605-7236,"JOHNSON, MATTHEW C. PH#: 864-605-7236",MATTHEW.JOHNSON@WATERSTONEONAUGUSTA.COM,MJOHNSON@CASCADES-VERDAE.COM,CRC-1945 / 03/31/2026,Greenville / Corporation,1240 E INDEPENDENCE ST STE 200,SPRINGFIELD,MO,65804,CHP GREENVILLE SC TENANT CORP,Y,Y,126,371455.666,3855441.095
12231,ROYAL HILL COMMUNITY RESIDENTIAL CARE FACILITY,310 E MAIN ST BLD B,KINGSTREE,SC,29556,843-355-1300,"PASLEY, LISHA B. PH#: 843-355-1300",ASHCOURTCOMPANIONCARE@YAHOO.COM,ASHCOURTCOMPANIONCARE@YAHOO.COM,CRC-1946 / 05/31/2026,Williamsburg / Limited Liability,310 E MAIN ST BLDG B,KINGSTREE,SC,29556,ROYAL HILL COMMUNITY RESIDENTIAL CARE FACILITY LLC,N,N,5,608880.502,3725580.771
12245,ABUNDANT LIFE ADULT CARE,260 SEMINOLE DR,ORANGEBURG,SC,29115-7622,803-662-9701,"JENKINS, LAVETA B. PH#: 803-878-2833",ABUNDANTLIFE260@GMAIL.COM,,CRC-1949 / 06/30/2026,Orangeburg / Limited Liability,260 SEMINOLE DR,ORANGEBURG,SC,29115-7622,ABUNDANT LIFE ADULT CARE LLC,N,N,5,513513.81,3703693.716
12265,NEW LIGHT COMMUNITY CARE,120 ADDY LN,LEXINGTON,SC,29072-3405,803-490-1428,"PHAIRE, CARLTON PH#: 803-492-7122",NEWLIGHTCRF@YAHOO.COM,PHAIREONE@AOL.COM,CRC-1958 / 03/31/2026,Lexington / Non-Profit Corporation,316 HUNTERS RIDGE DR,LEXINGTON,SC,29072,NEW LIGHT COMMUNITY RESOURCE FOUNDATION,N,N,14,478072.504,3759764.565
12269,HARMONY AT FIVE FORKS,345 FIVE FORKS RD,SIMPSONVILLE,SC,29681,864-412-4700,"BYERS, ELIZABETH PH#: 864-412-4700",ELIZABETHBYERS@HARMONYATFIVEFORKS.COM,LIBBY.BYERS@PHOENIXSRLIVING.COM,CRC-1960 / 08/31/2026,Greenville / Limited Liability,345 FIVE FORKS RD,SIMPSONVILLE,SC,29681,GREENVILLE OPERATIONS LLC,Y,Y,92,387198.622,3852047.642
12276,RIVER PARK SENIOR LIVING,190 RIVER PARK DR,LITTLE RIVER,SC,29566,843-741-0082,"JACKSON, TOMMY PH#: 843-741-0082",ED@RIVERPARKASSISTEDLIVING.COM,ED@RIVERPARKASSISTEDLIVING.COM,CRC-1962 / 02/28/2026,Horry / Limited Liability,PO BOX 6384,SPARTANBURG,SC,29304-6384,CR RIVER PARK LLC,Y,Y,90,714765.08,3750221.022
12305,SHEM CREEK AT SOUTH BAY,1400 LIBERTY MIDTOWN DR STE 420,MOUNT PLEASANT,SC,29464,843-936-2801,"CURE, CANDY PH#: 864-918-5784",CCURE@LIBERTYSENIORLIVING.COM,,CRC-1952 / 07/31/2026,Charleston / Limited Liability,1400 LIBERTY MIDTOWN DR,MOUNT PLEASANT,SC,29464,SOUTH BAY AT MT PLEASANT LLC,Y,Y,150,608753.639,3630978.384
12317,MERRILL GARDENS AT COLUMBIA,2205 GREGG ST,COLUMBIA,SC,29201,803-828-5204,"DOUGAL, KEAR PH#: 843-606-5840",DOUGALK@MERRILLGARDENS.COM,,CRC-1979 / 03/31/2026,Richland / ,1938 FAIRVIEW AVE E STE 300,SEATTLE,WA,98102,MERRILL GARDENS AT COLUMBIA LLC,Y,Y,52,497266.784,3764380.078
12324,HARMONY COLLECTION AT COLUMBIA (IL),2232 CLEMSON RD,COLUMBIA,SC,29229,803-451-0653,"CASSANOVA, CATHY PH#: ",CATHYCASANOVA@HARMONYATCOLUMBIA.COM,,CRC-1980 / 07/31/2026,Richland / Limited Liability,2304 CLEMSON RD,COLUMBIA,SC,29229,COLUMBIA IL INVESTORS LLC,Y,Y,25,507360.477,3777581.673
12337,DOMINION SENIOR LIVING OF ANDERSON,3461 N HWY 81,ANDERSON,SC,29621,864-332-4511,"MARTINEZ, HOLLINS ELAINE PH#: 864-964-9088",HOLLINSM@DOMINIONANDERSON.COM,,CRC-1955 / 12/31/2025,Anderson / Limited Liability Company (multiple member),145 THOMAS GREEN BLVD STE 210,CLEMSON,SC,29631,DOMINION ANDERSON LLC,Y,Y,70,351414.634,3828435.523
12350,MOUNT PLEASANT GARDENS,1025 HUNGRYNECK BLVD,MOUNT PLEASANT,SC,29464,843-216-1001,"DOLLASON, KRISTEN PH#: 843-216-1001",KRISTEN.DOLLASON@GARDENSMEMORYCARE.COM,,CRC-1984 / 06/30/2026,Charleston / Limited Liability,1025 HUNGRYNECK BLVD,MOUNT PLEASANT,SC,29464,MOUNT PLEASANT MANAGEMENT LLC,Y,Y,71,609056.359,3632534.283
12358,MAGNOLIAS OF SANTEE,118 BRITAIN ST,SANTEE,SC,29142-8922,803-854-2020,"HARRELL, KIMBERLY FAYE PH#: ",KIMBERLY@MAGNOLIASOFSANTEE.COM,KIMBERLY@MAGNOLIASOFSANTEE.COM,CRC-1987 / 09/30/2026,Orangeburg / Limited Liability,118 BRITAIN ST,SANTEE,SC,29142-8922,CEDAR COMMUNITIES AT SANTEE LLC,Y,Y,61,548609.07,3705149.381
12363,VINEYARD BLUFFTON,25 CASSIDY DR,BLUFFTON,SC,29910,843-612-0700,"FRAZIER, JANAYA PH#: 843-612-0700",JANAYA.FRAZIER@VINEYARDBLUFFTON.COM,,CRC-1988 / 09/30/2026,Beaufort / Limited Liability,1001 MOREHEAD SQUARE DR STE 300,CHARLOTTE,NC,28203,VINEYARD BLUFFTON OPERATIONS LLC,Y,Y,108,508602.694,3572461.796
12382,AIKEN MEMORY CARE,2288 S CENTENNIAL AVE,AIKEN,SC,29803,803-580-6670,"JOHNSON, MICHELLE PH#: 843-756-5487",MJOHNSON@AIKENMEMORYCARE.COM,,CRC-1997 / 04/30/2026,Aiken / Limited Liability,PO BOX 1398,MURFREESBORO,TN,37133-1398,AIKEN MEMORY CARE LLC,Y,Y,48,433872.2,3709095.033
12389,WESTMINSTER MEMORY CARE-LEXINGTON,886 PARK RD,LEXINGTON,SC,29072,803-356-7507,"SUMTER, NATASHA PH#: ",NATASHAS@WMCLEXINGTON.COM,,CRC-2002 / 07/31/2026,Lexington / Limited Liability,4660 COTSWOLD LN,BIRMINGHAM,AL,35242,LEXINGTON MEMORY CARE LLC,Y,Y,48,473965.978,3762675.59
12390,PEARL AT FIVE FORKS,15 FIVE FORKS RD,SIMPSONVILLE,SC,29681,864-568-3833,"ROCHESTER, SHELLY PH#: 864-568-3833",SHELLY.ROCHESTER@PHOENIXSRLIVING.COM,,CRC-2003 / 01/31/2026,Greenville / Limited Liability,10933 CRABAPPLE RD,ROSWELL,GA,30075,PSL SIMPSONVILLEE SUBTENANT LLC,Y,Y,64,385242.897,3851145.837
12400,SHERMAN RESIDENTIAL CARE,20 MAYFIELD ST,GREENVILLE,SC,29601-1815,864-214-1342,"MAYS, SHELETHA M. PH#: 864-288-1907",0911BEAUTYJ@GMAIL.COM,SHELETHA.MAYS@THRIVEUPSTATE.ORG,CRC-2009 / 02/28/2026,Greenville / Limited Liability,20 MAYFIELD ST,GREENVILLE,SC,29601-1815,SHERMAN RESIDENTIAL CARE 2 LLC,N,N,16,371285.319,3857545.773
12403,LAKESIDE PLACE SENIOR LIVING,487 HWY 378,LEXINGTON,SC,29072,803-520-0985,"SHEALY, DEBBIE PH#: 803-520-0985",ED@LAKESIDEPLACESC.COM,ED@LAKESIDEPLACESC.COM,CRC-2011 / 03/31/2026,Lexington / Limited Liability,487 HWY 378,LEXINGTON,SC,29072,CR LAKESIDE PLACE SENIOR LIVING LLC,Y,Y,90,473669.884,3761176.961
12405,LIGHTHOUSE RESIDENTIAL CARE FACILITY,4033 DELREE ST LOT # 31,WEST COLUMBIA,SC,29170,803-957-0583,"PEEPLES, TIFFANY PH#: 803-957-0583",TRPEOPLES@HOTMAIL.COM,,CRC-2013 / 03/31/2026,Lexington / Sole Proprietorship,48 CALEB CT,COLUMBIA,SC,29203,ANGELINE A SMITH,N,N,10,486065.843,3758895.98
12408,WILLOWS OF EASLEY,105 WILLOW PL,EASLEY,SC,29640-1385,864-855-9800,"SPEARMAN, LAURA G. PH#: 864-855-9800",LGS@THEWILLOWSOFEASLEY.COM,LGS@THEWILLOWSOFEASLEY.COM,CRC-2015 / 03/31/2026,Pickens / Limited Liability,105 WILLOW PL,EASLEY,SC,29640-1385,CPF SENIOR LIVING - WILLOWS LLC,N,Y,50,353173.621,3857370.939
12409,SPRENGER HEALTHCARE AT PORT ROYAL ASSISTED LIVING,1810 RICHMOND AVE,PORT ROYAL,SC,29935,843-781-7700,"GRIFFING, TERESA PH#: 843-781-7701",TGRIFFING@SPRENGERHEALTHCARE.COM,,CRC-2016 / 05/31/2026,Beaufort / Corporation,3905 OBERLIN AVE,LORAIN,OH,44053,SPRENGER HEALTHCARE OF PORT ROYAL INC,N,N,59,529313.75,3583005.862
12414,BROOKDALE WEST ASHLEY,2030 CHARLIE HALL BLVD,CHARLESTON,SC,29414-5830,843-763-4055,"RILEY, ANNA PH#: ",ANNRIL@BROOKDALE.COM,ANNAR@MERRILLGARDENS.COM,CRC-2018 / 03/31/2026,Charleston / Limited Liability,6737 W WASHINGTON ST STE 2300,MILWAUKEE,WI,53214-5650,BKD CHARLESTON SOUTH CAROLINA LLC,Y,Y,100,589761.091,3631298.833
12415,WILDCAT SENIOR LIVING,2101 CANE BAY BLVD,SUMMERVILLE,SC,29486,843-594-5841,"PATTERSON, KALEY PH#: ",KPATTERSON@WILDCATSENIORLIVING.COM,,CRC-2019 / 03/31/2026,Berkeley / Limited Liability,,,,,SHEPARD LIVING AT WILDCAT LLC,Y,Y,114,582950.977,3667691.321
12417,TERRABELLA THORNBLADE,1560 THORNBLADE BLVD,GREER,SC,29650-4520,864-791-4091,"CAMPBELL, KAYLA PH#: 864-271-7562",KCAMPBELL@TERRABELLASENIORLIVING.COM,,CRC-2021 / 09/30/2026,Greenville / Limited Liability,ONE TOWN CENTER RD STE 300,BOCA RATON,FL,33486,GREENVILLE SENIOR HOUSING I OPCO LLC,Y,Y,100,385112.766,3859343.77
12433,GOOSE CREEK MANOR #1,104 MARILYN ST,GOOSE CREEK,SC,29445-3104,843-572-7442,"ARIZA, JOANN MARIE PH#: 843-572-7442",ADMIN@GOOSECREEKALF.COM,,CRC-2027 / 06/30/2026,Berkeley / Limited Liability,104 MARILYN ST,GOOSE CREEK,SC,29445-3104,STAR CAPITAL INC,N,N,7,589581.736,3651458.862
12434,GOOSE CREEK MANOR #2,104 MARILYN ST,GOOSE CREEK,SC,29445-3104,843-572-7442,"ARIZA, JOANN MARIE PH#: 843-572-7442",ADMIN@GOOSECREEKALF.COM,,CRC-2028 / 06/30/2026,Berkeley / Corporation,,,,,STAR CAPITAL INC,N,N,36,589581.736,3651458.862
12460,OAKBRIDGE TERRACE AT PARK POINTE VILLAGE,3025 CHESBROUGH BLVD,ROCK HILL,SC,29732-8078,803-327-4723,"LUNOW, MARIE PH#: 803-980-8634",M.LUNOW@ACTSLIFE.ORG,MLUNOW@ACTSLIFE.ORG,CRC-2030 / 09/30/2026,York / Corporation,3025 CHESBROUGH BLVD,ROCK HILL,SC,29732-8078,ACTS RETIREMENT-LIFE COMMUNITIES INC,N,Y,20,490871.939,3868105.488
12483,MARIAN PARKINS COMMUNITY RESIDENCE I,103 KERNS AVE,GREENVILLE,SC,29609,864-232-0282,"STONE, AMANDA PH#: 864-449-2641",AMANDA.STONE@THRIVEUPSTATE.ORG,,CRC-2036 / 11/30/2026,Greenville / Non-Profit Corporation,1700 RIDGE RD,GREENVILLE,SC,29606,GREENVILLE COUNTY DISABILITIES AND SPECIAL NEEDS BOARD,N,N,8,371169.236,3860536.465
12484,MARIAN PARKINS II COMMUNITY RESIDENCE,518 PICKETT ST,GREENVILLE,SC,29609,864-232-0595,"STONE, AMANDA PH#: 864-288-1907",AMANDA.STONE@THRIVEUPSTATE.ORG,TYLER.REX@THRIVEUPSTATE.ORG,CRC-2037 / 11/30/2026,Greenville / Non-Profit Corporation,1700 RIDGE RD,GREENVILLE,SC,29607-4730,GREENVILLE COUNTY DISABILITIES AND SPECIAL NEEDS BOARD,N,N,8,371165.487,3860572.412
12497,BLAKE AT HOLLINGSWORTH PARK,360 WOODRUFF RD,GREENVILLE,SC,29607,864-448-0250,"HOWARD, AMY PH#: ",AMY.HOWARD@BLAKELIVING.COM,,CRC-2041 / 11/30/2026,Greenville / Limited Liability,4266 I55 N STE 108,JACKSON,MS,39211,BLAKE AT HOLLINGSWORTH PARK LLC,Y,Y,114,377578.871,3855458.014
12509,ENGLISH MEADOWS CAROLINA BAY CAMPUS,1340 CAROLINA BAY BLVD,HARTSVILLE,SC,29550,843-639-4101,"HOWLE, SUSAN KA-RAN PH#: 843-639-4101",ED@HARTSVILLE.CARE,,CRC-2043 / 02/28/2026,Darlington / Limited Liability,10933 CRABAPPLE RD,ROSWELL,GA,30075,PINE TREE HILL AL LLC,Y,Y,60,581932.02,3801122.61
12515,BURGESS RESIDENTIAL CARE FACILITY #4,412 PEE DEE CHRUCH RD,DILLON,SC,29536,843-774-0623,"ROBINSON, RHONDA PH#: ",JADC2011@YAHOO.COM,,CRC-2046 / 10/31/2026,Dillon / Limited Liability,412 PEE DEE CHURCH RD,DILLON,SC,29536-7429,DELLAVISION LLC,N,N,30,653811.973,3806857.719
12541,SOMERBY OF MOUNT PLEASANT,3100 TRADITION CIR,MOUNT PLEASANT,SC,29466-7153,843-849-3096,"MABBET, TINA PH#: ",T.MABBETT@SOMERBYLIVING.COM,,CRC-2048 / 02/28/2026,Charleston / Limited Liability,1000 LEGION PL STE 1600,ORLANDO,FL,32801,TRADITION SENIOR CARE LLC,Y,Y,118,612710.151,3640203.157
12549,RESTORATION SENIOR LIVING AT WESTGATE,620 W BLACKSTOCK RD,SPARTANBURG,SC,29301,864-791-4188,"SMITH, AMANDA PH#: 281-482-9700",ASMITH@MYVITALITYLIVING.COM,,CRC-2051 / 06/30/2026,Spartanburg / Limited Liability,227 E EDGEWOOD,FRIENDSWOOD,TX,77546,RESTORATION AT WESTGATE LLC,Y,Y,100,409082.497,3867723.7
12553,TYLER RESTMORE HOME 3,139 SEMINOLE DR,ORANGEBURG,SC,29115-7619,803-536-0060,"ANTLEY, MICHELLE L. PH#: 803-536-0060",MICHELLEANTLEY@ICLOUD.COM,MICHELLEANTLEY@ATT.NET,CRC-2052 / 12/31/2026,Orangeburg / Limited Liability,238 ANNADALE CIR,ORANGEBURG,SC,29118,TYLER RESTMORE HOME LLC,N,N,15,513666.991,3703788.25
12558,BROOKDALE HARBISON,51 WOODCROSS DR,COLUMBIA,SC,29212-2350,803-732-0300,"SELLARS, RICHARD PH#: ",E000856980@BROOKDALE.COM,RICK.SELLARS@NHCCARE.COM,CRC-2053 / 12/31/2025,Richland / Limited Liability,111 WESTWOOD PL STE 400,BRENTWOOD,TN,37027-5057,AHC STERLING HOUSE OF HARBISON LLC,Y,Y,52,486530.266,3770691.601
12573,SPRING PARK ASSISTED LIVING,925 N MAIN ST,TRAVELERS REST,SC,29690-1553,864-610-2435,"HAWKINS, LISA PH#: 864-610-2435",LHAWKINS@SPRINGPARKTRAVELERSREST.COM,ADMIN@SPRINGPARKSC.COM,CRC-2063 / 02/28/2026,Greenville / Limited Liability,2700 HWY 280 STE 460E,BIRMINGHAM,AL,35223,AFF18 SPRING PARK ALF LLC,Y,Y,80,366841.858,3871462.49
12574,OAKVIEW PARK ASSISTED LIVING,110 HOOD RD,GREENVILLE,SC,29611,864-412-8990,"KLEIN, JENNIFER PH#: 864-412-8990",JKLEIN@OAKVIEWPARKGREENVILLE.COM,,CRC-2064 / 02/28/2026,Greenville / Limited Liability,2700 HWY 280 STE 460E,BIRMINGHAM,AL,35223,AFF18 OAKVIEW PARK ALF LLC,Y,Y,90,364074.046,3851037.328
12583,EMERALD RCF I,2244 BROWNTOWN RD,BISHOPVILLE,SC,29010-9664,803-428-6044,"POLLARD, DAISY W. PH#: 803-428-6044",DEMORRIE.EVANS@SCDMH.ORG,DAISY.POLLARD@SCDMH.ORG,CRC-2066 / 02/28/2026,Lee / State,2414 BULL ST,COLUMBIA,SC,29201-1906,SOUTH CAROLINA DEPARTMENT OF MENTAL HEALTH,N,N,5,560486.438,3783874.045
12584,BRIAN'S RESIDENTIAL CARE II,4003 CALHOUN ST,BRANCHVILLE,SC,29432-2243,803-274-8051,"JENKINS, ALESHIA PH#: 854-400-6644",MCAKLEY18@GMAIL.COM,,CRC-2067 / 12/31/2025,Orangeburg / Limited Liability,1027 BERKELEY DR,ORANGEBURG,SC,29118-8356,BRIANS AND STOKES ASSISTED LIVING LLC,N,N,20,517109.484,3679848.404
12595,GREENVILLE GLEN ASSISTED LIVING,1101 GARLINGTON RD,GREENVILLE,SC,29615-5446,864-627-8700,"HAMILTON, MARY C. PH#: 864-627-8700",ED@GREENVILLEGLENAL.COM,,CRC-2069 / 08/31/2026,Greenville / Limited Liability,PO BOX 6384,SPARTANBURG,SC,29304-6384,ML GREENVILLE GLEN LLC,Y,Y,51,384391.056,3857163.386
12599,MCKINNEY HOUSE,307 MILLER RD,MAULDIN,SC,29662-2034,864-297-5044,"WARE, TOMECA PH#: 803-422-1137",DEMORRIE.EVANS@SCDMH.ORG,TOMECA.WARE@SCDMH.ORG,CRC-2071 / 06/30/2026,Greenville / State,307 MILLER RD,MAULDIN,SC,29662-2034,SOUTH CAROLINA DEPARTMENT OF MENTAL HEALTH,N,N,10,380479.218,3850456.111
12600,STOKES RESIDENTIAL CARE,2525 SAINT MATTHEWS RD,ORANGEBURG,SC,29118-1319,803-533-0070,"STOKES, ALBERT O. PH#: 803-533-0070",MCAKLEY18@GMAIL.COM,DSTOKES30@SC.RR.COM,CRC-2072 / 12/31/2025,Orangeburg / Limited Liability,1027 BERKELEY DR,ORANGEBURG,SC,29118-8356,BRIANS AND STOKES ASSISTED LIVING LLC,N,N,17,514214.057,3710309.121
12601,WOODBRIDGE CLINTON,300 JACOBS HWY,CLINTON,SC,29325,864-833-3425,"GRANT, ALEXUS PH#: 864-833-3425",ED@WOODBRIDGECLINTONSENIORLIVING.COM,,CRC-2073 / 11/30/2026,Laurens / Limited Liability,300 JACOBS HWY,CLINTON,SC,29325,ML WOODBRIDGE CLINTON LLC,Y,Y,60,419486.592,3812677.805
12602,EMERALD RCF II,2262 BROWNTOWN RD,BISHOPVILLE,SC,29010-9664,803-428-6044,"POLLARD, DAISY W. PH#: 803-428-5407",DEMORRIE.EVANS@SCDMH.ORG,DAISY.POLLARD@SCDMH.ORG,CRC-2074 / 02/28/2026,Lee / State,2414 BULL ST,COLUMBIA,SC,29201-1906,SOUTH CAROLINA DEPARTMENT OF MENTAL HEALTH,N,N,5,560437.663,3783838.533
12610,PARK CIRCLE HOME 1,1133 BEXLEY ST,NORTH CHARLESTON,SC,29405-4726,843-442-7173,"RELLORA, WILHELMINA C. PH#: 843-467-1259",WINDSORHILLRCF@GMAIL.COM,WINDSORHILLRCF@GMAIL.COM,CRC-1992 / 11/30/2025,Charleston / Limited Liability,PO BOX 40729,CHARLESTON,SC,29423,WINDSOR HILL RCF LLC,N,N,5,595262.69,3637767.271
12611,PARK CIRCLE HOME 2,1131 BEXLEY ST,NORTH CHARLESTON,SC,29405-4726,843-442-7173,"RELLORA, WILHELMINA C. PH#: 843-442-7173",WINDSORHILLRCF@GMAIL.COM,JNRELLORA4SUS@GMAIL.COM,CRC-1993 / 11/30/2025,Charleston / Limited Liability,4048 ASHLEY PHOSPHATE RD,NORTH CHARLESTON,SC,29420,WINDSOR HILL RCF LLC,N,N,5,595271.427,3637768.535
12614,LOWCOUNTRY ASSISTED LIVING,6060 EHRHARDT RD,EHRHARDT,SC,29081,803-267-2222,"CASSIDY, SHERRI PH#: 000-000-0000",LOWCOUNTRYAL@YAHOO.COM,LOWCOUNTRYAL@YAHOO.COM,CRC-2029 / 06/30/2026,Bamberg / Limited Liability,PO BOX 116,EHRHARDT,SC,29081-0116,LOWCOUNTRY ASSISTED LIVING LLC,N,N,10,490452.452,3675188.432
12615,TURNING POINT CRCF,820 TOMS CREEK RD,HOPKINS,SC,29061-8798,803-647-1152,"MOORE, HARRIETT PH#: 803-847-4537",DEMORRIE.EVANS@SCDMH.ORG,HMOORE.REFLECTIONSHCS@GMAIL.COM,CRC-2075 / 06/30/2026,Richland / State,820 TOMS CREEK RD,HOPKINS,SC,29061-8798,SOUTH CAROLINA DEPARTMENT OF MENTAL HEALTH,N,N,15,521706.886,3760053.66
12625,CLAIBORNE AT BRICKYARD CROSSING,112 GRANDEVIEW DR,SUMMERVILLE,SC,29483,843-900-0700,"MAGNES, JACQUELINE PH#: 843-900-0700",JMAGNES@THECLAIBORNE.COM,,CRC-2080 / 09/30/2026,Dorchester / Limited Liability,11 PKWY BLVD,HATTIESBURG,MS,39401,TCABC REAL ESTATE HOLDINGS LLC,Y,Y,128,577951.106,3654501.914
12638,SUNFLOWER SPRINGS AT INDIAN LAND,2681 LENGERS WAY,INDIAN LAND,SC,29707,803-479-7649,"CLINE, KAYLA A. PH#: 803-207-8000",KAYLA.CLINE@SUNFLOWERATINDIANLAND.COM,ADMINISTRATOR@CAROLINAGARDENSROCKHILL.,CRC-2087 / 12/31/2026,Lancaster / Limited Liability,1575 SPENCE RD,LEXINGTON,SC,29072,SUNFLOWER SPRINGS ALF OF INDIAN LAND LLC,N,N,100,512502.489,3872381.196
12645,WILDEWOOD DOWNS ASSISTED LIVING COMMUNITY,731 POLO RD,COLUMBIA,SC,29223-4462,803-419-1243,"HERNANDEZ, ROBERT PH#: 803-479-9063",LICENSING@WILDEWOOD-DOWNS.COM,RHERNANDEZ@WILDEWOOD-DOWNS.COM,CRC-2091 / 06/30/2026,Richland / Limited Liability,3530 TORINGDON WAY STE 204,CHARLOTTE,NC,28277-3436,WILDEWOOD RETIREMENT LLC,Y,Y,57,510289.926,3771862.448
12663,CHANDLER PLACE ASSISTED LIVING & MEMORY CARE,1800 INDIA HOOK RD,ROCK HILL,SC,29732-1933,803-506-7056,"FISHER, JASON PH#: 843-565-2150",JASON.FISHER@NAVIONSL.COM,,CRC-2098 / 09/30/2026,York / Limited Liability,,,,,NAVION SPRING ARBOR LLC,Y,Y,92,496980.48,3868948.061
12689,LEGACY AT SOUTHPOINTE DRIVE,23 SOUTHPOINTE DR,GREENVILLE,SC,29607-5956,864-581-3414,"BAILEY, HOLLIE PH#: 864-581-3414",HOLLIE.BAILEY@NAVIONSL.COM,,CRC-2108 / 11/30/2026,Greenville / Limited Liability,,,,,NAVION SOUTHPOINTE OPERATIONS LLC,Y,Y,110,384379.24,3853490.649
12697,SOMERBY BAXTER VILLAGE,522 6TH BAXTER CROSSING,FORT MILL,SC,29708,803-619-0741,"MELODY, SARA PH#: 803-548-3835",SARA.MELODY@BLAKELIVING.COM,,CRC-2111 / 11/30/2026,York / Limited Liability,,,,,BAXTER SENIOR CARE LLC,Y,Y,114,502163.793,3875408.142
12698,SOMERBY EDGEWATER,1099 EDGEWATER CORPORATE PKWY,INDIAN LAND,SC,29707,803-310-4242,"SELLERS, CRYSTAL J. PH#: 803-713-8668",CRISSY.SELLERS@BLAKELIVING.COM,CYSTAL.SELLERS@SOMBERLYLIVING.COM,CRC-2112 / 11/30/2026,Lancaster / Limited Liability,,,,,EDGEWATER SENIOR CARE LLC,Y,Y,105,512736.062,3872777.11
12702,TERRABELLA ROCK HILL,1785 LEXINGTON COMMONS DR,ROCK HILL,SC,29732,803-207-8000,"NOLAN, JESSICA N. PH#: 803-831-9900",JNOLAN@TERRABELLAROCKHILL.COM,,CRC-2116 / 12/31/2026,York / Limited Liability,,,,,VP ROCK HILL OPCO LLC,Y,Y,90,500430.911,3871217.798
12705,OAKS AT MT PLEASANT,1010 ANNA KNAPP BLVD,MOUNT PLEASANT,SC,29464-5400,843-971-7756,"WILLIAMS, ALEXIS PH#: 843-821-4122",AP@OSLCARES.COM,,CRC-2117 / 01/31/2026,Charleston / Limited Liability,,,,,SNH SC TENANT LLC,Y,Y,38,606378.51,3631310.662
12723,FAIRVIEW PARK ASSISTED LIVING,544 HARRISON BRIDGE RD,SIMPSONVILLE,SC,29860,864-757-8812,"SURLS, ANGELA PH#: 864-653-4676",ASURLS@ATLASSENIORLIVING.COM,ASURLS@ATLASSENIORLIVING.COM,CRC-2050 / 02/28/2026,Greenville / Limited Liability,2700 HWY 280 STE 460E,BIRMINGHAM,AL,35223,AFF18 FAIRVIEW PARL ALF LLC,Y,Y,90,382566.405,3840493.328
12740,IVORYS LOVING CARE II,4018 S RHETT AVE,N CHARLESTON,SC,29405,843-554-0733,"SANDERS, JUANITA PH#: 843-654-0733",SISTERSANDERS@COMCAST.NET,SISTERSANDERS@COMCAST.NET,CRC-2092 / 07/31/2026,Charleston / Sole Proprietorship,2827 SPRUILL AVE,NORTH CHARLESTON,SC,29405-8050,JUANITA SANDERS,N,Y,10,594970.596,3636968.112
12743,SPRENGER HEALTHCARE OF BLUFFTON ASSISTED LIVING,60 OKATIE DR,OKATIE,SC,29909,843-548-2500,"GRIFFING, TERESA PH#: 843-781-7701",DGREEN1@SPRENGERHEALTHCARE.COM,,CRC-2042 / 03/31/2026,Beaufort / Corporation,60 OKATIE DR,OKATIE,SC,29909,SPRENGER HEALTHCARE OF BLUFFTON INC,N,N,58,508382.514,3575346.674
12756,WATERCREST MYRTLE BEACH ASSISTED LIVING AND MEMORY CARE,6151 COLLINE VERDI WAY,MYRTLE BEACH,SC,29572,843-331-4479,"HOLTZCLAW, CHARLES PH#: 843-331-4479",ED-WMYR@WATERCRESTSENIORLIVING.COM,,CRC-2079 / 03/31/2026,Horry / Limited Liability,,,,,WATERCREST GRANDE DUNES OPCO LLC,Y,Y,122,704304.913,3738569.799
12774,ENGLISH MEADOWS CAMDEN CAMPUS,209 BROAD ST,CAMDEN,SC,29020,803-272-4445,"ROMANDINE, TERRY PH#: 803-272-4445",ED@CAMDEN.CARE,,CRC-2122 / 02/28/2026,Kershaw / Limited Liability,,,,,WATEREE RIVER AL LLC,Y,Y,60,536311.705,3787934.151
12775,OAKS AT CHANTICLEER,355 BERKMANS LN,GREENVILLE,SC,29605-5606,864-467-0031,"GROTE, EMILY PH#: 864-467-0031",EGROTE@BSTFAMILY.COM,,CRC-2125 / 01/31/2026,Greenville / Limited Liability,,,,,SNH SC TENANT LLC,Y,Y,60,370806.695,3853203.904
12776,LEGACY OF LEXINGTON,218 OLD CHAPIN RD,LEXINGTON,SC,29072,843-857-0159,"DEVAUGHN, TRACY PH#: 843-292-0012",JULIA.STEINGASS@NAVIONSL.COM,TDEVAUGHN@5SSL.COM,CRC-2126 / 01/31/2026,Lexington / Limited Liability,,,,,SNH SC TENANT LLC,N,N,49,477176.872,3761441.5
12778,LEGACY OF HARTSVILLE,1901 W CAROLINA AVE,HARTSVILLE,SC,29550,843-857-0159,"TURNER, LORI K. PH#: 843-857-0159",LORI.TURNER@NAVIONSL.COM,,CRC-2128 / 01/31/2026,Darlington / Limited Liability,,,,,SNH SC TENANT LLC,Y,Y,54,580551.766,3802963.914
12779,LEGACY OF ORANGEBURG,2306 RIVERBANK DR,ORANGEBURG,SC,29118-4046,803-539-2911,"JOY CURCIO, MARLANA PH#: 803-539-2911",MARLANA.CURCIO@NAVIONSL.COM,,CRC-2129 / 01/31/2026,Orangeburg / Limited Liability,,,,,SNH SC TENANT LLC,N,N,49,509685.834,3708045.013
12780,OAKS AT SALEM ROAD,109 OLD SALEM RD,BEAUFORT,SC,29902-5113,843-982-0220,"SIEGNER, TAMATHE J. PH#: 843-982-0220",TAMMY.SIEGNER@OSLCARES.COM,TSIEGNER@5SSL.COM,CRC-2130 / 01/31/2026,Beaufort / Limited Liability,,,,,SNH SC TENANT LLC,N,N,49,526942.632,3587726.176
12782,MORNINGSIDE OF ANDERSON,1304 MCLEES RD,ANDERSON,SC,29621-3345,864-964-9088,"MOORE, KATHERINE PH#: 864-964-9088",KMOORE@5SSL.COM,,CRC-2132 / 01/31/2027,Anderson / Limited Liability,,,,,SNH SC TENANT LLC,N,Y,88,350360.7,3821684.908
12784,LEGACY OF CAMDEN,715 KERSHAW HWY,CAMDEN,SC,29020-1634,803-713-8668,"GAUSE, HOLLY PH#: 803-713-8668",HOLLY.GAUSE@NAVIONSL.COM,,CRC-2133 / 01/31/2026,Kershaw / Limited Liability,,,,,SNH SC TENANT LLC,N,N,49,535756.515,3794546.791
12785,PIEDMONT PATHWAYS COMMUNITY RESIDENTIAL CARE FACILITY,5640 LOWER RICHLAND BLVD,HOPKINS,SC,29061-9525,803-783-2273,"SCOTT, GWENDOLYN PH#: 803-783-2273",GWENDOLYN.SCOTT@SCDMH.ORG,GWENDOLYN.SCOTT@SCDMH.ORG,CRC-2134 / 06/30/2026,Richland / State,,,,,SC DEPARTMENT OF MENTAL HEALTH,N,N,15,511536.938,3753171.771
12790,INDIGO AT CAROLINA FOREST,176 VILLAGE CENTER BLVD,MYRTLE BEACH,SC,29579,843-897-6627,"HUDSON, FRED RANDALL PH#: ",RANDY.HUDSON@INDIGOCAROLINAFOREST.COM,,CRC-2135 / 09/30/2026,Horry / Limited Liability,,,,,BFG COMPASS CAROLINA FOREST PROPCO LLC,Y,Y,85,698179.249,3736889.59
12793,GOOD DEEDS RESIDENTIAL II,28 S MAGNOLIA ST,SUMTER,SC,29150-5243,803-778-2780,"GLOVER, CORETTA PH#: 803-316-2168",GLOVER2180@GMAIL.COM,GLOVER2180@GMAIL.COM,CRC-2139 / 01/31/2026,Sumter / Limited Liability,,,,,GOOD DEEDS RESIDENTIAL CARE FACILITY LLC,N,N,12,561210.468,3753286.059
12794,GOOD DEEDS RESIDENTIAL I,23 KENDRICK ST,SUMTER,SC,29150-5224,803-778-2780,"GLOVER, CORETTA PH#: 803-316-2168",GLOVER2180@GMAIL.COM,GLOVER2180@GMAIL.COM,CRC-2140 / 01/31/2026,Sumter / Limited Liability,,,,,GOOD DEEDS RESIDENTIAL CARE FACILITY LLC,N,N,21,561164.474,3753305.908
12801,BROOKDALE CONWAY,872 SINGLETON RIDGE RD,CONWAY,SC,29526-9166,843-347-3050,"SAMUEL, TAMIKA MONIQUE PH#: 843-347-3050",TAMIKAM.SAMUEL@BROOKDALE.COM,,CRC-2143 / 01/31/2026,Horry / Limited Liability,,,,,BKD CONWAY SC LLC,N,N,52,683530.415,3739279.009
12805,RESTORATION AT SIMPSONVILLE,125 KUFNER CT,SIMPSONVILLE,SC,29680,864-228-5090,"MIMS, LYNN PH#: 864-984-9844",LMIMS@MYVITALITYLIVING.COM,LMIMS@PRUITTHEALTH.COM,CRC-2144 / 02/28/2026,Greenville / Limited Liability,,,,,RESTORATION AT SIMPSONVILLE LLC,N,N,93,383247.841,3844836.445
12808,RESIDENCES AT GREER,715 S BUNCOMBE RD,GREER,SC,29650-2208,864-469-0409,"HICKS, KYLE L. PH#: 864-882-0783",KHICKS@THERESIDENCESOFSC.COM,KHICKS@MSA-CORP.COM,CRC-2146 / 11/30/2026,Greenville / Limited Liability,,,,,PHOENIX AT GREER LLC,Y,Y,110,386569.154,3865458.053
12809,LAVENDER HILLS FORT MILL CAMPUS,1061 GOLD HILL RD,FORT MILL,SC,29708,803-548-3825,"MCALHANY, MAXINE J. PH#: 843-957-6593",ED@FORTMILL.CARE,SOUTHISLAND2003@GMAIL.COM,CRC-2147 / 10/31/2026,York / Limited Liability,,,,,PEARL AT FORT MILL LLC,Y,Y,54,502739.202,3879831.262
12814,BROOKSTONE TERRACE OF WOODRUFF LLC,80 MEDICAL CENTER DR,WOODRUFF,SC,29388-8781,864-476-9100,"SHANK, AMIE PH#: 864-804-8103",AMIE@BSTFAMILY.COM,ADMINISTRATOR.GREER@ELITEHOMECARESC.COM,CRC-2151 / 04/30/2026,Spartanburg / Limited Liability,,,,,BROOKSTONE TERRACE OF WOODRUFF LLC,N,N,60,406344.164,3845463.052
12819,MAGNOLIAS OF WALTERBORO,210 ACADEMY RD,WALTERBORO,SC,29488-9208,843-538-8181,"SMITH, KENDALL PH#: ",KENDALL@MAGNOLIASOFWALTERBORO.COM,,CRC-2153 / 04/30/2026,Colleton / Limited Liability,,,,,MAGNOLIAS OF WALTERBORO LLC,N,N,44,531688.215,3644332.572
12839,RUBY DONALD RESIDENTIAL CARE,2 RUBY DONALD PL,GREENVILLE,SC,29617,864-203-7159,"MILLER, JACKIE PH#: 864-203-7159",0911BEAUTYJ@GMAIL.COM,,CRC-2156 / 01/31/2027,Greenville / Limited Liability,,,,,RUBY DONALD RESIDENTIAL CARE LLC,N,N,88,366673.226,3864354.916
12873,ENGLISH MEADOWS - INDIAN LAND CAMPUS,2210 BELLE ST,INDIAN LAND,SC,29707,803-962-7141,"PICARD, JACKI PH#: 803-684-0183",JACKIPICARD@GMAIL.COM,,CRC-2162 / 06/30/2026,Lancaster / Limited Liability,,,,,RETREAT AT INDIAN LAND LLC,Y,Y,70,513798.184,3867975.97
12902,MILLER PLACE RESIDENTIAL CARE,140 COX ST,SPARTANBURG,SC,29306-4807,864-573-7008,"MILLER, JACKIE PH#: 864-494-8693",0911BEAUTYJ@GMAIL.COM,,CRC-2166 / 02/28/2026,Spartanburg / Partnership,,,,,FRANK HENDERSON & EDWARD HARRISON,N,N,19,415043.992,3864341.079
12909,LEMONAIDE HOUSE,1018 CRYSTAL CLEAR LN,HOPKINS,SC,29061-8237,803-467-8399,"ETHERIDGE, LULA B. PH#: 803-467-8399",LETHERIDGE947@GMAIL.COM,,CRC-2170 / 10/31/2026,Richland / Limited Liability,,,,,LEMONAIDE HOUSE LLC,N,N,15,516290.034,3758808.872
12923,MILL CREEK MANOR,651 POLO RD,COLUMBIA,SC,29223-2905,803-790-9800,"JENKINS, ALESHIA PH#: 854-400-6644",YVETTE.PEARSON@MAINSTAYSENIORLIVING.COM,,CRC-2174 / 10/31/2026,Richland / Limited Liability,,,,,MAINSTAY HEALTHCARE MILL CREEK LLC,Y,Y,59,509967.665,3772426.205
12924,RESTING PLACE 2,207 E SHOCKLEY FERRY RD,ANDERSON,SC,29624-3731,864-437-8327,"WINN, BARBARA W. PH#: 864-583-8818",0911BEAUTYJ@GMAIL.COM,,CRC-2176 / 10/31/2026,Anderson / Limited Liability,,,,,RESTING PLACE 2 LLC,N,N,10,349027.628,3816751.087
12945,UNIQUE CARE ASSISTED LIVING FACILITY,17 EDWARD ST,SUMTER,SC,29150,803-316-2114,"MOORE, HARRIETT PH#: 803-847-4537",PATWALTERS166@GMAIL.COM,HMOORE.REFLECTIONSHCS@GMAIL.COM,CRC-2181 / 10/31/2026,Sumter / Limited Liability,,,,,UNIQUE CARE ASSISTED LIVING FACILITY LLC,N,Y,15,559804.277,3753391.458
12966,MYRTLE BEACH MANOR RETIREMENT COMMUNITY,9547 HWY 17 N,MYRTLE BEACH,SC,29572-0000,843-449-5283,"SCHMEIZL, ELIZABETH PH#: 843-449-5283",BETH.SCHMEIZL@PHOENIXSRLIVING.COM,,CRC-2123 / 01/31/2026,Horry / Limited Liability,,,,,SNH SC TENANT LLC,Y,Y,111,704304.913,3738569.799
12969,CARE WITH LOVE II,2109 COMMANDER RD,NORTH CHARLESTON,SC,29405-7704,843-718-3034,"FEILDS, HATTIE PH#: 843-425-4422",SHEILAPNELSON@GMAIL.COM,,CRC-2163 / 01/31/2026,Charleston / Sole Proprietorship,,,,,SHEILA NELSON,N,N,5,595581.361,3635711.32
12978,ABOVE THE REST RESIDENTIAL CARE,2385 PAMPLICO HWY,FLORENCE,SC,29505,843-407-7809,"MINGUS, KATHY L. PH#: 843-260-0864",ATRFACILITY@YAHOO.COM,KATHY.MINGUS@YAHOO.COM,CRC-2187 / 10/31/2026,Florence / Limited Liability,,,,,ABOVE THE REST RESIDENTIAL CARE FACILITY LLC,N,N,44,617393.24,3778823.82
13015,TERRABELLA SPARTANBURG,104 DILLON DR,SPARTANBURG,SC,29307-1018,864-948-9300,"KENNEDY, SHERRY SUE PH#: ",SKENNEDY@TERRABELLASENIORLIVING.COM,,CRC-2193 / 05/31/2026,Spartanburg / Limited Liability,,,,,SPARTANBURG AL/MC LLC,Y,N,55,418508.735,3871279.146
13029,PLACE AT SHADOW OAKS,108 GREGG AVE,AIKEN,SC,29801-6816,803-643-0300,"BURTON, CARMELLA W. PH#: 803-643-0300",CARMELLABURTON@SHADOW-OAKS.COM,,CRC-2175 / 01/31/2026,Aiken / Limited Liability,,,,,PLACE AT SHADOW OAKS LLC,Y,Y,56,429567.004,3714293.444
13060,WILLIAMS COMMUNITY CARE HOME,7705 RICHARD ST,COLUMBIA,SC,29209-3733,803-783-1223,"WILLIAMS, CHARLES A. PH#: 803-783-1223",CHAZWILLIAMSSR@GMAIL.COM,CHAZWILLIAMSSR@GMAIL.COM,CRC-2205 / 04/30/2026,Richland / Limited Liability,,,,,WILLIAMS COMMUNITY CARE HOME LLC,N,N,9,504507.07,3756590.433
13061,PINES AT HILTON HEAD,35 BEACH CITY RD,HILTON HEAD ISLAND,SC,29926-4725,843-342-5599,"CAMPER-DILLITTLE, LAURA PH#: 843-342-5599",LAURA@PINESBLUFFTON.COM,,CRC-2206 / 05/31/2026,Beaufort / Limited Liability,,,,,PINES-HILTON HEAD LLC,Y,Y,72,527119.362,3564959.554
13064,J J RESIDENTIAL CARE,748 GREEN ST,ORANGEBURG,SC,29115-4805,803-539-2604,"LEVINS, DEBORAH PH#: 803-539-2604",DEVORE.HOLDINGSLLC@GMAIL.COM,,CRC-2210 / 06/30/2026,Orangeburg / Sole Proprietorship,,,,,W DEVORE IRICK,N,N,10,512237.914,3706396.384
13081,PINES AT COLUMBIA,190 MCSWAIN DR,WEST COLUMBIA,SC,29169-4825,803-936-0062,"SHULL, BRIAN D. PH#: 803-936-0062",BRIAN@PINESCOLUMBIA.COM,BSHULL@BROOKDALE.COM,CRC-2213 / 06/30/2026,Lexington / Limited Liability,,,,,PINES-COLUMBIA LLC,N,N,90,489888.328,3763271.994
13092,MYRTLE BEACH GROVE SENIOR LIVING,3620 HAPPY WOODS CT,MYRTLE BEACH,SC,29588-2925,843-293-8888,"WILLIAMS, RAQUEL PH#: 843-293-0078",MYRTLEBEACHGROVE-ADM@SINCERISL.COM,,CRC-2215 / 09/30/2026,Horry / Limited Liability,,,,,SH1 HAPPY WOODS OPCO LLC,Y,Y,142,688087.174,3727411.614
13093,SUMTER GROVE SENIOR LIVING,2500 LIN-DO CT,SUMTER,SC,29150-1832,803-469-4490,"BEAN, MELISSIA PH#: 803-469-4490",MELISSA.BEAN@SUMTERGROVESENIORLIVING.COM,,CRC-2216 / 09/30/2026,Sumter / ,,,,,SH1 LINDO OPCO LLC,N,N,55,555625.819,3757153.446
13094,LANCASTER GROVE SENIOR LIVING,1004 HARDIN ST,LANCASTER,SC,29720-1609,803-801-1288,"MCCLURKIN, JOYCE PH#: 803-801-1288",LANCASTERGROVE-ADM@SINCERISL.COM,,CRC-2218 / 09/30/2026,Lancaster / ,,,,,SH1 HARDIN OPCO LLC,Y,Y,65,519508.432,3844705.241
13097,FAIRFOREST GROVE SENIOR LIVING,120 FAIRFOREST RD,COLUMBIA,SC,29212-2308,803-781-2243,"BYRD, APRIL PH#: 803-615-5735",APRIL.BYRD@FAIRFORESTGROVESENIORLIVING.C,APRIL.BYRD@FAIRFORESTGROVESENIORLIVING.C,CRC-2220 / 09/30/2026,Richland / Limited Liability,,,,,SH1 FAIRFOREST OPCO LLC,N,Y,66,486468.315,3770775.816
13098,SILVER BLUFF GROVE SENIOR LIVING,1385 SILVER BLUFF RD,AIKEN,SC,29803-8860,803-619-0045,"LARKE, ANGELA PH#: 803-619-0045",SILVERBLUFFGROVE-ADM@SINCERISL.COM,,CRC-2221 / 09/30/2026,Aiken / Limited Liability,,,,,SH1 SILVER BLUFF OPCO LLC,Y,Y,110,431263.523,3707564.824
13100,KEMPTON OF CHARLESTON,194 SPRING ST,CHARLESTON,SC,29403,854-500-7778,"CARR, JOE PH#: 854-500-7778",JOCARR@LIBERTYSENIORLIVING.COM,,CRC-2222 / 03/31/2026,Charleston / Limited Liability,,,,,SPRING STREET SENIOR HOUSING OPCO LLC,Y,Y,89,598123.331,3628287.685
13110,THORNE RETIREMENT HOME,702 W 3RD AVE,LAKE VIEW,SC,29563,843-759-9099,"SANDERSON, JAMES N. PH#: 843-759-9099",JAMESNEILSANDERSON@GMAIL.COM,JAMES@LAKEFIELDPROP.COM,CRC-2223 / 08/31/2026,Dillon / Limited Liability,,,,,JAGW LLC,N,N,76,668009.406,3801810.82
13133,PEE DEE GARDENS,3117 W PALMETTO ST,FLORENCE,SC,29501,843-667-6699,"COOKE-EVANS, TONI E. PH#: 843-667-6699",DIRECTOR@FLORENCESENIORS.COM,TCOOKE-EVANS@DEPAUL.ORG,CRC-2224 / 11/30/2026,Florence / Limited Liability,,,,,FLORENCE OPCO LLC,N,Y,80,606712.622,3781738.7
13134,BLAKE AT CARNES CROSSROADS,4015 2ND AVE,SUMMERVILLE,SC,29486,843-376-3996,"DRINKARD, CHRISTY PH#: 843-524-8911",CHRISTY.DRINKARD@QSLMSENIORLIVING.COM,,CRC-2226 / 09/30/2026,Berkeley / Limited Liability,,,,,WT TENANT OPCO LLC,Y,Y,114,584030.161,3658301.374
13149,MAGNOLIAS OF EUTAWVILLE,12488 OLD NUMBER SIX HWY,EUTAWVILLE,SC,29048,803-492-3134,"LOCKWOOD, SCOTT PH#: 803-492-3134",SCOTT@MAGNOLIASOFSANTEE.COM,,CRC-2229 / 11/30/2026,Orangeburg / Limited Liability,,,,,MAGNOLIAS OF EUTAWVILLE LLC,N,N,53,563229.051,3696038.293
13166,L AND C RESIDENTIAL CARE,1312 W EVANS ST,FLORENCE,SC,29501-3324,843-667-6636,"GOLDEN, IDA M. PH#: 843-669-9958",LHTIMMONSSR@ICLOUD.COM,,CRC-2232 / 08/31/2026,Florence / Sole Proprietorship,,,,,LARRY H TIMMONS,N,N,9,611425.102,3784533.091
13168,LANDINGS OF GEORGETOWN,2563 N FRASER ST,GEORGETOWN,SC,29440,843-932-9040,"BRYANT, COLBY PH#: 843-345-3169",DIRECTOR@GEORGETOWNSENIORLIVING.COM,,CRC-2233 / 08/31/2026,Georgetown / Limited Liability,,,,,GEORGETOWN OPCO LLC,N,N,68,659336.34,3698195.071
13174,TERRABELLA SUMMERVILLE,335 MIDLAND PKWY,SUMMERVILLE,SC,29485-8138,843-821-4122, PH#: ,CANICHOLS@TERRABELLASENIORLIVING.COM,,CRC-2235 / 12/31/2026,Dorchester / Limited Liability,,,,,SUMMERVILLE OPCO LLC,N,N,60,579006.434,3647644.547
13176,TERRABELLA SUMMIT,414 SUMMIT DR,GREENVILLE,SC,29609-4821,864-271-7562,"URBANIC, JOHN AUSTIN PH#: 864-359-9477",JURBANIC@TERRABELLASENIORLIVING.COM,,CRC-2236 / 12/31/2026,Greenville / Limited Liability,,,,,GREENVILLE I OPCO LLC,Y,Y,65,373594.142,3859967.14
13179,TERRABELLA MARCHBANKS,2203 MARCHBANKS AVE,ANDERSON,SC,29621-2247,864-231-7786,"DEATON, JOELY PH#: 864-244-9994",JDEATON@TERRABELLAMARCHBANKS.COM,JDEATON@BROOKDALE.COM,CRC-2237 / 12/31/2026,Anderson / Limited Liability,,,,,ANDERSON OPCO LLC,N,N,60,350434.288,3821803.385
13188,BECKMAN I CRCF,611 BECKMAN RD,COLUMBIA,SC,29203-3282,803-754-4221,"TURNER, SUSAN P. PH#: 803-754-4221",S.TURNER@CHESCOSERVICES.ORG,S.TURNER@CHESCOSERVICES.ORG,CRC-2239 / 12/31/2026,Richland / Sole Proprietorship,,,,,CHESCO SERVICES,N,N,6,500472.347,3771151.446
13195,M & M RESIDENTIAL CARE HOME,408 GENEVA AVE,MARION,SC,29571-4416,843-423-0120,"GORDAN, TEQUILA S. PH#: 843-309-4150",TGORDONJONES@BOP.GOV,,CRC-2241 / 02/28/2026,Marion / Limited Liability,,,,,SC RESIDENTIAL CARE LLC,N,N,5,648287.891,3782560.228
13211,BROOKSTONE TERRACE OF SIMPSONVILLE,645 SCUFFLETOWN RD,SIMPSONVILLE,SC,29681,864-962-3038,"GROTE, EMILY K. PH#: 864-804-8103",EGROTE@BSTFAMILY.COM,,CRC-2242 / 02/28/2026,Greenville / Limited Liability,,,,,BROOKSTONE TERRACE OF SIMPSONVILLE LLC,N,N,64,388785.341,3849896.5
13236,BECKMAN II CRCF,581 BECKMAN RD,COLUMBIA,SC,29203-3207,803-445-1695,"TURNER, SUSAN P. PH#: 803-754-4221",S.TURNER@CHESCOSERVICES.ORG,S.TURNER@CHESCOSERVICES.ORG,CRC-2244 / 12/31/2026,Richland / Sole Proprietorship,,,,,CHESCO SERVICES,N,N,6,500579.309,3771226.106
13239,SUNNY PINES RESIDENTIAL CARE FACILITY LTD CO,108 GAPWAY RD,ANDREWS,SC,29510-6786,843-221-7436,"PAPILLION, GLORIA F. PH#: 843-221-7436",PAPION22@PEOPLEPC.COM,PAPION22@PEOPLEPC.COM,CRC-2246 / 05/31/2026,Williamsburg / Sole Proprietorship,,,,,SUNNY PINES RESIDENTIAL CARE FACILITY LTD CO,N,N,18,632694.747,3703991.743
13254,DOMINION SENIOR LIVING AT PATRICK SQUARE,100 PERSHING AVE,CLEMSON,SC,29631,864-722-2811,"PEPPER, CHRISTOPHER C. PH#: 864-722-2811",CHRISP@DOMINIONSENIORLIVING.COM,CHRISP@DOMINIONANDERSON.COM,CRC-2248 / 03/31/2026,Pickens / Limited Liability,,,,,DOMINION OF CLEMSON OPCO LLC,Y,Y,78,336392.949,3839386.655
13277,HELMS-GORDON RESIDENTIAL CARE HOME,714 FUNDERBURKE RD,FORT LAWN,SC,29714-8593,803-872-4253,"EXUM, BARBARA PH#: 843-293-8888",SOPRANO359@YAHOO.COM,,CRC-2251 / 07/31/2026,Chester / Limited Liability,,,,,HELMS GORDON LLC,N,N,32,508103.297,3838563.902
13286,COVENANT PLACE,2825 CARTER RD,SUMTER,SC,29150-1736,803-469-7007,"SUMTER, PRINSCILLIA PH#: 803-469-7007",DIRECTOR@COVENANTPLACE.ORG,,CRC-2257 / 03/31/2026,Sumter / ,,,,,SUMTER OPCO LLC,Y,Y,70,554908.874,3757336.473
13294,HILLS OF CUMBERLAND VILLAGE,3215 WISE CREEK LN,AIKEN,SC,29801-2534,803-641-8444,"MURRAY, JOI PH#: 864-348-7433",JMURRAY@GOLDENBELLSENIORLIVING.COM,JBEE14@YAHOO.COM,CRC-2262 / 12/31/2026,Aiken / Limited Liability,,,,,CUMBERLAND VILLAGE-HILLS OPERATOR LLC,N,N,34,428165.422,3713400.608
13298,MARSH AT CAROLINA PARK,3501 LIVELY LN,MOUNT PLEASANT,SC,29466,843-984-9050,"JUSTICE, AMEILIA PH#: 843-984-9050",AMY.JUSTICE@SSMGRP.COM,,CRC-2264 / 12/31/2025,Charleston / Limited Liability,,,,,MARSH AT CAROLINA PARK LLC,Y,Y,97,614893.974,3639527.642
13303,HIGHLANDS SENIOR LIVING GASTON,3959 FISH HATCHERY RD,GASTON,SC,29053-9038,803-755-6541,"MIKA, KRISTIN PH#: 803-755-6541",KRISSY@HIGHLANDS.CARE,,CRC-2266 / 07/31/2026,Lexington / Limited Liability,,,,,KAYRAM ATLANTA LLC,N,N,92,486214.151,3744613.583
13314,PINES AT GREENVILLE,20 HAWTHORNE PARK CT,GREENVILLE,SC,29615-3194,864-288-6775,"JACKSON, CARRIE PH#: 864-288-6775",ED@PINESGREENVILLE.COM,,CRC-2267 / 09/30/2026,Greenville / Limited Liability,,,,,SC SENIOR 3 LLC,N,N,68,378344.319,3858774.248
13317,PATHS OF HOPE COMMUNITY RESIDENTIAL CARE,1004 RL COWARD RD,EASTOVER,SC,29044,803-776-4482,"BUSH, T'YREE PH#: 839-810-8841",PATHSOFHOPESC@GMAIL.COM,,CRC-2268 / 12/31/2025,Richland / Limited Liability,,,,,TY REE S BUSH,N,N,10,519798.839,3755578.236
13324,ART OF LIVING CRCF,534 WIL STEL RD,COLUMBIA,SC,29210-3967,803-401-5733,"ROUSE, MATRICE PH#: 803-513-0821",CBURGESS@ARTOFLIVINGSC.COM,,CRC-2269 / 06/30/2026,Richland / Partnership,,,,,ART OF LIVING COMMUNITY & SUPPORT SERVICS LLC,N,N,40,487611.973,3770225.825
13334,HARBORCHASE OF RIVERWALK,749 DUNKINS FERRY RD,ROCK HILL,SC,29730,803-393-2983,"WOOD, CHRYSTAL PH#: 803-325-1144",RIVERWALKED@HARBORCHASE.COM,CWOOD3@BROOKDALE.COM,CRC-2271 / 09/30/2026,York / Limited Liability,,,,,VOP HC RIVERWALK LLC,N,N,97,502404.004,3870167.451
13351,LAUREL CREST,100 JOSEPH WALKER DR,WEST COLUMBIA,SC,29169-6939,803-796-0370,"ROWLETTE-CARTER, CESSANDRA PH#: 803-796-0370",JIM.DEEL@LAURELCREST.ORG,,CRC-2272 / 01/31/2026,Lexington / Non-Profit Corporation,,,,,PRESBYTERIAN COMMUNITIES OF SOUTH CAROLINA,Y,Y,26,494070.711,3762540.533
13353,WESTSIDE RESIDENTIAL HOME,4112 HARTFORD ST,COLUMBIA,SC,29204-3025,803-786-7411,"MINGUS, KATHY L. PH#: 843-260-0864",KATHY.M@HIGHLANDS.CARE,KATHY.MINGUS@YAHOO.COM,CRC-2273 / 06/30/2026,Richland / Limited Liability,,,,,KAYRAM ATLANTA LLC,N,N,38,500601.536,3767929.652
13366,CARE WITH LOVE,3408 LENAPE ST,NORTH CHARLESTON,SC,29405-7777,843-744-0313,"FEILDS, HATTIE PH#: 843-425-4422",SHEILAPNELSON@GMAIL.COM,,CRC-2164 / 01/31/2026,Charleston / Sole Proprietorship,,,,,SHEILA NELSON,N,N,5,595682.076,3635664.031
13372,BISHOPVILLE MANOR,2779 HWY 15 N,BISHOPVILLE,SC,29010-7101,803-428-2222,TRACEY L COOPER PH#: 803-236-1415,BISHOPVILLEMANORRCF@GMAIL.COM,TRACEYLDUNN7@GMAIL.COM,CRC-2281 / 10/31/2026,Lee / Limited Liability,,,,,BISHOPVILLE MANOR MANAGEMENT GROUP LLC,N,N,44,576319.08,3791186.351
13373,MARY RCF #3,10219 FARROW RD,BLYTHEWOOD,SC,29016-9612,803-556-9813,MARY BACOTE PH#: 803-556-9813,MBACOTE69@GMAIL.COM,M.BACOTE@HOTMAIL.COM,CRC-2282 / 12/31/2026,Richland / Sole Proprietorship,,,,,MARY BACOTE,N,N,10,504204.213,3779194.093
13397,ROCK HILL GROVE SENIOR LIVING,1830 W MAIN ST,ROCK HILL,SC,29732-8965,803-980-4100,"ROBERTS HAHN, ELIZABETH PH#: 803-980-4100",LIBBY.HAHN@ROCKHILLGROVESENIORLIVING.COM,,CRC-2217 / 09/30/2026,York / Limited Liability,,,,,SH1 MAIN OPCO LLC,N,N,60,494266.147,3866573.555
13421,BEVID PLACE,2902 E MAIN ST EXT,SPARTANBURG,SC,29307,864-579-0086,"FRYE, LORAN PH#: 864-288-3331",LORANFRYE@BEVIDPLACE.COM,,CRC-2294 / 02/28/2026,Spartanburg / Limited Liability,,,,,BEVID PLACE LLC,Y,Y,113,421156.939,3871725.136
13427,PINES AT FLORENCE,3006 HOFFMEYER RD,FLORENCE,SC,29501-7551,843-292-0012,"ALVAREZ, MICHAEL PH#: 843-292-0012",MICHAEL@PINES-SENIORLIVING.COM,,CRC-2296 / 04/30/2026,Florence / Limited Liability,,,,,SC SENIOR 4 LLC,Y,Y,82,607122.296,3785574.641
13432,MAGNOLIA BRIDGE AT MURRELLS INLET,1056 TPC BLVD,MURRELLS INLET,SC,29576,843-865-2493,"WEAVER, KATHERINE PH#: 843-865-2493",KATHERINE.WEAVER@MAGNOLIABRIDGEATMURRELL,,CRC-2297 / 05/31/2026,Horry / Limited Liability,,,,,BFG COMPASS MURRELLS INLET PROPCO LLC,Y,Y,82,680365.334,3718115.366
13474,OAKS AT AIKEN,3400 WHISKEY RD,AIKEN,SC,29803,803-281-8600,"SANFORD, STACEY PH#: 843-770-0105",STACEY.SANFORD@OSLCARES.COM,,CRC-2301 / 12/31/2025,Aiken / Limited Liability,,,,,LOTUS PARK SENIOR LIVING-AIKEN LLC,Y,Y,81,435273.719,3705348.837
13500,KEOWEE SQUARE,475 ROCHESTER HWY,SENECA,SC,29672,864-886-0070,"WEBB, HEATHER OWENS PH#: 864-886-0070",HEATHER.WEBB@NAVIONSL.COM,,CRC-2304 / 06/30/2026,Oconee / Limited Liability,,,,,SENECA AL LLC,N,N,50,323466.754,3842620.504
13501,PINEWOOD SQUARE,101 CENTENNIAL BLVD,GOOSE CREEK,SC,29445-7079,843-569-2520,"SHEPHARD, HOPE M. PH#: 843-569-2520",HOPE.SHEPHERD@NAVIONSL.COM,,CRC-2306 / 06/30/2026,Berkeley / Limited Liability,,,,,GOOSE CREEK AL LLC,N,N,44,587216.587,3653580.183
13502,MANNING SQUARE,10 COMPANION CT,GREER,SC,29651-1288,864-989-0707,"MURPHY-DAVIS, TYQUANNA PH#: 864-288-3271",QUANNA.DAVIS@NAVIONSL.COM,,CRC-2307 / 06/30/2026,Greenville / Limited Liability,,,,,GREER AL LLC,N,N,44,387012.678,3868487.546
13503,LANGSTON SQUARE,939 SPRINGDALE DR,CLINTON,SC,29325-7266,864-833-0338,"MORGAN, MARY-ADDISON PH#: 864-833-0338",MARY.MORGAN@NAVIONSL.COM,,CRC-2308 / 06/30/2026,Laurens / Limited Liability,,,,,CLINTON AL LLC,N,N,44,420304.984,3813268.16
13505,HELENA SQUARE,1624 PARIS AVE,PORT ROYAL,SC,29935-2041,843-982-0233,"FENNELL, ERIC PH#: 843-342-5599",ERIC.FENNELL@NAVIONSL.COM,,CRC-2309 / 06/30/2026,Beaufort / Limited Liability,,,,,PORT ROYAL AL LLC,N,N,44,528952.839,3582822.903
13506,ASHLEY SQUARE,526 HALTIWANGER RD,GREENWOOD,SC,29649-1799,864-943-1933,"MOORE, BRENT PH#: 864-943-1933",BRENT.MOORE@NAVIONSL.COM,BMOORE@ENLIVANT.COM,CRC-2310 / 06/30/2026,Greenwood / Limited Liability,,,,,GREENWOOD AL LLC,N,N,44,393098.874,3788642.537
13507,CYPRESS SQUARE,205 MIDLAND PKWY,SUMMERVILLE,SC,29485-8104,843-875-7163,"HOOLEY, JOHANNA PH#: 973-521-1268",JOHNNA.HOOLEY@NAVIONSL.COM,,CRC-2311 / 06/30/2026,Dorchester / Limited Liability,,,,,SUMMERVILLE AL LLC,N,N,44,578343.879,3647837.455
13508,HAMMOND SQUARE,128 WALNUT LN,NORTH AUGUSTA,SC,29860-9206,803-441-8441,"SCIRCLE, RHETT M. PH#: 803-441-8441",RHETT.SCIRCLE@NAVIONSL.COM,,CRC-2312 / 06/30/2026,Aiken / Limited Liability,,,,,NORTH AUGUSTA AL LLC,N,N,44,412391.649,3715147.205
13509,A'LELIA RESIDENTIAL CARE,10 JACOB WHITE RD,YEMASSEE,SC,29945-7820,843-466-0356,"BELL, TROY A. PH#: 843-744-1765",ALELIARESIDENTIAL@GMAIL.COM,BACHBELL25@GMAIL.COM,CRC-2313 / 01/31/2026,Beaufort / Limited Liability,,,,,ALELIA CARE MANAGEMENT GROUP LLC,N,N,20,524825.413,3609064.486
13562,VICKERY PARKE,131 VICKERY DR,CENTRAL,SC,29630-8330,864-653-4674,"BRYANT, KELLY PH#: 864-638-5212",KELLY.BRYANT@VICKERYPARKEAL.COM,,CRC-2323 / 12/31/2025,Pickens / Limited Liability,,,,,VICKERY PARKE LLC,N,N,52,336004.55,3841969.526
13563,SUMTER TERRACE,1180 WILSON HALL RD,SUMTER,SC,29150-1738,803-469-4908,"EVANS, TAYLOR PH#: ",TAYLOR.EVANS1@SUMTERTERRACEAL.COM,,CRC-2325 / 12/31/2025,Sumter / Limited Liability,,,,,SUMTER TERRACE LLC,N,N,52,555343.475,3757174.735
13570,HIGHPOINT AT FORT MILL,5028 HOLLOWAY DR,FORT MILL,SC,29715,803-244-9115,"WALKER, LESLIE PH#: 803-244-9115",LWALKER@HIGHPOINTFORTMILL.COM,,CRC-2327 / 11/30/2026,York / Limited Liability,,,,,HC FORT MILL MANAGEMENT SC LLC,Y,Y,78,505612.485,3880341.411
13594,FORD MANOR,7631 RITTER RD,WALTERBORO,SC,29488,843-893-2273,"BEATON, PATRICIA PH#: 843-866-3494",FORDMANOR@LOWCOUNTRY.COM,PATFORD@LOWCOUNTRY.COM,CRC-2247 / 09/30/2026,Colleton / Sole Proprietorship,,,,,PATRICIA BEATON,N,N,10,536816.877,3631183.864
13612,CUMMINGS COMMUNITY RESIDENTIAL CARE HOME,2606 STARK LN,NORTH CHARLESTON,SC,29405-5537,843-747-7088,"CUUMMINGS, OLYMPIA PH#: 843-860-2340",OCUMMINGS03@COMCAST.NET,,CRC-2255 / 08/31/2026,Charleston / Limited Liability,,,,,CUMMINGS COMMUNITY RESIDENTIAL CARE HOME LLC,N,N,8,594476.734,3635354.893
13651,PALMETTO OAKS RESIDENTIAL CARE,206 S GUM ST,PAGELAND,SC,29728-2304,803-804-3244,"CATOE, SHERESA PH#: 803-804-3244",PALMETTOOAKS@SHTC.NET,,CRC-2245 / 10/31/2026,Chesterfield / Corporation,,,,,SCLR HOLDING LLC,N,Y,58,556249.878,3847948.644
13659,PORTSIDE AT GRANDE DUNES,901 PORTSIDE DR,MYRTLE BEACH,SC,29572,843-999-2494,"LUPIEN, DOROTHY D. PH#: 843-957-0811",DLUPIEN@PORTSIDEGRANDEDUNES.COM,,CRC-2259 / 02/28/2026,Horry / Limited Liability,,,,,CPF LIVING COMMUNITIES II-MYRTLE BEACH LLC,Y,Y,120,704304.913,3738569.799
13687,HITCHCOCK SQUARE,102 CREPE MYRTLE CT,AIKEN,SC,29803-7552,803-649-6439,"STEWARD, JASON PH#: 803-643-0073",JASON.STEWART@NAVIONSL.COM,,CRC-2305 / 06/30/2026,Aiken / Limited Liability,,,,,AIKEN AL LLC,N,N,44,431513.403,3708402.632
13689,FLORENCE PLACE ASSISTED LIVING & MEMORY CARE,1938 MOUNTAIN LAUREL DR,FLORENCE,SC,29505,843-665-7978,"HEDEGOR, LORIE PH#: 843-508-8511",LORIE.EDEGOR@FLORENCEPLACEAL.COM,,CRC-2315 / 09/30/2026,Florence / Limited Liability,,,,,FLORENCE PLACE ASSISTED LIVING & MEMORY CARE LLC,Y,Y,90,614796.305,3780409.763
13710,ANSLEY GLEN AT GREENWOOD,1408 PKWY RD,GREENWOOD,SC,29646-4043,864-223-2281,"MOON, AMANDA PH#: 254-383-4129",AMANDA.MOON@ANSLEYGLENGREENWOOD.COM,,CRC-2324 / 12/31/2025,Greenwood / Limited Liability,,,,,ANSLEY GLEN AT GREENWOOD LLC,N,N,52,393220.474,3781942.336
13753,PALMETTOS OF BLUFFTON,3035 OKATIE HWY,BLUFFTON,SC,29909-5101,843-707-9400,"WIEGAND, HEATHER PH#: 843-707-9400",HEATHER.WIEGAND@NHCCARE.COM,HEATHER.WIEGAND@NHCCARE.COM,CRC-1648 / 03/31/2026,Beaufort / Limited Liability Company (multiple member),3035 OKATIE HWY,BLUFFTON,SC,29909,PALMETTOS OF BLUFFTON LLC,Y,Y,88,499067.45,3566833.741
13765,ALSTONGREEN ASSISTED LIVING,1155 FLORENCE HWY,SUMTER,SC,29153,803-262-2625,"GREENE, SHIRLEY H. PH#: 803-934-6036",ALSTONGREEN1155@GMAIL.COM,SERENITYDAYPROGRAM@GMAIL.COM,CRC-2121 / 02/28/2026,Sumter / Limited Liability,,,,,ALSTONGREEN ASSISTED LIVING LLC,N,N,24,564311.101,3754621.207
13769,SPRING OAK CONWAY,2310 HWY 378,CONWAY,SC,29527,843-397-1010,"LODZINSKI, TISHA PH#: 843-397-1010",TISHA@SPRINGOAKLIVING.COM,,CRC-2342 / 02/28/2026,Horry / Limited Liability,,,,,SPRING OAK CONWAY LLC,N,Y,100,676706.165,3746447.434
13770,SPRING OAK LEXINGTON,5422 AUGUSTA RD,LEXINGTON,SC,29072-3892,803-520-5850,"SHULL, BRIAN PH#: ",BSHULL@SPRINGOAKLIVING.COM,,CRC-2343 / 02/28/2026,Lexington / Limited Liability,,,,,SPRING OAK LEXINGTON LLC,N,Y,90,479790.499,3759618.056
13771,SPRING OAK YORK,1020 CONGRESS ST,YORK,SC,29745,803-684-0183,"MELTON, CATHERINE NICOLE PH#: 803-770-5540",NMELTON@SPRINGOAKLIVING.COM,,CRC-2345 / 02/28/2026,York / Limited Liability,,,,,SPRING OAK YORK LLC,N,Y,143,479505.926,3873939.459
13793,FH&C RESIDENTIAL CARE,101 COE RD,ANDERSON,SC,29624,470-701-4741,"WINN, BARBARA W. PH#: 864-583-8818",0911BEAUTYJ@GMAIL.COM,,CRC-2169 / 10/31/2026,Anderson / Limited Liability,,,,,FH&C RESIDENTIAL CARE LLC,N,N,10,350501.368,3812823.261
13798,WILLIAMSBURG RESIDENTIAL CARE FACILITY,14 WRCF ST,KINGSTREE,SC,29556-2596,843-355-6214,"BURGESS, SANDI PH#: 843-355-6214",SANDYBURGESS98@YAHOO.COM,,CRC-2292 / 03/31/2026,Williamsburg / Limited Liability,,,,,DNS III LLC,N,N,24,609262.507,3727215.134
13839,CROSSINGS OF GEORGETOWN,2628 N FRASER ST,GEORGETOWN,SC,29440-6946,843-932-9112,"CISNEROS, JOAN PH#: 843-932-9112",JCISNEROS@ALGSENIOR.COM,,CRC-2328 / 04/30/2026,Georgetown / Limited Liability,,,,,GEORGETOWN OPCO II LLC,N,N,50,659410.407,3698170.579
13840,VIVA SENIOR LIVING AT EASLEY,123 COUCH LN,EASLEY,SC,29642-1916,864-859-3303,"DEGEAR, HARRY B. PH#: 864-859-3303",BRENT.DEGEAR@VIVASL.COM,,CRC-2331 / 11/30/2026,Pickens / Limited Liability,,,,,EASLEY AL OPCO LLC,N,N,56,357438.245,3854001.004
13844,BARCLAY HOUSE OF AIKEN,530 BENTON HOUSE WY,AIKEN,SC,29803,803-226-0838,"ALLENSWORTH, JENNIFER PH#: 854-400-6644",JENNIFER.ALLENSWORTH@QSLMSENIORLIVING.CO,,CRC-2344 / 04/30/2026,Aiken / Limited Liability,,,,,530 BENTON HOUSE WAY OPCO LLC,N,Y,100,430278.282,3706304.208
13845,OAKLEAF VILLAGE OF LEXINGTON,800 N LAKE DR,LEXINGTON,SC,29072-2903,803-808-3477,"ELLIOTT, ASHLEY PH#: 803-808-3477",AELLIOTT@LIBERTYSENIORLIVING.COM,AELLIOTT@OAKLEAFSENIORLIVING.COM,CRC-2347 / 04/30/2026,Lexington / Limited Liability,,,,,800 N LAKE OPCO LLC,N,Y,100,478705.478,3761275.889
13846,BROOKDALE BRUSHY CREEK,2010 BRUSHY CREEK RD,GREER,SC,29650-2614,864-244-9994,"HENDERSON, KIMONI PH#: 864-244-9994",KIM.HENDERSON@BROOKDALE.COM,,CRC-2349 / 02/28/2026,Greenville / Limited Liability,,,,,AHC STERLING HOUSE OF GREENVILLE LLC,N,N,52,382328.112,3862699.576
13849,LEGACY VILLAGE OF MURRELLS INLET,699 PRINCE CREEK PKWY,MURRELLS INLET,SC,29576,843-353-1525,"KOSTAL, LARRISA PH#: 843-353-1525",LKOSTAL@LEGACYMURRELLSINLET.NET,,CRC-2340 / 12/31/2025,Horry / Limited Liability,,,,,MURRELLS INLET SENIOR SERVICES LLC,N,N,110,681142.861,3717488.386
13865,SOUTHSIDE MANOR RESIDENTIAL CARE FACILITY,311 MANNING AVE,SUMTER,SC,29150,803-840-0287,"GOLDEN, IDA PH#: 803-840-0287",NUGGIE23@GMAIL.COM,,CRC-2199 / 04/30/2026,Sumter / Sole Proprietorship,,,,,MARION H NEWTON,N,N,6,560921.913,3752459.216
13866,GIVING DIGNITY AND SUPPORT,117 CHALK ST,EASTOVER,SC,29044,803-592-1028,"HAYES, TOWANA PH#: 803-353-2736",TOWANA_HAYES@ATT.NET,,CRC-2337 / 04/30/2026,Richland / Limited Liability,,,,,GDS ENTERPRISES LLC,N,N,10,528023.55,3748562.981
13899,BENCHMARK-COWPENS,204 GOFORTH AVE,COWPENS,SC,29330,864-406-0522,"SMAL, LUCY PH#: 864-585-0322",LUCY.SMAL@CHARLESLEA.ORG,,CRC-2319 / 05/31/2026,Spartanburg / Corporation,,,,,CHARLES LEA CENTER,N,N,12,426040.492,3876096.252
13944,SIX MILE RETIREMENT CENTER,120 S MAIN ST,SIX MILE,SC,29682-9332,864-868-9050,"HAMMERS, RANDY L. PH#: 864-868-9050",SIXMILERC@YAHOO.COM,SRETIREMENT@ATT.NET,CRC-2320 / 03/31/2026,Pickens / Sole Proprietorship,,,,,RANDY HAMMERS,N,N,41,333604.594,3852762.815
13945,MERIDIAN AT CAROLINA LAKES,8154 ENGLISH CLOVER LN,INDIAN LAND,SC,29707,803-590-7005,"BRAKEFIELD, MARY L. PH#: 803-389-1972",CAROLINALAKES.ED@MERIDIANSENIOR.COM,,CRC-2338 / 12/31/2026,Lancaster / Limited Liability,,,,,MSA FORT MILL OPERATING LLC,N,N,117,515169.421,3865974.384
13946,UNION ASSISTED LIVING,709 RICE AVE EXT,UNION,SC,29379,864-427-0306,"PATRIE, CHRISTOPHER PH#: 803-831-9900",CHRISTOPHER.PATRIE@UNIONPOSTACUTE.COM,CHRISTOPHER.PATRIE@HCR-MANORCARE.COM,CRC-2350 / 09/30/2026,Union / Limited Liability,,,,,UNION COMMUNITY HEALTHCARE LLC,N,N,40,440775.184,3841940.419
13949,WINDRUSH AT GARDEN CITY,11951 GRANDHAVEN DR,MURRELS INLET,SC,29576-7843,843-357-0200,"CONNOLLY, SCOTT PH#: 843-353-1525",SCOTT.CONNOLLY@WINDRUSHGARDENCITY.COM,,CRC-2363 / 05/31/2026,Horry / Limited Liability,,,,,WINDRUSH AT GARDEN CITY LLC,N,N,111,683286.148,3718143.239
13950,FOREST LAKE MANOR,4405 FOREST DR,COLUMBIA,SC,29206-3103,803-790-9800,"DENNIS, DORETHA L. PH#: 803-647-1152",DORTHEA.DENNIS@FORESTLAKEMANORSC.COM,DORETHA.DENNIS@SCDMH.ORG,CRC-2364 / 05/31/2026,Richland / Limited Liability,,,,,FOREST LAKE MANOR LLC,N,N,60,502170.64,3764537.343
13951,HARBOR COVE MEMORY CARE,48 MAIN ST,HILTON HEAD ISLAND,SC,29926-1647,843-896-3686,"CHEMFOR, RENEE PH#: 803-788-9555",RCHEMFOR@HARBORCOVEMC.COM,,CRC-2317 / 09/30/2026,Beaufort / Limited Liability,,,,,HILTON HEAD MEMORY CARE LLC,N,N,36,526651.368,3564712.062
13952,VILLAGE COVE ASSISTED LIVING,80 MAIN ST,HILTON HEAD ISLAND,SC,29926-2923,843-896-3686,"NAPOLITANO, JENNIFER PH#: 843-689-9143",JNAPOLITANO@VILLAGECOVEAL.COM,JNAPOLITANO@BROOKDALE.COM,CRC-2318 / 09/30/2026,Beaufort / Limited Liability,,,,,HILTON HEAD ASSISTED LIVING LLC,N,N,52,526451.292,3564533.393
14026,MARSH AT NORTH CHARLESTON,4550 GREAT OAK DR,NORTH CHARLESTON,SC,29418-5001,843-826-1180,"BLALOCK, MISTY A. PH#: 843-974-8559",ABLALOCK@THEFELLOWSHIPFAMILY.COM,,CRC-2238 / 07/31/2026,Charleston / Limited Liability,,,,,MARSH NORTH CHARLESTON AL LLC,N,N,70,587767.323,3637764.309
14062,WE CARE RESIDENTIAL,2370 WILLISTON RD,AIKEN,SC,29803-9100,803-652-3652,"PRESIDENT, TESSIE J. PH#: 843-459-2149",WECAREMANAGEMENTLLC@GMAIL.COM,PRESIDENTIALCRCF@GMAIL.COM,CRC-2336 / 09/30/2026,Aiken / Limited Liability,,,,,WE CARE MANAGEMENT GROUP LLC,N,N,55,435208.388,3695124.943
14092,L&B CARE HOME,3646 BARR WOODS RD,SALUDA,SC,29138-8191,864-993-3072,"GOLDMAN, ELIZABETH PH#: 864-993-3022",LBCAREHOME@GMAIL.COM,,CRC-2254 / 07/31/2026,Saluda / Corporation,,,,,L&B CARE HOME INC,N,N,24,430669.429,3764134.852
14134,KEMPTON OF ROCK HILL,1611 CONSTITUTION BLVD,ROCK HILL,SC,29732-3047,803-900-4125,"BATTISTELLI, LISA PH#: 803-981-6855",LBATTISTELLI@LIBERTYSENIORLIVING.COM,,CRC-2370 / 09/30/2026,York / Limited Liability,,,,,1611 CONSTITUTION BLVD TENANT LLC,Y,Y,110,495362.698,3867769.948
14150,LOVING THY NEIGHBOR RESIDENTIAL CARE,126 TOKEENA RD,SENECA,SC,29678,864-614-5337,"REID, ADRIAN PH#: 864-614-5337",ADRIAN.REID@CHARTER.NET,,CRC-2371 / 07/31/2026,Oconee / Limited Liability,,,,,LOVING THY NEIGHBOR RESIDENTIAL CARE LLC,N,Y,33,320109.995,3836694.416
14200,WHITE OAK ESTATES ASSISTED LIVING,400 WEBBER RD,SPARTANBURG,SC,29307-2400,864-579-7004,"HOWARD, KAYLA PH#: 864-558-0383",SKIBBE@WHITEOAKMANOR.COM,ED@MEMORYCAREOFGREENVILLE.COM,CRC-2368 / 08/31/2026,Spartanburg / Limited Liability,,,,,NHC ESTATES LLC,N,Y,45,420530.13,3870460.316
14285,VITALITY LIVING COLUMBIA,1951 CLEMSON RD,COLUMBIA,SC,29223,803-889-8444,"LEE-POTTER, KEARA PH#: ",KPOTTER@MYVITALITYLIVING.COM,KEARA.LEE@NAVIONSL.COM,CRC-2369 / 05/31/2026,Richland / Limited Liability,,,,,WCP CLEMSON ROAD OPCO LLC,Y,Y,118,505255.472,3777948.799
14335,BARCLAY AT LITTLE RIVER,2585 HWY 179,LITTLE RIVER,SC,29566,843-491-9290,"GRAHAM, DENISE J. PH#: 843-491-9290",ED.LITTLERIVER@BARCLAYSENIORLIVING.COM,,CRC-2377 / 01/31/2026,Horry / Limited Liability,,,,,2585 HWY 179 OPCO LLC,N,N,90,722994.257,3752656.855
14401,WOODLAND PLACE,850 JOHN B WHITE SR BLVD,SPARTANBURG,SC,29306-4034,864-576-8910,"DANIELS, OMAR PH#: 864-524-3404",DLITTLE3@MINDSPRING.COM,,CRC-2038 / 08/31/2026,Spartanburg / Limited Liability,850 JOHN B WHITE SR BLVD,SPARTANBURG,SC,29306-4034,MI WOODLAND PLACE LLC,Y,Y,108,412308.093,3865682.29
14532,JOSHUAS FOUNDATION,388 ELBOW CIR,RIDGEWAY,SC,29130,803-337-8701,"HAYES, TOWANA PH#: 803-337-8701",TOWANA_HAYES@ATT.NET,TOWANA_HAYSE@ATT.NET,CRC-0659 / 02/28/2026,Fairfield / Non-Profit Corporation,"388 ELBOW CIR, PO BOX 35",RIDGEWAY,SC,29130,JOSHUA'S FOUNDATION INC,N,N,20,505290.929,3795580.917
14539,SUNFOWER SPRINGS OF LAKE WYLIE,267 LATITUDE LN,LAKE WYLIE,SC,29710,803-971-4767,"MELTON, CATHERINE NICOLE PH#: 803-770-5540",ADMINISTRATION@SRIMGT.COM,,CRC-2231 / 02/28/2026,York / Limited Liability,,,,,SUNFOWER SPRINGS OF LAKE WYLIE LLC,N,N,101,492815.262,3886334.849
14552,GENTLE HANDS WITH LOVING HEARTS,704 ANDERSON ST,CALHOUN FALLS,SC,29628-1034,864-418-9277,"MURPHY, LAVERNE PH#: 803-353-2736",LAVERNE751@GMAIL.COM,LAVERNE.MURPHY@SCDMH.ORG,CRC-2375 / 09/30/2026,Abbeville / Limited Liability,,,,,GENTLE HANDS WITH LOVING HEARTS LLC,N,N,16,353199.873,3774279.249
14629,SILVER TREASURES AT GREENWOOD,116 ABBEY DR,GREENWOOD,SC,29649-8536,864-993-7086,"PRITCHETT, NATASHA PH#: 864-993-7086",ADMINSTGREENWOOD@LIFESTYLES4SENIORS.COM,,CRC-2386 / 02/28/2026,Greenwood / Limited Liability,,,,,PALMETTO CROWN SENIOR CARE LLC,N,N,23,389274.407,3784883.28
14630,SILVER TREASURES AT GREER,309 NORTHVIEW DR,GREER,SC,29651-1340,864-849-1965,"PRITCHETT, NATOSHA J. PH#: 864-848-1935",ADMINSTGREER@LIFESTYLES4SENIORS.COMIN,GREER@THEBAYBERRYINN.COM,CRC-2387 / 02/28/2026,Greenville / Limited Liability,,,,,PINE VIEW SENIOR CARE LLC,N,N,23,388193.022,3868371.17
14636,COLONIAL GARDENS ALZHEIMER'S SPECIAL CARE CENTER,3565 SUNSET BLVD,WEST COLUMBIA,SC,29169-3043,803-796-2556,"PIERCE, ROBERT M. PH#: 803-796-2556",JLITT@MONTICELLOAM.COM,,CRC-2372 / 03/31/2026,Lexington / Limited Liability,,,,,WEST COLUMBIA MC LLC,N,N,66,487732.509,3763004.143
14674,VIVA SENIOR LIVING AT GAFFNEY,101 PARK CT,GAFFNEY,SC,29341,864-206-0006,"HENSON, KIMBERLY PH#: 864-206-0006",KIMBERLY.HENSON@VIVASL.COM,,CRC-2330 / 01/31/2026,Cherokee / Limited Liability,,,,,GAFFNEY AL OPCO LLC,Y,Y,90,440074.04,3883444.127
14677,KAUHALE PETTIGRU,12 BOYCE AVE,GREENVILLE,SC,29601,864-250-1188,"MINSHALL, SHANNON PH#: 864-250-1188",SMINSHALL@KAUHALEHEALTH.COM,,CRC-2360 / 06/30/2026,Greenville / Limited Liability,,,,,KAUHALE GREENVILLE LLC,Y,Y,115,373234.286,3857291.611
14678,ARTISAN MOUNT PLEASANT,601 SOLANA WAY,MOUNT PLEASANT,SC,29464,843-800-2323,"SINGLETARY, JESSICA PH#: 843-800-2323",KWILKINSON@SRG-LLC.COM,,CRC-2381 / 12/31/2026,Charleston / Limited Liability,,,,,SRG PLEASANT MGMT LLC,N,N,112,606336.94,3633971.049
14755,ARBOR LANDING AT SURFSIDE,3105 DICK POND RD,MYRTLE BEACH,SC,29588,843-492-7387,"WILLIAMS, ANITA PH#: 843-240-8254",MMAREADY@RIDGECARE.COM,,CRC-2279 / 05/31/2026,Horry / Limited Liability,,,,,ARBOR LANDINGS AT SURFSIDE LLC,Y,Y,40,686321.075,3725723.586
14756,WILLOWS OF EASLEY,105 WILLOW PL,EASLEY,SC,29640-1385,864-855-9800,"SPEARMAN, LAURA G. PH#: 864-855-9800",LGS@THEWILLOWSOFEASLEY.COM,LGS@THEWILLOWSOFEASLEY.COM,CRC-2379 / 10/31/2026,Pickens / Limited Liability,,,,,VOP WILLOWS EASLEY LLC,Y,Y,50,353173.621,3857370.939
14757,COOPER RIVER ASSISTED LIVING,1047 ANNA KNAPP BLVD,MOUNT PLEASANT,SC,29464-3133,843-884-7977,"GREENE, KIMBERLY PH#: 843-884-7977",KIMBERLY.GREENE@COOPERRIVERAL.COM,,CRC-2391 / 04/30/2026,Charleston / Limited Liability,,,,,MT PLEASANT COMMUNITY HEALTHCARE LLC,N,N,64,606377.889,3630753.535
14771,MYERS RESIDENTIAL CARE FACILITY,365 CALDON RD,SWANSEA,SC,29160-9541,803-568-3582,"MYERS, MARY L. PH#: 803-568-3582",MYERSRCF@PBTCOMM.NET,MYERSRCF@PBTCOMM.NET,CRC-2392 / 01/31/2026,Calhoun / Sole Proprietorship,,,,,MARY MYERS,N,N,5,496449.29,3729509.17
14772,MYERS RESIDENTIAL CARE FACILITY II,365 CALDON RD,SWANSEA,SC,29160-9541,803-568-3582,"MYERS, MARY L. PH#: 803-568-3582",MYERSRCF@PBTCOMM.NET,MYERSRCF@PBTCOMM.NET,CRC-2393 / 01/31/2026,Calhoun / Sole Proprietorship,,,,,MARY MYERS,N,N,7,496449.29,3729509.17
14788,LONG'S RESIDENTIAL CARE CENTER,5760 DENNY HWY,SALUDA,SC,29138-8972,864-445-7901,"LONG, MARY J. PH#: 864-445-7901",LONGSRESCARE@YAHOO.COM,LONGSRESCARE@YAHOO.COM,CRC-0592 / 05/31/2026,Saluda / Corporation,1280 DENNY HWY,SALUDA,SC,29138-8972,LONG'S RESIDENTIAL CARE CENTER INC,N,Y,32,429549.732,3763939.983
14789,GABLES ON PELHAM ASSISTED LIVING AND MEMORY CARE,1306 PELHAM RD,GREENVILLE,SC,29615-3600,864-286-6600,"PRICE, MEGHAM PH#: 864-266-6600",MEGHAN.PRICE@WELL-MORE.COM,,CRC-2398 / 05/31/2026,Greenville / Limited Liability,,,,,GABLES ON PELHAM RETIREMENT LLC,Y,N,119,380464.197,3857799.006
14816,HILLTOP OF GREENVILLE MEMORY CARE,352 PELHAM RD,GREENVILLE,SC,29615-3110,864-558-0383,"SMITH, MARISA PH#: 864-310-5849",JOEJASMON@AHMG365.COM,,CRC-2341 / 10/31/2025,Greenville / Limited Liability,,,,,WC GREENVILLE MEMORY CARE LLC,N,Y,54,377506.817,3858421.149
14817,ADDISON OF WEST ASHLEY-SENIOR LIVING IN CHARLESTON SC,1445 BLUEWATER WAY,CHARLESTON,SC,29414,843-576-9667,"HAGER, STEPHANIE PH#: 843-576-9667",STEPHANIE.HAGER@SONIDALIVING.COM,,CRC-2374 / 10/31/2026,Charleston / Limited Liability,,,,,SONIDA CHARLESTON LLC,Y,Y,98,584327.679,3630841.025
14821,ADDISON OF BLUFFTON-SENIOR LIVING IN BLUFFTON SC,8 HAMPTON LAKE DR,BLUFFTON,SC,29910-9568,843-757-3111,"COOLEY, LARINDA PH#: 843-757-3111",LCOOLEY@SONIDALIVING.COM,LCOOLEY@CAPITALSENIORLIVING.NET,CRC-2389 / 10/31/2026,Beaufort / Limited Liability,,,,,SONIDA BLUFFTON LLC,N,N,104,506132.075,3569940.908
14822,ADDISON OF FLORENCE-SENIOR LIVING IN FLORENCE SC,1370 CELEBRATION BLVD,FLORENCE,SC,29501,854-400-6662,"SCOTT, SHERRI R. PH#: 854-400-6644",SSCOTT@SONIDALIVING.COM,,CRC-2390 / 10/30/2026,Florence / Limited Liability,,,,,SONIDA FLORENCE LLC,N,N,93,608077.405,3781445.973
14825,STRATFORD PLACE GOOSE CREEK - ASSISTED LIVING,97 BRIDGETOWN RD,GOOSE CREEK,SC,29445,843-300-1951,"DOUGLAS, DEREK PH#: 843-300-1951",DEREKDOUGLASOT@GMAIL.COM,,CRC-2399 / 05/31/2026,Berkeley / Limited Liability,,,,,STRATFORD PLACE AL LLC,N,N,34,588768.008,3652634.3
14826,STRATFORD PLACE OF GOOSE CREEK MEMORY CARE,95 BRIDGETOWN RD,GOOSE CREEK,SC,29445,843-300-1951,"DOUGLAS, DEREK PH#: 843-300-1951",DEREKDOUGLASOT@GMAIL.COM,,CRC-2400 / 05/31/2026,Berkeley / Limited Liability,,,,,STRATFORD PLACE MC LLC,N,N,34,588819.222,3652671.517
14861,LAKE WYLIE ASSISTED LIVING COMMUNITY,4877 CHARLOTTE HWY,CLOVER,SC,29710,803-805-8039,"KIMBALL, THOMAS PH#: 803-548-3825",JKIMBALL@HMPSS.COM,,CRC-2401 / 04/30/2026,York / Limited Liability,,,,,HMP SENIOR SOLUTIONS LAKE WYLIE LLC,Y,N,110,493561.89,3885767.773
14908,INVERNESS OF SPARTANBURG,2720 COUNTRY CLUB RD,SPARTANBURG,SC,29303,864-591-1116,"METCALF, TINA H. PH#: 864-591-1116",TINA.METCALF@INVERNESSOFSPARTANBURG.COM,,CRC-2397 / 11/30/2026,Spartanburg / Limited Liability,,,,,INVERNESS OF SPARTANBURG LLC,N,N,100,418261.979,3865837.684
14910,HARMONY CARE SERVICES,351 S MIDWAY HWY,JOHNSONVILLE,SC,29555,843-380-0777,"SINGLETARY, MARY JANE PH#: 843-661-6655",MARYJANE.SINGLETARY@HOTMAIL.COM,CARRIAGEFLORENCE@GMAIL.COM,CRC-2388 / 12/31/2025,Florence / ,,,,,HARMONY CARE SERVICES LLC,N,N,29,641405.763,3741933.244
14955,MAY RIVER LANDING,60 OAK FOREST RD,BLUFFTON,SC,29910-5010,843-548-2500,"WILLIAMS, TERRY SHAWN PH#: 843-884-6949",ED@MAYRIVERLANDING.COM,,CRC-2403 / 06/30/2026,Beaufort / Limited Liability,,,,,SWC BLUFFTON OPCO LLC,Y,Y,68,513498.121,3570409.034
14957,SPRINGTREE MANOR,251 SPRINGTREE DR,COLUMBIA,SC,29223-7989,803-741-2600,"ASH, LISA K. PH#: 803-741-2600",NELSON.ROBAINA@MAINSTAYSENIORLIVING.COM,,CRC-2405 / 09/30/2026,Richland / Limited Liability,,,,,SPRINGTREE MANOR LLC,N,Y,52,503573.231,3770669.543
14989,SHEPHERDS CARE CENTER,2100 N PLEASANTBURG DR,GREENVILLE,SC,29609-3156,864-322-6212,"THOMPSON, ERIC M. PH#: 864-322-6212",LAUREN@RESTORATIONSL.COM,ETHOMPSO@SHEPHERDSCARECENTER.COM,CRC-2378 / 03/31/2026,Greenville / Limited Liability,,,,,RSLRE OF GREENVILLE LLC,Y,Y,90,374548.425,3861612.536
14990,BAYSHORE ON HILTON HEAD ISLAND,421 SQUIRE POPE RD,HILTON HEAD ISLAND,SC,29926,843-342-2222,"MCKEE, RODNEY PH#: 843-342-2222",JMRAMSEY@SENTIOINVESTMENTS.COM,MCKEERODNEY@LCSNET.COM,CRC-2404 / 08/31/2026,Beaufort / Limited Liability,,,,,BS HILTON HEAD OPCO LLC,N,N,147,523922.776,3566672.761
15011,A PLACE TO CALL HOME OF BISHOPVILLE,311 N HEYWARD ST,BISHOPVILLE,SC,29010,803-669-4507, PH#: ,INFO@APLACETOCALLHOMEOFBISHOPVILLE.COM,,CRC-2280 / 09/30/2026,Lee / Limited Liability,,,,,A PLACE TO CALL HOME OF BISHOPVILLE LLC,N,N,8,569247.449,3787078.378
15030,RESIDENCES AT GREENWOOD LLC,116 ENTERPRISE CT,GREENWOOD,SC,29649-1666,803-957-0500,"HICKS, KYLE PH#: 803-957-0500",KHICKS@MSAHEALTHCARE.COM,,CRC-2413 / 09/30/2026,Greenwood / Corporation,,,,,AMERICAN SENIOR LIVING COMMUNITIES GREENWOOD INC,N,N,49,392788.011,3786629.054
15031,RESIDENCES AT SENECA LLC,15855 WELLS HWY,SENECA,SC,29678,803-957-0500,"HICKS, KYLE PH#: 803-957-0500",KHICKS@MSAHEALTHCARE.COM,,CRC-2414 / 09/30/2026,Oconee / Corporation,,,,,AMERICAN SENIOR LIVING COMMUNITIES SENECA INC,N,N,59,317648.534,3839688.858
15043,BROOKDALE COLUMBIA,251 SPRINGTREE DR,COLUMBIA,SC,29223-7989,803-741-2600,"SCHICK, TIM PH#: 803-732-0300",TSCHICK@BROOKDALE.COM,TSCHICK@BROOKDALE.COM,CRC-1310 / 12/31/2025,Richland / Corporation,251 SPRINGTREE DR,COLUMBIA,SC,29223-7989,BROOKDALE SENIOR LIVING COMMUNITIES INC,N,Y,52,503573.231,3770669.543
15085,HARBISON SHORES,990 COLUMBIA AVE,IRMO,SC,29063-2854,803-768-4743,"FERRERE, GLENN PH#: 803-768-4743",GLENN.FERRERE@HARBISONSHORES.COM,,CRC-2412 / 10/31/2026,Lexington / Limited Liability,,,,,ALF PROJECT HB LLC,Y,Y,79,484028.688,3771839.347
15098,REVELA AT DANIEL ISLAND,320 SEVEN FARMS DR,CHARLESTON,SC,29492,843-417-9224,"REGER, CONSTANCE PH#: 843-984-9050",CREGER@REVELADANIELIS.COM,CREGER@REVELADANIELIS.COM,CRC-2407 / 10/31/2026,Charleston / Limited Liability,,,,,REVELA AT DANIEL ISLAND LLC,N,N,76,601603.75,3636099.618
