OBJECTID,Name of Facility,Location Street,Location City,Location State,ZIP Code,Facility #,Admin Name & Phone,Facility Email,Fac. Cont. Email,License / Expiration,County / Ownership Type,Mailing Address,Mailing City,Mailing State,Mailing ZIP,Licensee,Alzheimer Care,Alzheimer Unit,NH Beds,Institutional NH Beds,Number of Licensed Beds,x,y
10776,LEXINGTON MEDICAL CENTER EXTENDED CARE,815 OLD CHEROKEE RD,LEXINGTON,SC,29072-8115,803-359-5181,"GILL, KATHRYN PH#: 803-359-5181",KDGILL@LEXHEALTH.ORG,KDGILL@LEXHEALTH.ORG,NCF-0730 / 12/31/2026,Lexington / County,815 OLD CHEROKEE RD,LEXINGTON,SC,29072-8115,LEXMED INC,Y,Y,388,0,388,476910.43,3763079.741
11032,LIFE CARE CENTER OF HILTON HEAD,120 LAMOTTE DR,HILTON HEAD,SC,29926-2792,843-681-6006,"BOYLES, SHERI P. PH#: 803-865-1999",SHERI_BOYLES@LCCA.COM,SHERI_BOYLES@LCCA.COM,NCF-0725 / 05/31/2026,Beaufort / Corporation,120 LAMOTTE DR,HILTON HEAD ISLAND,SC,29926-2792,LIFE CARE CENTERS OF AMERICA INC,N,N,88,0,88,526887.472,3565477.006
11033,PRESBYTERIAN COMMUNITIES OF SOUTH CAROLINA-FLORENCE,2350 W LUCAS ST,FLORENCE,SC,29501-1201,843-665-2222,"SCOTT, MEREDITH PH#: 843-665-2222",MEREDITH.HUGHES@PRESCOMM.ORG,MEREDITH.SCOTT@PRESCOMM.ORG,NCF-0420 / 09/30/2026,Florence / Non-Profit Corporation,2350 W LUCAS ST,FLORENCE,SC,29501-1201,PRESBYTERIAN COMMUNITIES OF SOUTH CAROLINA,N,N,44,0,44,609514.117,3788963.842
11034,PRESBYTERIAN COMMUNITIES OF SOUTH CAROLINA-CLINTON,801 MUSGROVE ST,CLINTON,SC,29325-1796,864-833-5190,"STAMPER, AMANDA L. PH#: 803-497-5799",TAMIEKA.HAWKINS@PRESCOMM.ORG,MANDY.STAMPER@PRESCOMM.ORG,NCF-0366 / 04/30/2026,Laurens / Non-Profit Corporation,801 MUSGROVE ST,CLINTON,SC,29325-1796,PRESBYTERIAN COMMUNITIES OF SOUTH CAROLINA,N,N,18,46,64,419663.418,3816289.152
11035,C M TUCKER JR NURSING CARE CENTER RODDEY PAVILION,2200 HARDEN ST,COLUMBIA,SC,29203-7199,803-737-5303,"LLOYD, ASHLEY PH#: 803-775-5394",ASHLEY.LLOYD@SCDMH.ORG,ASLLOYD@SAVASC.COM,NCF-0726 / 12/31/2025,Richland / State,2200 HARDEN ST,COLUMBIA,SC,29203-7199,SC DEPARTMENT OF MENTAL HEALTH,N,N,308,0,308,497711.906,3764610.636
11036,ROLLING GREEN VILLAGE HEALTH CARE FACILITY,1 HOKE SMITH BLVD,GREENVILLE,SC,29615-5308,864-987-9800,"LORD, ANNA GRACE PH#: 864-987-9800",ANNAGRACED@ROLLINGGREENVILLAGE.COM,,NCF-0456 / 10/31/2026,Greenville / Non-Profit Corporation,1 HOKE SMITH BLVD,GREENVILLE,SC,29615-5308,ROLLING GREEN VILLAGE,N,N,74,,74,384470.269,3856350.576
11037,LAKE MOULTRIE HEALTH AND REHAB,1038 MCGILL LN,SAINT STEPHEN,SC,29479-3196,843-567-2307,"DRIGGERS, JOANN C. PH#: 843-567-2307",JDRIGGERS@SOUTHERNSENIORLIVING.ORG,JDRIGGERS@CLARENDONLTC.ORG,NCF-0738 / 12/31/2026,Berkeley / District,PO BOX 57,MANNING,SC,29102-0057,CLARENDON HOSPITAL DISTRICT,N,N,88,0,88,599258.586,3695838.006
11038,BROAD CREEK CARE CENTER SKILLED NURSING,801 LEMON GRASS CT,HILTON HEAD ISLAND,SC,29928-3022,843-341-7300,"WHITING, JENNIFER PH#: 803-254-5960",JWHITING@VILIVING.COM,JENNIFER.WHITING@PRUITTHEALTH.COM,NCF-0753 / 07/31/2026,Beaufort / Corporation,71 S WACKER DR STE 900,CHICAGO,IL,60606-4610,CC-HILTON HEAD INC,Y,N,25,0,25,521180.978,3559800.324
11039,NHC HEALTHCARE MAULDIN,850 E BUTLER RD,GREENVILLE,SC,29607-5842,864-675-6421,"SELLARS, GIDEON A. PH#: 864-675-6421",GIDEON.SELLARS@NHCCARE.COM,GIDEON.SELLARS@NHCCARE.COM,NCF-0796 / 06/30/2026,Greenville / Ltd. Liability,850 E BUTLER RD,GREENVILLE,SC,29607-5842,NHC HEALTHCARE/MAULDIN LLC,Y,Y,180,0,180,382570.459,3851909.434
11040,NHC HEALTHCARE PARKLANE,7601 PARKLANE RD,COLUMBIA,SC,29223-6122,803-741-9090,"TODD, CHANDLER PH#: 803-741-9090",CHANDLER.TODD@NHCCARE.COM,,NCF-0797 / 06/30/2026,Richland / Ltd. Liability,7601 PARKLANE RD,COLUMBIA,SC,29223-6122,NHC HEALTHCARE/PARKLANE LLC,Y,Y,180,0,180,503816.689,3771223.666
11041,NHC HEALTHCARE LEXINGTON,2993 SUNSET BLVD,WEST COLUMBIA,SC,29169-3421,803-939-0026,"MANLEY, MICHAEL W. PH#: 803-939-0026",MICHAEL.MANLEY@NHCCARE.COM,MICHAEL.MANLEY@NHCCARE.COM,NCF-0798 / 06/30/2026,Lexington / Ltd. Liability,2993 SUNSET BLVD,WEST COLUMBIA,SC,29169-3421,NHC HEALTHCARE/LEXINGTON LLC,N,N,170,0,170,488692.479,3762752.902
11042,FRANKE HEALTH CARE CENTER,1885 RIFLE RANGE RD,MOUNT PLEASANT,SC,29464-9440,843-856-4705,"STOLL, SANDY A. PH#: 843-856-4705",SSTOLL@FRANKEATSEASIDE.ORG,SSTOLL@FRANKEATSEASIDE.ORG,NCF-0800 / 07/31/2026,Charleston / Non-Profit Corporation,1885 RIFLE RANGE RD,MOUNT PLEASANT,SC,29464-9440,LUTHERAN HOMES OF SOUTH CAROLINA INC,N,N,44,0,44,610422.872,3632156.306
11043,NHC HEALTHCARE ANDERSON,1501 E GREENVILLE ST,ANDERSON,SC,29621-2004,864-226-8356,"BIRMINGHAM, WILLIAM TYLER PH#: ",TYLER.BIRMINGHAM@NHCCARE.COM,TYLER.BIRMINGHAM@NHCCARE.COM,NCF-0801 / 06/30/2026,Anderson / Ltd. Liability,1501 E GREENVILLE ST,ANDERSON,SC,29621-2004,NHC HEALTHCARE/ANDERSON LLC,N,N,290,0,290,349754.957,3821966.783
11044,NHC HEALTHCARE GREENWOOD,437 CAMBRIDGE AVE E,GREENWOOD,SC,29646-2244,864-223-1950,"SHEARER, JACOB PH#: ",JACOB.SHEARER@NHCCARE.COM,JACOB.SHEARER@NHCCARE.COM,NCF-0802 / 06/30/2026,Greenwood / Ltd. Liability,437 E CAMBRIDGE AVE,GREENWOOD,SC,29646-2244,NHC HEALTHCARE/GREENWOOD LLC,N,N,152,0,152,393702.767,3784556.037
11045,NHC HEALTHCARE GREENVILLE,1305 BOILING SPRINGS RD,GREER,SC,29650-4139,864-458-7566,"MOORHOUSE, BRYAN M. PH#: 864-458-7566",BRYAN.MOORHOUSE@NHCCARE.COM,BRYAN.MOORHOUSE@NHCCARE.COM,NCF-0807 / 06/30/2026,Greenville / Ltd. Liability,1305 BOILING SPRINGS RD,GREER,SC,29650-4139,NHC HEALTHCARE/GREENVILLE LLC,Y,N,176,0,176,383083.203,3858759.247
11046,PRESBYTERIAN COMMUNITIES OF SOUTH CAROLINA-FOOTHILLS,205 BUD NALLEY DR,EASLEY,SC,29642,864-859-3367,"FRYAR, LESLIE PH#: 864-859-3367",LESLIE.ANZALONE@PRESCOMM.ORG,LESLIE.FRYAR@PRESCOMM.ORG,NCF-0809 / 10/31/2026,Pickens / Non-Profit Corporation,205 BUD NALLEY DR,EASLEY,SC,29642,PRESBYTERIAN COMMUNITIES OF SOUTH CAROLINA,N,Y,26,18,44,359009.045,3851687.15
11047,LORIS REHAB AND NURSING CENTER,3620 STEVENS ST,LORIS,SC,29569-2953,843-716-7106,"OATES, BROCK PH#: 843-716-7106",CPOWELL@WILSONSENIORCARE.COM,BOATES@WILSONSENIORCARE.COM,NCF-0207 / 08/31/2026,Horry / Limited Liability,116 CASHUA ST,DARLINGTON,SC,29532-3202,LORIS REHAB AND NURSING CENTER LLC,N,N,88,0,88,694175.014,3770370.631
11048,ROSECREST REHABILITATION AND HEALTHCARE,200 FORTRESS DR,INMAN,SC,29349-9160,864-599-8600,"YETTER, MELISSA PH#: 864-599-8600",RMCCURRY@ROSECREST.ORG,MYETTER@LHOMES.ORG,NCF-0817 / 04/30/2026,Spartanburg / Non-Profit Corporation,200 FORTRESS DR,INMAN,SC,29349-9160,LUTHERAN HOMES OF SOUTH CAROLINA INC,N,N,75,0,75,406283.395,3877777.304
11049,NHC HEALTHCARE NORTH AUGUSTA,350 AUSTIN GRAYBILL RD,NORTH AUGUSTA,SC,29841,803-278-4272,"TROXEL-HARBIN, HOLLY PH#: 803-278-4272",HOLLY.HARBIN@NHCCARE.COM,HOLLY.HARBIN@NHCCARE.COM,NCF-0799 / 06/30/2026,Aiken / Ltd. Liability,350 AUSTIN GRAYBILL RD,NORTH AUGUSTA,SC,29841,NHC HEALTHCARE/NORTH AUGUSTA LLC,N,N,192,0,192,411437.235,3712790.73
11050,ELLEN SAGAR NURSING CENTER,1817 JONESVILLE HWY,UNION,SC,29379-9793,864-301-3500,"SCHAPER, ANNETTE PH#: 864-301-3504",ASCHAPER@SRHS.COM,ASCHAPER@SRHS.COM,NCF-0217 / 07/31/2026,Union / District,1817 JONESVILLE HWY,UNION,SC,29379-9793,SPARTANBURG REGIONAL HEALTH SERVICES DISTRICT INC,N,N,113,0,113,441362.366,3847170.286
11051,PRUITTHEALTH - PICKENS,163 LOVE AND CARE RD,SIX MILE,SC,29682-9569,864-868-2307,"NAUSS, NATHANIEL PH#: 864-513-4105",LEGALSERVICES@PRUITTHEALTH.COM,,NCF-0580 / 04/30/2026,Pickens / Limited Liability,163 LOVE AND CARE RD,SIX MILE,SC,29682-9569,PRUITTHEALTH - PICKENS LLC,N,N,44,0,44,331813.898,3856439.068
11052,J F HAWKINS NURSING HOME,1330 KINARD ST,NEWBERRY,SC,29108-3096,803-276-2601,"RANSDELL, TY L. PH#: 803-276-2601",TRANSDELL@NEWBERRYCCRC.COM,TRANSDELL@NEWBERRYCCRC.COM,NCF-0234 / 02/28/2026,Newberry / Limited Liability,1330 KINARD ST,NEWBERRY,SC,29108-3096,NEWBERRY OPERATOR LLC,Y,Y,118,0,118,444270.219,3793935.492
11053,JOHN EDWARD HARTER NURSING CENTER,185 REVOLUTIONARY TRL,FAIRFAX,SC,29827-7105,803-632-3334,"GOODING, GENE L. PH#: 803-632-5742",LARIG@ACHOSPITAL.ORG,LARIG@ACHOSPITAL.ORG,NCF-0259 / 04/30/2026,Allendale / County,PO BOX 218,FAIRFAX,SC,29827-0218,ALLENDALE COUNTY HOSPITAL BOARD OF TRUSTEES,N,N,44,0,44,476749.012,3647538.968
11054,LANCASTER HEALTH AND REHABILITATION,2044 PAGELAND HWY,LANCASTER,SC,29720-7608,803-285-7907, PH#: ,KAT.LANTZ@FUNDLTC.COM,,NCF-0551 / 02/28/2026,Lancaster / Corporation,2044 PAGELAND HWY,LANCASTER,SC,29720-7608,LANCASTER HEALTH CARE LLC,N,N,142,0,142,525631.838,3842100.22
11055,NHC HEALTHCARE LAURENS,379 PINEHAVEN ST EXT,LAURENS,SC,29360-2672,864-984-6584,"SHEARER, RICKIE L. PH#: 864-984-6584",RICKIE.SHEARER@NHCCARE.COM,RICKIE.SHEARER@NHCCARE.COM,NCF-0326 / 06/30/2026,Laurens / Ltd. Liability,379 PINEHAVEN ST EXT,LAURENS,SC,29360-2672,NHC HEALTHCARE/LAURENS LLC,Y,N,176,0,176,405176.751,3816551.68
11056,MARTHA FRANKS BAPTIST RETIREMENT COMMUNITY,1 MARTHA FRANKS DR,LAURENS,SC,29360-1799,864-984-4541,"KNIGHT, KATIE PH#: 864-984-4541",AP@SCBMA.COM,,NCF-0435 / 03/31/2026,Laurens / Non-Profit Corporation,1 MARTHA FRANKS DR,LAURENS,SC,29360-1799,SOUTH CAROLINA BAPTIST MINISTRIES FOR THE AGING INC,Y,Y,81,7,88,405846.533,3818078.143
11057,MOUNTAINVIEW NURSING HOME,340 CEDAR SPRINGS RD,SPARTANBURG,SC,29302-4697,864-582-4175,"DILLARD, WILSON K. PH#: 864-582-4175",WDILLARD@MOUNTAINVIEWNH.COM,WDILLARD@MOUNTAINVIEWNH.COM,NCF-0149 / 06/30/2026,Spartanburg / Corporation,340 CEDAR SPRINGS RD,SPARTANBURG,SC,29302-4697,COMMUNITY SERVICES FOR THE AGING INC,N,N,132,0,132,418865.54,3863175.043
11058,NHC HEALTHCARE SUMTER,1018 N GUIGNARD DR,SUMTER,SC,29150-2423,803-773-5567,"CROTTS, JEANIE S. PH#: 803-773-5567",JEANIE.CROTTS@NHCCARE.COM,JEANIE.CROTTS@NHCCARE.COM,NCF-0471 / 01/31/2026,Sumter / Corporation,1018 N GUIGNARD DR,SUMTER,SC,29150-2423,NATIONAL HEALTH CORPORATION,N,N,138,0,138,557400.839,3756199.54
11060,FRASER HEALTH CARE,300 WOODHAVEN DR,HILTON HEAD ISLAND,SC,29928-4682,843-842-3747,"KLEIN, STEPHANIE PH#: 843-842-3747",SKLEIN@THESEABROOK.COM,,NCF-0414 / 09/30/2026,Beaufort / Non-Profit Corporation,300 WOODHAVEN DR,HILTON HEAD ISLAND,SC,29928-4682,SEABROOK OF HILTON HEAD INC,N,N,19,14,33,522228.355,3557073.127
11061,WESLEY COMMONS HEALTH AND REHABILITATION CENTER,1075 BYPASS 25 SE,GREENWOOD,SC,29646,864-227-7250,"HOLMES MOODY, KIMBERLY K. PH#: 864-227-7250",KMOODY@WESLEYCOMMONS.ORG,KMOODY@WESLEYCOMMONS.ORG,NCF-0304 / 03/31/2026,Greenwood / Non-Profit Corporation,1110 MARSHALL RD,GREENWOOD,SC,29646-4299,WESLEY COMMONS,N,N,80,0,80,395708.367,3782459.655
11062,CLEMSON AREA RETIREMENT CENTER-HEALTH CARE CENTER,500 DOWNS LOOP,CLEMSON,SC,29630,864-654-1155,"HILL, JAMES A. PH#: 864-722-6149",WANDAPALMER@CLEMSONDOWNS.COM,JHILL@CLEMSONDOWNS.COM,NCF-0391 / 10/31/2026,Pickens / Corporation,500 DOWNS LOOP,CLEMSON,SC,29631-2099,CARC INC,Y,N,68,,68,335466.546,3838782.394
11063,NHC HEALTHCARE CLINTON,304 JACOBS HWY,CLINTON,SC,29325-7279,864-833-2550,"HOLDER, CHARLES E. PH#: 864-833-2550",CHUCK.HOLDER@NHCCARE.COM,CHUCK.HOLDER@NHCCARE.COM,NCF-0804 / 06/30/2026,Laurens / Ltd. Liability,304 JACOBS HWY,CLINTON,SC,29325,NHC HEALTHCARE/CLINTON LLC,N,N,131,0,131,419560.572,3812486.675
11067,PRUITTHEALTH-ORANGEBURG,755 WHITMAN ST SE,ORANGEBURG,SC,29115-6163,803-534-7036,"RUTLAND, DEBORAH PH#: 803-534-7036",DRUTLAND@PRUITTHEALTH.COM,DRUTLAND@PRUITTHEALTH.COM,NCF-0617 / 09/30/2026,Orangeburg / Limited Liability,755 WHITMAN ST SE,ORANGEBURG,SC,29115-6163,PRUITTHEALTH-ORANGEBURG LLC,N,N,88,0,88,513660.835,3705825.05
11068,WESTMINSTER HEALTH AND REHABILITATION CENTER,831 MCDOW DR,ROCK HILL,SC,29732-2415,803-326-3100,"BATTY, MELISSA PH#: 803-328-5121",MBATTY@WESTMINSTERTOWERS.ORG,,NCF-0819 / 08/31/2026,York / Non-Profit Corporation,831 MCDOW DR,ROCK HILL,SC,29732-2415,WESTMINSTER PRESBYTERIAN CENTER INC,N,N,44,0,44,497441.43,3867826.59
11069,CALHOUN CONVALESCENT CENTER,601 DANTZLER ST,SAINT MATTHEWS,SC,29135-1522,803-655-7101,"PAULINE, ANGELA K. PH#: 803-755-7621",ANGELA.PAULINE@FUNDLTC.COM,,NCF-0505 / 02/28/2026,Calhoun / Corporation,601 DANTZLER ST,SAINT MATTHEWS,SC,29135-1522,SAINT MATTHEWS HEALTH CARE LLC,N,N,120,0,120,521547.399,3724286.01
11070,PRESBYTERIAN COMMUNITIES OF SOUTH CAROLINA-COLUMBIA,700 DAVEGA DR,LEXINGTON,SC,29073-9698,803-796-8700,"ROBBINS, CINDY PH#: 843-879-0325",MEREDITH.HUGHES@PRESCOMM.ORG,CINDY.ROBBINS@PRESCOMM.ORG,NCF-0545 / 12/31/2025,Lexington / Non-Profit Corporation,700 DAVEGA DR,LEXINGTON,SC,29073-9698,PRESBYTERIAN COMMUNITIES OF SOUTH CAROLINA,N,N,44,0,44,488058.619,3764659.791
11071,LAKE MARION HEALTH AND REHAB,1527 URBANA RD,SUMMERTON,SC,29148-8929,803-485-2317,"MILES, ANETTE C. PH#: 803-485-2317",MSTANLEY@SOUTHERNSENIORLIVING.COM,AMILES@CLARENDONLTC.ORG,NCF-0736 / 01/31/2026,Clarendon / District,PO BOX 57,MANNING,SC,29102-0057,CLARENDON HOSPITAL DISTRICT,N,N,88,0,88,558847.058,3719910.777
11072,REHAB CENTER OF CHERAW,1150 STATE RD,CHERAW,SC,29520-2048,843-537-2060,"FINCANNON, CARLES PH#: 864-445-4686",C.FINCANNON@FUNDLTC.COM,,NCF-0552 / 02/28/2026,Chesterfield / Limited Liability,1150 STATE RD,CHERAW,SC,29520-2048,REHAB CENTER OF CHERAW LLC,N,N,104,0,104,598828.256,3840703.508
11074,NHC HEALTHCARE GARDEN CITY,9405 HWY 17 BYP,MURRELLS INLET,SC,29576-9301,843-650-2213,"SELLARS, ALEX LEVI PH#: 843-650-2213",ALEX.SELLARS@NHCCARE.COM,ALEX.SELLARS@NHCCARE.COM,NCF-0825 / 10/31/2026,Horry / Ltd. Liability,PO BOX 309,MURRELLS INLET,SC,29576-0309,NHC HEALTHCARE/GARDEN CITY LLC,N,N,148,0,148,683854.24,3719606.685
11075,BISHOP GADSDEN-GADSDEN GLEN CENTER FOR HEALTH AND REHAB,8000 NOBLE OAK WAY,CHARLESTON,SC,29412-3500,843-406-6252,"COOK, JONNA PH#: 843-406-6252",JONNA.COOK@BISHOPGADSDEN.ORG,JONNA.COOK@BISHOPGADSDEN.ORG,NCF-0577 / 04/30/2026,Charleston / Non-Profit Corporation,1 BISHOP GADSDEN WAY,CHARLESTON,SC,29412-3506,BISHOP GADSDEN EPISCOPAL RETIREMENT COMMUNITY,N,N,91,9,100,595620.751,3622187.459
11076,METHODIST MANOR HEALTHCARE CENTER,2100 TWIN CHURCH RD,FLORENCE,SC,29501-8200,843-664-0700,"REICH, TERESSA L. PH#: 843-664-0700",TREICH@THEMANORSENIORLIVING.COM,TREICH@THEMANORSENIORLIVING.COM,NCF-0579 / 09/30/2026,Florence / Non-Profit Corporation,2100 TWIN CHURCH RD,FLORENCE,SC,29501-8200,UNITED METHODIST MANOR OF THE PEE DEE,N,N,0,32,32,605098.991,3779544.633
11077,LIFE CARE CENTER OF COLUMBIA,2514 FARAWAY DR,COLUMBIA,SC,29223-3969,803-865-1999,"FOWLER, WANDA PH#: 803-439-7760",CONTACT_COLUMBIASC@LCCA.COM,,NCF-0634 / 06/30/2026,Richland / Corporation,2514 FARAWAY DR,COLUMBIA,SC,29223-3969,RCM-COLUMBIA INC,N,N,179,0,179,508101.506,3769611.513
11078,PRUITTHEALTH-RIDGEWAY,213 TANGLEWOOD CT,RIDGEWAY,SC,29130-7100,803-337-3211,"PHILLIPS, KAREN PH#: 803-337-3211",LEGALSERVICES@PRUITTHEALTH.COM,KPHILLIPS@PRUITTHEALTH.COM,NCF-0710 / 10/31/2026,Fairfield / Limited Liability,213 TANGLEWOOD CT,RIDGEWAY,SC,29130-7100,PRUITTHEALTH-RIDGEWAY LLC,Y,Y,150,0,150,503199.128,3795671.955
11079,RICE ESTATE REHABILITATION AND HEALTHCARE,100 FINLEY RD,COLUMBIA,SC,29203-9264,803-691-5720,"AMODIO, DANIEL JOHN PH#: 803-691-5723",DAMODIO@RICEESTATE.ORG,DAMODIO@RICEESTATE.ORG,NCF-0831 / 05/31/2026,Richland / Non-Profit Corporation,100 FINLEY RD,COLUMBIA,SC,29203-9264,LUTHERAN HOMES OF SOUTH CAROLINA INC,N,N,80,0,80,503245.949,3774024.079
11080,PRESBYTERIAN COMMUNITIES OF SOUTH CAROLINA-SUMMERVILLE,201 W 9TH NORTH ST,SUMMERVILLE,SC,29483-6721,843-873-2553,"SIDES, VICKI ANN PH#: 803-655-7101",ELIZABETH.KING@PRESCOMM.ORG,V.SIDES@FUNDLTC.COM,NCF-0202 / 04/30/2026,Dorchester / Non-Profit Corporation,201 W 9TH NORTH ST OFC 140,SUMMERVILLE,SC,29483-6701,PRESBYTERIAN COMMUNITIES OF SOUTH CAROLINA,N,N,88,,88,577537.351,3655293.479
11081,PRUITTHEALTH - DILLON,413 LAKESIDE CT,DILLON,SC,29536-1926,843-774-2741,"CAMPBELL, CELESTE PH#: 843-774-2741",CCAMPBELL@PRUITTHEALTH.COM,CCAMPBELL@PRUITTHEALTH.COM,NCF-0835 / 11/30/2026,Dillon / Ltd. Liability,413 LAKESIDE CT,DILLON,SC,29536-1926,PRUITTHEALTH - DILLON LLC,N,N,84,0,84,651281.255,3811232.058
11082,MAGNOLIA MANOR-INMAN,63 BLACKSTOCK RD,INMAN,SC,29349-1849,864-472-9055,"FLATHMANN, RUSTY PH#: 864-472-9055",ROBIN.GOODMAN@FUNDLTC.COM,RUSTY.FLATHMANN@FUNDLTC.COM,NCF-0863 / 08/31/2026,Spartanburg / Ltd. Liability,63 BLACKSTOCK RD,INMAN,SC,29349-1849,THI OF SOUTH CAROLINA AT MAGNOLIA MANOR-INMAN LLC,N,N,176,0,176,400606.888,3877741.351
11083,MAGNOLIA MANOR-GREENVILLE,411 ANSEL ST,GREENVILLE,SC,29601-3499,864-232-5368,"BRYANT, TONYA PH#: 864-992-3883",TONYA.BRYANT0536@FUNDLTC.COM,TONYA.BRYANT0536@FUNDLTC.COM,NCF-0860 / 08/31/2026,Greenville / Ltd. Liability,411 ANSEL ST,GREENVILLE,SC,29601-3499,THI OF SOUTH CAROLINA AT GREENVILLE LLC,N,N,99,0,99,370869.996,3856098.134
11084,MAGNOLIA MANOR-ROCK HILL,127 MURRAH DR,ROCK HILL,SC,29732-2390,803-328-6518,"MCLAURIN, NANKINA PH#: 803-328-6518",F.OEHLER@FUNDLTC.COM,,NCF-0859 / 08/31/2026,York / Ltd. Liability,127 MURRAH DR,ROCK HILL,SC,29732-2390,THI OF SOUTH CAROLINA AT ROCK HILL LLC,N,N,106,0,106,496523.158,3866982.066
11085,PHYSICAL REHABILITATION AND WELLNESS CENTER OF SPARTANBURG,8020 WHITE AVE,SPARTANBURG,SC,29303-2099,864-381-6401,"CLEMENTS, ANDY PH#: 803-432-9742",A.CLEMENTS@FUNDLTC.COM,,NCF-0861 / 08/31/2026,Spartanburg / Ltd. Liability,8020 WHITE AVE,SPARTANBURG,SC,29303-2099,THI OF SOUTH CAROLINA AT MAGNOLIA PLACE AT SPARTANBURG LLC,N,N,120,0,120,412112.101,3871268.972
11086,LAKE EMORY POST ACUTE CARE,59 BLACKSTOCK RD,INMAN,SC,29349-1827,864-472-2028,"VICKERY, PENNY H. PH#: 803-209-5537",PENNY.VICKERY0532@FUNDLTC.COM,,NCF-0862 / 08/31/2026,Spartanburg / Ltd. Liability,59 BLACKSTOCK RD,INMAN,SC,29349-1827,THI OF SOUTH CAROLINA AT CAMP CARE LLC,N,N,88,0,88,400604.658,3877861.899
11087,MAGNOLIA MANOR-SPARTANBURG,375 SERPENTINE DR,SPARTANBURG,SC,29303-3026,864-585-0218,"SHERBERT, ANGELA PH#: 864-472-9055",ANGIE.SHERBERT0541@FUNDLTC.COM,ANGELA.SHERBERT0538@FUNDLTC.COM,NCF-0867 / 08/31/2026,Spartanburg / Ltd. Liability,375 SERPENTINE DR,SPARTANBURG,SC,29303-3026,THI OF SOUTH CAROLINA AT SPARTANBURG LLC,N,N,95,0,95,414396.913,3869590.912
11088,MIDLANDS HEALTH & REHABILITATION CENTER,1007 N KINGS ST,COLUMBIA,SC,29223-1916,803-699-4111,"LANTZ, KAITE PH#: ",CHRISTINE.WILLIAMS0535@FUNDLTC.COM,,NCF-0868 / 08/31/2026,Richland / Ltd. Liability,1007 N KINGS ST,COLUMBIA,SC,29223-1916,THI OF SOUTH CAROLINA AT COLUMBIA LLC,N,N,88,0,88,506123.006,3771206.317
11089,SOUTHPOINTE HEALTHCARE AND REHABILITATION,35 SOUTHPOINTE DR,GREENVILLE,SC,29607-5956,864-288-1415,"MCCLURE, CAROL PH#: 864-288-1415",CAROL.MCCLURE@FUNDLTC.COM,,NCF-0869 / 08/31/2026,Greenville / Ltd. Liability,35 SOUTHPOINTE DR,GREENVILLE,SC,29607-5956,THI OF SOUTH CAROLINA AT MAGNOLIA PLACE AT GREENVILLE LLC,N,N,120,0,120,384349.369,3853257.458
11090,LAKES AT LITCHFIELD SKILLED NURSING CENTER,80 TIMBERVIEW CT,PAWLEYS ISLAND,SC,29585-5798,843-235-9393,"CANTLEY-CLARK, TAMMY PH#: 843-235-9393",LICENSING@LAKES-LITCHFIELD.COM,,NCF-0843 / 12/31/2026,Georgetown / Ltd. Liability,120 LAKES AT LITCHFIELD DR,GREENVILLE,SC,29607,LITCHFIELD RETIREMENT LLC,N,N,17,7,24,675996.864,3705657.285
11091,MAGNOLIA MANOR-GREENWOOD,1415 PKWY,GREENWOOD,SC,29646-4044,864-227-9500,"GOFORTH, EDITH C. PH#: 864-227-9500",EDITH.GOFORTH@FUNDLTC.COM,EDITH.GOFORTH@FUNDLTC.COM,NCF-0866 / 08/31/2026,Greenwood / Ltd. Liability,1415 PKWY,GREENWOOD,SC,29646-4044,THI OF SOUTH CAROLINA AT GREENWOOD LLC,N,N,88,0,88,393242.81,3781910.41
11092,RIVERSIDE HEALTH AND REHAB,2375 BAKER HOSPITAL BLVD,NORTH CHARLESTON,SC,29405-8291,843-744-2750,"OEHLER, JOHN FRITZ PH#: 843-681-6006",DES.DAVIS@FUNDLTC.COM,FRITZ_OEHLER@LCCA.COM,NCF-0870 / 08/31/2026,Charleston / Ltd. Liability,2375 BAKER HOSPITAL BLVD,CHARLESTON,SC,29405-8291,THI OF SOUTH CAROLINA AT CHARLESTON LLC,N,N,160,0,160,596377.936,3633941.641
11093,NHC HEALTHCARE CHARLESTON,2230 ASHLEY CROSSING DR,CHARLESTON,SC,29414-5700,843-766-5228,"BARTLETT, GREGORY T. PH#: 843-766-5228",TYLER.BARTLETT@NHCCARE.COM,TYLER.BARTLETT@NHCCARE.COM,NCF-0871 / 09/30/2026,Charleston / Limited Liability,2230 ASHLEY CROSSING DR,CHARLESTON,SC,29414-5700,NHC HEALTHCARE-CHARLESTON LLC,Y,N,132,0,132,590165.638,3631185.296
11096,VALLEY FALLS TERRACE,400 LOCUST GROVE RD,SPARTANBURG,SC,29303-4898,864-503-0377,"PAUL, KEITH ALDON PH#: ",LACEY.SMITH@FUNDLT.COM,KEITH.PAUL@FUNDLTC.COM,NCF-0495 / 02/28/2026,Spartanburg / Corporation,400 LOCUST GROVE,SPARTANBURG,SC,29303-4831,SPARTANBURG HEALTH CARE LLC,N,N,88,0,88,410081.709,3873585.548
11097,PRUITTHEALTH-NORTH AUGUSTA,1200 TALISMAN DR,NORTH AUGUSTA,SC,29841-4098,803-278-2170,"ENGEL, CHRISTINA L. PH#: 843-563-4602",LEGALSERVICES@PRUITTHEALTH.COM,C.ENGEL@FUNDLTC.COM,NCF-0721 / 10/31/2026,Aiken / Limited Liability,1200 TALISMAN DR,NORTH AUGUSTA,SC,29841-4098,PRUITTHEALTH-NORTH AUGUSTA LLC,N,N,132,0,132,411493.456,3708070.638
11099,MORRELL NURSING CENTER,900 N MARQUIS HWY,HARTSVILLE,SC,29550-3526,843-383-5164,"HAYES, CHRYSTAL PH#: 843-320-7500",JTHOMPSON@WILSONSENIORCARE.COM,,NCF-0881 / 08/31/2026,Darlington / Limited Liability,116 CASHUA ST,DARLINGTON,SC,29532-3202,MORRELL NURSING CENTER LLC,N,N,154,0,154,589586.03,3806791.4
11100,BETHEA BAPTIST HEALTH CARE CENTER,157 HOME AVE,DARLINGTON,SC,29532-7625,843-393-2867,"SPURLING, BENJAMIN S. PH#: 843-393-2867",BSPURLING@SCBMA.COM,BSPURLING@SCBMA.COM,NCF-0189 / 06/30/2026,Darlington / Non-Profit Corporation,157 HOME AVE,DARLINGTON,SC,29532-7625,SOUTH CAROLINA BAPTIST MINISTRIES FOR THE AGING INC,N,N,36,52,88,606835.297,3791294.558
11102,LIFE CARE CENTER OF CHARLESTON,2600 ELMS PLANTATION BLVD,NORTH CHARLESTON,SC,29406-9180,843-764-3500,"LEWIS, COLLIN MICHAEL PH#: 843-764-3500",COLLIN_LEWIS@LCCA.COM,,NCF-0878 / 11/30/2026,Charleston / Ltd. Liability,2600 ELMS PLANTATION BLVD,NORTH CHARLESTON,SC,29406-9180,CHARLESTON MEDICAL INVESTORS LLC,N,N,148,0,148,587720.026,3649554.348
11108,OAKHAVEN NURSING CENTER,123 OAK ST,DARLINGTON,SC,29532-2628,843-398-7041,"ROBINSON, SAMANTHA J. PH#: 843-398-7041",SBOATWRIGHT@WILSONSENIORCARE.COM,SROBINSON@WILSONSENIORCARE.COM,NCF-0890 / 08/31/2026,Darlington / Limited Liability,116 CASHUA ST,DARLINGTON,SC,29532-3202,OAKHAVEN NURSING CENTER LLC,N,N,88,0,88,603918.742,3796654.003
11109,MEDFORD NURSING CENTER,105 MEDFORD DR,DARLINGTON,SC,29532-2719,843-398-7000,"LOFE, TYLER A. PH#: 843-398-7000",TLOFE@WILSONSENIORCARE.COM,TLOFE@WILSONSENIORCARE.COM,NCF-0891 / 08/31/2026,Darlington / Ltd. Liability,116 CASHUA ST,DARLINGTON,SC,29532-3202,MEDFORD NURSING CENTER LLC,N,N,88,0,88,604070.298,3797609.644
11111,PRUITTHEALTH-BARNWELL,31 WREN ST,BARNWELL,SC,29812-1528,803-259-5547,"JAMISON, MARY ANNE PH#: 803-259-5547",LEGALSERVICES@PRUITTHEALTH.COM,MJAMISON@PRUITTHEALTH.COM,NCF-0893 / 07/31/2026,Barnwell / Limited Liability,31 WREN ST,BARNWELL,SC,29812-1528,PRUITTHEALTH-BARNWELL LLC,N,N,44,0,44,466160.908,3679723.334
11112,SPARTANBURG HOSPITAL FOR RESTORATIVE CARE SNF,389 SERPENTINE DR,SPARTANBURG,SC,29303-3026,864-560-3232,"STIMAC, PATRICIA M. PH#: 864-560-3232",PSTIMAC@SRHS.COM,PSTIMAC@SRHS.COM,NCF-0915 / 02/28/2026,Spartanburg / District,389 SERPENTINE DR,SPARTANBURG,SC,29303-3026,SPARTANBURG REGIONAL HEALTH SERVICES DISTRICT INC,N,N,25,0,25,414556.557,3869879.583
11113,DR RONALD E MCNAIR NURSING AND REHABILITATION CENTER,56 GENESIS DR,LAKE CITY,SC,29560-5531,843-389-3685,"FRIERSON, SARAH L. PH#: 843-389-3685",SARAHLISA.F@MCNAIRNURSING.NET,MCNAIRNSGCTR@FTC-I.NET,NCF-0918 / 11/30/2026,Williamsburg / Corporation,56 GENESIS DR,LAKE CITY,SC,29560-5531,HEALTHCARE PANASCOPE INC,N,N,88,0,88,610753.896,3744927.334
11115,PRINCE GEORGE HEALTHCARE CENTER,901 MAPLE ST,GEORGETOWN,SC,29440-4333,843-546-6101,"CRIBB, HELEN L. PH#: 843-235-9393",HELEN.CRIBB@PALMLTC.COM,,NCF-0930 / 09/30/2026,Georgetown / Ltd. Liability,901 MAPLE ST,GEORGETOWN,SC,29440-4333,PALMETTO PRINCE GEORGE OPERATING LLC,N,N,148,0,148,657864.709,3689327.47
11116,JOLLEY ACRES HEALTHCARE CENTER,1180 WOLFE TRL,ORANGEBURG,SC,29115-7339,803-534-1001,"ROBINSON, GWENDOLYN PH#: 803-245-7525",G.ROBINSON@PALMLTC.COM,GFERRERE@PRUITTHEALTH.COM,NCF-0929 / 09/30/2026,Orangeburg / Ltd. Liability,415 SNAPDRAGON ST,COPE,SC,29038,PALMETTO JOLLEY ACRES OPERATING LLC,N,N,60,0,60,513403.35,3704084.173
11117,FAITH HEALTHCARE CENTER,617 W MARION ST,FLORENCE,SC,29501-2470,843-669-9958,"WILSON, MICHAEL SIMS PH#: 843-389-9201",MICH.WILSON@PALMLTC.COM,MIC.WILSON@PALMLTC.COM,NCF-0927 / 09/30/2026,Florence / Ltd. Liability,617 W MARION ST,FLORENCE,SC,29501-2470,PALMETTO FAITH OPERATING LLC,N,N,104,0,104,612607.844,3785196.722
11118,SPRINGDALE HEALTHCARE CENTER,146 BATTLESHIP RD,CAMDEN,SC,29020-2060,803-432-3741,"HANLEY, KATELYN PH#: 803-432-3741",KATELYN.HANLEY2578@PALMLTC.COM,,NCF-0925 / 09/30/2026,Kershaw / Ltd. Liability,146 BATTLESHIP RD,CAMDEN,SC,29020-2060,PALMETTO SPRINGDALE OPERATING LLC,N,N,148,0,148,533696.34,3790130.882
11119,LAKE CITY-SCRANTON HEALTHCARE CENTER,1940 BOYD RD,SCRANTON,SC,29591-5835,843-389-9201,"FLATHMANN, SARAH PH#: 843-821-5005",RACHEL.MCKINZIE@PALMLTC.COM,ADMI@PEACHTREECTR.COM,NCF-0928 / 09/30/2026,Florence / Ltd. Liability,3321 DOGWOOD CHASE,FLORENCE,SC,29501,PALMETTO LAKE CITY OPERATING LLC,N,N,88,0,88,616640.557,3753597.942
11120,PRUITTHEALTH-MONCKS CORNER,505 S LIVE OAK DR,MONCKS CORNER,SC,29461-3554,843-761-8368,"CADDELL, JAI PH#: 843-761-8368",LEGALSERVICES@PRUITTHEALTH.COM,,NCF-0943 / 10/31/2026,Berkeley / Limited Liability,505 S LIVE OAK DR,MONCKS CORNER,SC,29461-3554,PRUITTHEALTH-MONCKS CORNER LLC,N,N,132,0,132,591277.086,3672453.576
11121,MILLENNIUM POST ACUTE REHABILITATION,2416 SUNSET BLVD,WEST COLUMBIA,SC,29169-4791,803-796-8024,"MCQUILLEN, DREW E. PH#: 803-739-5282",RENEWALS@ENSIGNSERVICES.NET,,NCF-0948 / 11/30/2026,Lexington / Corporation,27101 PUERTA REAL STE 450,MISSION VIEJO,CA,92691-8566,STONEY HILL HEATLHCARE LLC,N,N,132,0,132,490160.325,3762556.763
11122,PRUITTHEALTH - WALTERBORO,401 WITSELL ST,WALTERBORO,SC,29488-3052,843-549-5546,"NESMITH, NATHAN PH#: 803-727-4268",LEGALSERVICES@PRUITTHEALTH.COM,NATHAN.NESMITH@PRUITTHEALTH.COM,NCF-0949 / 10/31/2026,Colleton / Ltd. Liability,401 WISTELL ST,WALTERBORO,SC,29488-3052,PRUITTHEALTH - WALTERBORO LLC,N,N,132,0,132,531904.776,3641231.051
11123,SUMMIT HILLS SKILLED NURSING FACILITY,100 SUMMIT HILLS DR,SPARTANBURG,SC,29307-1532,864-591-2222,"CROWE, JANA MARIE PH#: 864-208-8976",LICENSING@SUMMIT-HILLS.COM,JCROWE@SUMMIT-HILLS.COM,NCF-0950 / 03/31/2026,Spartanburg / Ltd. Liability,3530 TORINGDON WAY STE 204,CHARLOTTE,NC,28277-3436,SUMMIT HILLS LLC,N,N,27,6,33,418630.08,3871653.284
11124,SOUTH CAROLINA EPISCOPAL HOME AT STILL HOPE,1 STILL HOPES DR,WEST COLUMBIA,SC,29169-7164,803-995-8100,"ROBERTSON, NIKKI W. PH#: 803-739-5043",NROBERTSON@STILLHOPES.ORG,NROBERTSON@STILLHOPES.ORG,NCF-0392 / 12/31/2025,Lexington / Corporation,1 STILL HOPES DR,WEST COLUMBIA,SC,29169-7164,SOUTH CAROLINA EPISCOPAL HOME AT STILL HOPES INC,N,N,70,,70,494267.549,3760572.775
11125,THE HERITAGE AT LOWMAN REHABILITATION AND HEALTHCARE,201 FORTRESS DR,CHAPIN,SC,29036,803-732-3000,"KNOWLES, AMANDA PH#: ",AKNOWLES@THEHERITAGEATLOWMAN.ORG,,NCF-0688 / 05/31/2026,Richland / Non-Profit Corporation,PO BOX 769,WHITE ROCK,SC,29177-0769,LUTHERAN HOMES OF SOUTH CAROLINA INC,N,N,176,0,176,475078.25,3777839.263
11126,PRUITTHEALTH-COLUMBIA,2451 FOREST DR,COLUMBIA,SC,29204-2026,803-254-5960,"FURMAN, SARA PH#: 803-254-5960",LEGALSERVICES@PRUITTHEALTH.COM,,NCF-0880 / 01/31/2026,Richland / Limited Liability,2451 FOREST DR,COLUMBIA,SC,29204-2026,PRUITTHEALTH-COLUMBIA LLC,N,N,150,0,150,498930.54,3763697.643
11127,POCOTALIGO RIVER HEALTH AND REHAB,3147 SUMTER HWY,MANNING,SC,29102,803-478-2332,"SIMON, SHIRLEY K. PH#: 803-478-2332",SSIMON@SOUTHERNSENIORLIVING.ORG,SSIMON@CARLYLESENIORCARE.COM,NCF-0737 / 01/31/2026,Clarendon / District,PO BOX 57,MANNING,SC,29102-0057,CLARENDON HOSPITAL DISTRICT,N,N,88,0,88,574200.468,3731581.742
11129,PRUITTHEALTH-AIKEN,830 LAURENS ST,AIKEN,SC,29801-3416,803-649-6264,"HOANG, DUSTIN PH#: 803-862-9554",LEGALSERVICES@PRUITTHEALTH.COM,DHOANG@PRUITTHEALTH.COM,NCF-0942 / 06/30/2026,Aiken / Limited Liability,1626 JEURGENS CT,NORCROSS,GA,30093-2219,PRUITTHEALTH-AIKEN LLC,N,N,176,0,176,433137.42,3715419.956
11131,GREENWOOD TRANSITIONAL REHABILITATION UNIT,1530 PKWY,GREENWOOD,SC,29646-4027,864-330-1800,"BENCEBI, ELIZABETH PH#: 864-330-1800",KRISTINMANSKE@ERNESTHEALTH.COM,ELIZABETHBENCEBI@ERNESTHEALTH.COM,NCF-0944 / 10/31/2026,Greenwood / Ltd. Liability,1530 PKWY,GREENWOOD,SC,29646-4027,GREENWOOD REGIONAL REHABILITATION HOSPITAL LLC,N,N,12,0,12,393410.311,3781348.242
11141,PRUITTHEALTH ROCK HILL,261 S HERLONG AVE,ROCK HILL,SC,29732-1159,803-366-7133,"BELL, AFRICANA PH#: 803-366-7133",LEGALSERVICES@PRUITTHEALTH.COM,,NCF-0947 / 01/31/2026,York / Limited Liability,261 S HERLONG AVE,ROCK HILL,SC,29732-1159,PRUITTHEALTH ROCK HILL LLC,N,N,132,0,132,495024.934,3868103.047
11145,PRUITTHEALTH - BAMBERG,439 NORTH ST,BAMBERG,SC,29003-1317,803-245-7525,"ASENO, EVALYNE PH#: 770-279-6200",EVALYNE.ASENO@PRUITTHEALTH.COM,,NCF-0322 / 08/31/2026,Bamberg / Limited Liability,439 NORTH ST,BAMBERG,SC,29003-1317,PRUITTHEALTH - BAMBERG LLC,N,N,88,0,88,496921.06,3684329.894
11578,KERSHAWHEALTH KARESH LONG TERM CARE AND REHAB,40 LINDSAY LN,CAMDEN,SC,29020-3737,803-572-8999,"NEAL, MICHAEL SCOTT PH#: ",SNEAL@KARESHLTC.COM,SNEAL@WHITEOAKMANOR.COM,NCF-0313 / 09/30/2026,Kershaw / ,,,,,KERSHAW HEALTH,N,N,132,0,132,528702.575,3805829.14
11580,PRUITTHEALTH - ESTILL,252 LIBERTY AVE S,ESTILL,SC,29918,803-625-3852,"MOUSSA, MAHER PH#: 925-951-7475",ANDDAVIS@PRUITTHEALTH.COM,MAHER.MOUSSA@PRUITTHEALTH.COM,NCF-0922 / 09/30/2026,Hampton / Ltd. Liability,252 LIBERTY AVE S,ESTILL,SC,29918,PRUITTHEALTH - ESTILL LLC,N,N,88,0,88,478887.791,3623574.061
11587,BRIGHTWATER SKILLED NURSING CENTER,171 BRIGHTWATER DR,MYRTLE BEACH,SC,29579,843-903-8300,"ARLEDGE, MATTHEW T. PH#: 864-414-6249",LICENSING@BRIGHTWATER-LIVING.COM,MARLEDGE@LAKES-LITCHFIELD.COM,NCF-0955 / 04/30/2026,Horry / Limited Liability,3530 TORINGDON WAY STE 204,CHARLOTTE,NC,28277-3436,BRIGHTWATER RETIREMENT LLC,N,N,67,,67,699797.011,3737869.757
11597,LINVILLE COURTS AT THE CASCADES VERDAE,30 SPRINGCREST CT,GREENVILLE,SC,29607-4034,864-528-5529,"BYERS, ELIZABETH PH#: 864-412-4700",LICENSING@CASCADES-VERDAE.COM,LIBBY.BYERS@PHOENIXSRLIVING.COM,NCF-0956 / 04/30/2026,Greenville / Limited Liability,3530 TORINGDON WAY STE 204,CHARLOTTE,NC,28277-3436,CASCADES NURSING LLC,N,N,44,,44,379759.61,3854543.961
11632,ARBORETUM AT THE WOODLANDS,50 ARBORETUM LN,GREENVILLE,SC,29617-6227,864-371-3100,"PAGLIARO, CHRISTOPHER LYNN PH#: 864-371-3133",CPAGLIARO@TWAFSC.ORG,CPAGLIARO@TWAFSC.ORG,NCF-0957 / 06/30/2026,Greenville / Non-Profit Corporation,50 ARBORETUM LN,GREENVILLE,SC,29617-6227,UPSTATE SENIOR LIVING INC,N,N,30,0,30,368131.412,3866866.218
11658,PRUITTHEALTH-BLYTHEWOOD,1075 HEATHER GREEN DR,COLUMBIA,SC,29229-7831,803-382-2300, PH#: ,ANNE.WINN@PRUITTHEALTH.COM,,NCF-0959 / 08/31/2026,Richland / Corporation,1075 HEATHER GREEN DR,COLUMBIA,SC,29229-7831,THE OAKS OF BLYTHEWOOD INC,N,N,120,,120,505571.389,3778708.513
11763,NHC HEALTHCARE BLUFFTON,3039 OKATIE HWY,BLUFFTON,SC,29909-5101,843-705-8220,"MCCLAIN, JACLYN M. PH#: 843-852-0505",JACLYN.MCCLAIN@NHCCARE.COM,,NCF-0958 / 01/31/2026,Beaufort / Limited Liability,3039 OKATIE HWY,BLUFFTON,SC,29909-5101,NHC HEALTHCARE/BLUFFTON LLC,Y,Y,120,,120,499067.45,3566833.741
12084,RETREAT AT WELLMORE OF DANIEL ISLAND,580 ROBERT DANIEL DR,CHARLESTON,SC,29492,843-566-1000,"SIDES, VICKI ANN PH#: 803-655-7101",DANIELISLAND.LICENSING@WELL-MORE.COM,V.SIDES@FUNDLTC.COM,NCF-0965 / 03/31/2026,Berkeley / Limited Liability,3530 TORINGDON WAY STE 204,CHARLOTTE,NC,28277-3436,WELLMORE OF DANIEL ISLAND LLC,N,N,60,,60,602114.423,3637421.742
12087,RETREAT AT WELLMORE OF LEXINGTON,200 WELLMORE DR BLDG #4,LEXINGTON,SC,29072,803-520-1200,"GRIFFIN BURGESS, MARION PH#: 803-520-1200",LEXINGTON.LICENSING@WELL-MORE.COM,,NCF-0966 / 07/31/2026,Lexington / Limited Liability,3530 TORINGDON WAY STE 204,CHARLOTTE,NC,28277-3436,WELLMORE OF LEXINGTON LLC,N,N,60,,60,480066.233,3761763.445
12117,PEACHTREE CENTRE,1434 N LIMESTONE ST,GAFFNEY,SC,29340-4798,864-487-2717,"GALLMAN, AMANDA PH#: ",ANIEDERMAN@AHAVAHC.COM,,NCF-0972 / 12/31/2026,Cherokee / Limited Liability,1434 N LIMESTONE ST,GAFFNEY,SC,29340-4798,PEACHTREE OPERATING GROUP LLC,N,N,151,,151,441983.795,3883001.464
12136,ROCK HILL POST ACUTE CARE CENTER,159 SEDGEWOOD DR,ROCK HILL,SC,29732-2315,803-329-6565,"JOHNSON, KATE PH#: 803-326-6565",RENEWALS@ENSIGNSERVICES.NET,KATEJOHNSON@ENSIGNSERVICES.NET,NCF-0975 / 12/31/2025,York / Corporation,27101 PUERTA REAL STE 450,MISSION VIEJO,CA,92691-8566,ROCK HILL HEALTHCARE LLC,N,N,99,,99,496404.344,3867593.836
12137,OPUS POST ACUTE REHABILITATION,300 AGAPE DR,WEST COLUMBIA,SC,29169-3307,803-739-5282,"RODRIGUEZ, JOSE PH#: 803-739-5282",JOSRODRIGUEZ@ENSIGNSERVICES.NET,,NCF-0976 / 12/31/2025,Lexington / Corporation,27101 PUERTA REAL STE 450,MISSION VIEJO,CA,92691-8566,SOUTHERN CHARM HEALTHCARE LLC,N,N,98,,98,489807.144,3761071.672
12138,COMPASS POST ACUTE REHABILITATION,2320 HWY 378,CONWAY,SC,29527-4911,843-397-2273,"TILLER, RAYMOND PH#: 843-397-2273",RTILLER@ENSIGNSERVICES.NET,RTILLER@ENSIGNSERVICES.NET,NCF-0977 / 12/31/2025,Horry / Corporation,27101 PUERTA REAL STE 450,MISSION VIEJO,CA,92691-8566,CAROLINA HEALTHCARE LLC,N,N,95,,95,676596.487,3746438.088
12155,SPRENGER HEALTHCARE OF PORT ROYAL,1810 RICHMOND AVE,PORT ROYAL,SC,29935,843-781-7700,"GRIFFING, TRISHA PH#: 843-781-7700",TGRIFFING@SPRENGERHEALTHCARE.COM,,NCF-0980 / 05/31/2026,Beaufort / Corporation,3905 OBERLIN AVE,LORAIN,OH,44053,SPRENGER HEALTHCARE OF PORT ROYAL INC,Y,Y,65,,65,529313.75,3583005.862
12188,CARLYLE SENIOR CARE OF AIKEN,123 DUPONT DR NW,AIKEN,SC,29801-4089,803-648-0434,"PORTER, NANCY PH#: 803-649-6264",NPORTER@CARLYLESENIORCARE.COM,NPORTER@PRUITTHEALTH.COM,NCF-0982 / 07/31/2026,Aiken / Limited Liability,PO BOX 12519,FLORENCE,SC,29504,CARLYLE SENIORCARE OF AIKEN LLC,N,N,86,,86,434105.39,3715421.569
12189,CARLYLE SENIOR CARE OF FLORENCE,133 W CLARKE RD,FLORENCE,SC,29501-0722,843-669-4374,"LOCKLAIR, JERRY L. PH#: 843-669-4374",JLOCKLAIR@CARLYLESENIORCARE.COM,JLOCKLAIR@CARLYLESENIORCARE.COM,NCF-0983 / 07/31/2026,Florence / Limited Liability,PO BOX 12519,FLORENCE,SC,29504,CARLYLE SENIOR CARE OF FLORENCE LLC,N,N,88,,88,615852.208,3791017.509
12191,CARLYLE SENIOR CARE OF KINGSTREE,401 NELSON BLVD,KINGSTREE,SC,29556-4024,843-355-6116,"SLAVINSKI, CANDICE J. PH#: 803-355-6116",CSLAVINSKI@CARLYLESENIORCARE.COM,CSLAVINSKI@CARLYLESENIORCARE.COM,NCF-0984 / 07/31/2026,Williamsburg / Limited Liability,PO BOX 12519,FLORENCE,SC,29504,CARLYLE SENIOR CARE OF KINGSTREE LLC,N,N,96,,96,609133.021,3725137.412
12193,MCCOY MEMORIAL NURSING CENTER,207 CHAPPELL DR,BISHOPVILLE,SC,29010-1167,803-484-5636,"GIBBS, JEFFREY LYNN PH#: 803-484-5636",LGIBBS@CARLYLESENIORCARE.COM,LGIBBS@CARLYLESENIORCARE.COM,NCF-0986 / 07/31/2026,Lee / Limited Liability,PO BOX 12519,FLORENCE,SC,29504,CARLYLE SENIOR CARE OF BISHOPVILLE LLC,N,N,120,,120,568432.509,3787661.544
12194,CARLYLE SENIOR CARE OF FORK,1727 BUCK SWAMP RD,FORK,SC,29543-6116,843-464-6212,"MOORE, JOHN PH#: 843-464-6212",JMOORE@CARLYLESENIORCARE.COM,JMOORE@CARLYLESENIORCARE.COM,NCF-0987 / 07/31/2026,Dillon / Limited Liability,PO BOX 12519,FLORENCE,SC,29504,CARLYLE SENIOR CARE OF FORK LLC,N,N,111,,111,661561.038,3793498.758
12208,LODGE AT WELLMORE,111 WELLMORE DR,TEGA CAY,SC,29708-0039,803-835-7000,"DUNN, DAVID M. PH#: 803-835-7005",JASMINE.RICHARD@WELL-MORE.COM,TEGACAY.LICENSING@WELL-MORE.COM,NCF-0988 / 09/30/2026,York / Limited Liability,111 WELLMORE DR,TEGA CAY,SC,29708-0039,WELLMORE OF TEGA CAY LLC,N,N,60,,60,500651.412,3878516.913
12311,SPRENGER HEALTHCARE OF BLUFFTON,60 OKATIE VILLAGE DR,OKATIE,SC,29909,843-548-2500,"DIXON, TERESA PH#: 843-549-5546",RCARROLL@SPRENGERHEALTHCARE.COM,TERESA.DIXON@PRUITTHEALTH.COM,NCF-0996 / 03/31/2026,Beaufort / Corporation,60 OKATIE VILLAGE DR,OKATIE,SC,29909,SPRENGER HEALTHCARE OF BLUFFTON INC,Y,Y,60,,60,505415.551,3573017.561
12347,OAKBROOK HEALTH AND REHABILITATION CENTER,920 TRAVELERS BLVD,SUMMERVILLE,SC,29485-8213,843-875-9053,"FLATHMANN, RUSTY PH#: 864-472-9055",RUSTY.FLATHMANN@FUNDLTC.COM,RUSTY.FLATHMANN@FUNDLTC.COM,NCF-0998 / 08/31/2026,Dorchester / Limited Liability,920 TRAVELERS BLVD,SUMMERVILLE,SC,29485-8213,OAKBROOK HEALTH CARE LLC,N,N,88,,88,577563.824,3647518.971
12348,ST GEORGE HEALTHCARE CENTER,905 DUKES ST,SAINT GEORGE,SC,29477-2059,843-563-4602,"LANTZ, KATHLEEN PH#: 803-481-8591",F.OEHLER@FUNDLTC.COM,KATIE.L@SYMMETRYHCMGMT.COM,NCF-0999 / 08/31/2026,Dorchester / Limited Liability,905 DUKES ST,SAINT GEORGE,SC,29477-2059,ST GEORGE HEALTH CARE LLC,N,N,88,,88,538557.823,3671327.833
12367,WOODRUFF MANOR,1114 E GEORGIA RD,WOODRUFF,SC,29388,864-476-7092,"TERRELL, C ADAM PH#: 864-476-7092",CTERRELL@SRHS.COM,CTERRELL@SRHS.COM,NCF-1000 / 09/30/2026,Spartanburg / District,1114 E GEORGIA RD,WOODRUFF,SC,29388,SPARTANBURG REGIONAL HEALTH SERVICES DISTRICT INC,N,N,88,,88,406936.614,3845751.898
12461,WILLOWBROOKE COURT AT PARK POINTE VILLAGE,2993 VAN VALIN DR,ROCK HILL,SC,29732-8079,803-980-8621,"FRANKLIN, KATLIN PH#: 803-980-8621",KAITLIN.FRANKLIN@ACTSLIFE.ORG,,NCF-1006 / 09/30/2026,York / Corporation,3025 CHESBROUGH BLVD,ROCK HILL,SC,29732-8078,ACTS RETIREMENT-LIFE COMMUNITIES INC,Y,N,40,,40,491120.85,3868140.822
12485,PRUITTHEALTH - CONWAY AT CONWAY MEDICAL CENTER,2379 CYPRESS CIR,CONWAY,SC,29526-8921,843-347-8179,"SCHMEIZL, ELIZABETH PH#: 843-449-5283",LEGALSERVICES@PRUITTHEALTH.COM,,NCF-1007 / 10/31/2026,Horry / Limited Liability,,,,,PRUITTHEALTH - CONWAY LLC,N,N,88,,88,684922.909,3740108.367
12524,BRUSHY CREEK POST ACUTE,101 COTTAGE CREEK CIR,GREER,SC,29650-2438,864-688-3800,"STANGER, BROCK PH#: 864-232-2442",BROCK.STANGER@BRUSHYCREEKPA.COM,,NCF-1024 / 01/31/2026,Greenville / Limited Liability,101 COTTAGE CREEK CIR,GREER,SC,29650-2438,GREER POST ACUTE LLC,N,N,144,0,144,386132.377,3865128.721
12525,GREENVILLE POST ACUTE,661 RUTHERFORD RD,GREENVILLE,SC,29609-4696,864-232-2442,"DIXON, GRANT PH#: ",GRANT.DIXON@GREENVILLEPOSTACUTE.COM,,NCF-1025 / 01/31/2026,Greenville / Limited Liability,661 RUTHERFORD RD,GREENVILLE,SC,29609-4696,GREENVILLE POST ACUTE LLC,N,N,132,0,132,372530.054,3860336.134
12535,MUSC HEALTH MULLINS NURSING CENTER,518 S MAIN ST,MULLINS,SC,29574-3510,843-431-2000,"LEWIS, DANIEL E. PH#: 843-464-8211",LEWDANIE@MUSC.EDU,LEWDANIE@MUSC.EDU,NCF-1027 / 03/31/2026,Marion / ,169 ASHLEY AVE,CHARLESTON,SC,29425,MEDICAL UNIVERSITY HOSPITAL AUTHORITY,N,N,92,0,92,660901.469,3785613.692
12540,SENIOR CARE OF MARION,2770 HWY 501 S,MARION,SC,29571,855-573-8466,"FLANSBURG, CHRISTINE PH#: 855-573-8466",JANICE@SCOMSC.COM,CHRISTINE@SCOMSC.COM,NCF-0997 / 07/31/2026,Marion / Limited Liability Limited Partnership,2770 HWY 501 S,MARION,SC,29571,SENIOR CARE OF MARION LLC,N,N,90,,90,653888.464,3775243.776
12554,INMAN HEALTHCARE,51 N MAIN ST,INMAN,SC,29349-1437,864-472-9370,"SKROBOLA, MEREDITH PH#: 864-472-6636",MSKROBOLA@GOLDENINMAN.COM,,NCF-1030 / 03/31/2026,Spartanburg / Limited Liability,82 N MAIN ST,INMAN,SC,29349-1416,INMAN OPERATIONS LLC,Y,N,40,,40,400444.214,3879157.021
12555,RIDGEWAY MANOR HEALTHCARE CENTER,117 BELLFIELD RD,RIDGEWAY,SC,29130-8261,803-337-2257,"SPARKS, DEBORAH PH#: 803-337-2257",DEBORAH.SPARKS@RIDGEWAYMANORHEALTHCARE.C,DEBORAH.SPARKS@PALMLTC.COM,NCF-1031 / 08/31/2026,Fairfield / Limited Liability,117 BELLFIELD RD,RIDGEWAY,SC,29130-8261,RIDGEWAY MANOR HEALTHCARE CENTER LLC,N,N,112,,112,508577.989,3798717.599
12559,GOLDEN AGE - INMAN,82 N MAIN ST,INMAN,SC,29349-1416,864-472-6636,"JOHNSON, DENA PH#: 864-381-6401",DJOHNSON@GOLDENINMAN.COM,DENA.JOHNSON@SA-HC.COM,NCF-1032 / 03/31/2026,Spartanburg / Limited Liability,82 N MAIN ST,INMAN,SC,29349-1416,GOLDEN AGE OPERATIONS LLC,Y,N,44,,44,400130.945,3879506.136
12619,JOHNS ISLAND POST ACUTE,3647 MAYBANK HWY,JOHNS ISLAND,SC,29455-4825,843-559-5888,"LEAVITT, JARED PH#: 916-899-9145",JARED.LEAVITT@JOHNSISLANDPA.COM,,NCF-1033 / 05/31/2026,Charleston / Limited Liability,3647 MAYBANK HWY,JOHNS ISLAND,SC,29455-4825,JOHNS ISLAND POST ACUTE LLC,N,N,132,,132,585925.569,3620381.101
12620,HALLMARK HEALTHCARE CENTER,255 MIDLAND PKWY,SUMMERVILLE,SC,29485-8104,843-821-5005,"FLATHMANN, SARAH PH#: 843-821-5005",KRYSTAL.LYNCH@FUNDLTC.COM,ADMI@PEACHTREECTR.COM,NCF-1034 / 03/31/2026,Dorchester / Limited Liability,500 JEFF DAVIS DR,SPARTANBURG,SC,29303-2044,HALLMARK LONGTERM CARE LLC,N,N,88,,88,578494.206,3647772.724
12643,SEDGEWOOD MANOR HEALTH CARE CENTER,1645 RIDGE RD,HOPKINS,SC,29061-8432,803-776-3873,"MCCOLLUM, JAMES M. PH#: 803-776-3873",MATT.MCCOLLUM@MAINSTAYSENIORLIVING.COM,ADMIN@SUMTER.CARE,NCF-1035 / 07/31/2026,Richland / Limited Liability,1645 RIDGE RD,HOPKINS,SC,29061-8432,SEDGEWOOD MANOR HEALTH CARE CENTER LLC,Y,N,38,,38,514395.984,3757917.706
12646,WILDEWOOD DOWNS NURSING AND REHABILITATION CENTER,731 POLO RD,COLUMBIA,SC,29223-4462,803-419-1243,"VILES, ROBIN G. PH#: 803-419-1243",LICENSING@WILDEWOOD-DOWNS.COM,RVILES@MAXWELL-GROUP.COM,NCF-1036 / 06/30/2026,Richland / Limited Liability,3530 TORINGDON WAY STE 204,CHARLOTTE,NC,28277-3436,WILDEWOOD RETIREMENT LLC,N,N,80,,80,510289.926,3771862.448
12704,ACHIEVE REHABILITATION AND NURSING CENTER,611 E HAMPTON ST,ANDERSON,SC,29624-2899,864-226-5054,"WHEELER, CHARLES PH#: 864-226-5054",ALEV@HEARTHCM.COM,,NCF-1039 / 09/30/2026,Anderson / Limited Liability,,,,,ANDERSON SC OPCO LLC,N,N,181,,181,349473.466,3818375.744
12719,EDISTO POST ACUTE,575 STONEWALL JACKSON BLVD,ORANGEBURG,SC,29115-7250,803-534-7771,"TIPTON, NICHOLAS PH#: 803-534-7771",NICHOLAS.TIPTON@EDISTOPA.COM,,NCF-1026 / 01/31/2026,Orangeburg / Limited Liability,575 STONEWALL JACKSON BLVD,ORANGEBURG,SC,29115-7250,ORANGEBURG POST ACUTE LLC,N,N,113,0,113,512161.122,3704783.201
12721,MUSC HEALTH CHESTER NURSING CENTER,1 MEDICAL PARK DR,CHESTER,SC,29706-9769,803-581-9423,"GOSNELL, LISA R. PH#: 803-286-1837",GOSNELLL@MUSC.EDU,LISA_GOSNELL@CHS.NET,NCF-1028 / 03/31/2026,Chester / ,169 ASHLEY AVE,CHARLESTON,SC,29425,MEDICAL UNIVERSITY HOSPITAL AUTHORITY,N,N,60,,60,483081.236,3837948.011
13003,ANGEL OAK NURSING AND REHABILITATION CENTER,4452 SOCASTEE BLVD,MYRTLE BEACH,SC,29588-7253,843-293-1137,"DUGOSH, SHEILA PH#: 843-293-1137",SDUGOSH@ANGELOAKNURSING.COM,SDUGOSH@WILSONSENIORCARE.COM,NCF-1046 / 05/31/2026,Horry / Limited Liability,,,,,ANGEL OAK NURSING AND REHABILITATION CENTER LLC,N,N,88,,88,686687.167,3729181.885
13065,IVA POST ACUTE,406 W BROAD ST,IVA,SC,29655-9765,864-348-7433,"MILLER, LYDIA M. PH#: 864-457-9100",LYDIA.MILLER@PACS.COM,HOCF@HOCF.ORG,NCF-1048 / 09/30/2026,Anderson / Limited Liability,,,,,IVA SKILLED NURSING LLC,N,N,60,,60,346533.382,3797732.7
13066,WEST VILLAGE POST ACUTE,8 N TEXAS AVE,GREENVILLE,SC,29611,864-295-1331,"MILLETT, MARK PH#: 864-246-2721",MARK.MILLET@WESTVILLAGEPA.COM,,NCF-1049 / 09/30/2026,Greenville / Limited Liability,,,,,GREENVILLE SKILLED NURSING LLC,N,N,132,0,132,368374.722,3855875.301
13067,LINLEY PARK POST ACUTE,208 JAMES ST,ANDERSON,SC,29625-2942,864-226-3427,"MCCOWAN, KEVIN PH#: 864-845-5177",KEVIN.MCCOWAN@LINLEYPARKPA.COM,KEVIN.MCCOWAN@PIEDMONTPOSTACUTE.COM,NCF-1050 / 09/30/2026,Anderson / Limited Liability,,,,,ANDERSON COMMUNITY HEALTHCARE LLC,N,N,88,,88,347523.536,3821643.225
13068,CHANDLER CREEK POST ACUTE,401 CHANDLER RD,GREER,SC,29651-1243,864-879-1370,"TYNER, BRYAN PH#: 864-391-2390",BRYAN.TYNER@CHANDLERCREEK.COM,,NCF-1051 / 09/30/2026,Greenville / ,,,,,GREER COMMUNITY HEALTHCARE LLC,N,N,133,,133,386940.951,3868592.511
13071,FLEETWOOD POST ACUTE,200 ANNE DR,EASLEY,SC,29640,864-859-9754,"WILSON, TOYA PH#: 864-859-9754",JORDAN.HALL@FLEETWOODPOSTACUTE.COM,,NCF-1053 / 09/30/2026,Pickens / Limited Liability,,,,,EASLEY SKILLED NURSING LLC,N,N,103,,103,353039.273,3856263.954
13073,SIMPSONVILLE POST ACUTE,807 SE MAIN ST,SIMPSONVILLE,SC,29681-7150,864-963-6069,"LESTER, CHEYNE PH#: 864-963-6069",CHEYNE.LESTER@SIMPSONVILLEPA.COM,,NCF-1054 / 09/30/2026,Greenville / Limited Liability,,,,,SIMPSONVILLE COMMUNITY HEALTHCARE LLC,N,N,132,,132,386098.871,3842487.349
13074,POWDERSVILLE POST ACUTE,1850 CRESTVIEW RD,EASLEY,SC,29642-3528,864-859-3236,"HALL, JORDAN PH#: 864-859-9754",JORDAN.HALL@POWDERSVILLEPA.COM,,NCF-1055 / 09/30/2026,Pickens / Limited Liability,,,,,EASLEY COMMUNITY HEALTHCARE LLC,N,N,60,,60,358732.794,3851657.041
13076,MANNA POST ACUTE,716 E CEDAR ROCK ST,PICKENS,SC,29671-2324,864-878-4739,"GRIGGS, TODD PH#: 864-878-4739",TODD.GRIGGS@MANNAPOSTACUTE.COM,TODD.GRIGGS@SA-HC.COM,NCF-1056 / 09/30/2026,Pickens / Limited Liability,,,,,PICKENS SKILLED NURSING LLC,N,N,130,,130,345212.054,3861414.483
13077,EDGEFIELD POST ACUTE,226 W A REEL DR,EDGEFIELD,SC,29824-4534,803-637-5312,"GINN, KEVIN J. PH#: 803-643-3694",KEVIN.GINN@EDGEFIELDPA.COM,KEVIN.GINN@EDGEFIELDPA.COM,NCF-1057 / 09/30/2026,Edgefield / Limited Liability,,,,,EDGEFIELD COMMUNITY HEALTHCARE LLC,N,N,120,,120,414017.228,3737914.916
13078,PATEWOOD POST ACUTE,2 GRIFFITH RD,GREENVILLE,SC,29607-3504,864-990-1918,"EVATT, RUSSELL PH#: 864-261-6734",STERLING.SMITH@PATEWOODPA.COM,REVATT@HMRVSI.COM,NCF-1058 / 09/30/2026,Greenville / Limited Liability,,,,,GREENVILLE COMMUNITY HEALTHCARE LLC,N,N,120,,120,379288.473,3856216.567
13080,PIEDMONT POST ACUTE,109 BENTZ RD,PIEDMONT,SC,29673,864-854-5177,"HALL, REINALDO PH#: 864-854-5177",RIO.HALL@PIEDMONTPOSTACUTE.COM,,NCF-1061 / 09/30/2026,Greenville / Limited Liability,,,,,PIEDMONT SKILLED NURSING LLC,N,N,88,,88,364942.228,3840995.173
13141,KEMPTON OF CHARLESTON,194 SPRING ST,CHARLESTON,SC,29403,854-500-7778,"FRENCH, LINDSAY PH#: 843-352-4986",JOCARR@LIBERTYSENIORLIVING.COM,LINDSAY.FRENCH@THEOAKSSC.COM,NCF-1064 / 03/31/2026,Charleston / Limited Liability,,,,,SPRING STREET SENIOR HOUSING OPCO LLC,N,N,23,,23,598123.331,3628287.685
13143,COOPER RIVER POST ACUTE,1049 ANNA KNAPP BLVD,MOUNT PLEASANT,SC,29464-3133,843-881-3210,"LITCHFIELD, TANNER PH#: 843-881-3210",TANNER.LITCHFIELD@COOPERRIVERPA.COM,,NCF-1065 / 10/31/2026,Charleston / Limited Liability,,,,,MTPLEASANT SNF LLC,N,N,176,,176,606219.968,3630745.254
13152,RIDGELAND NURSING AND REHAB CENTER,1516 GRAYS HWY,RIDGELAND,SC,29936,843-726-5581,"BOYLES, SHERI P. PH#: 803-865-1999",JCUNNINGHAM@RIDGELANDNRC.COM,SHERI_BOYLES@LCCA.COM,NCF-1066 / 11/30/2025,Jasper / Limited Liability,,,,,SC OPCO LLC,N,N,88,,88,501213.323,3595461.97
13193,THE PALMS AT FLORENCE,4438 PAMPLICO HWY,FLORENCE,SC,29505-8502,843-669-3502,"BOATWRIGHT, MELISSA PH#: 803-398-7041",YAAKOV@ANGELOAKHC.COM,MBOATWRIGHT@WILSONSENIORCARE.COM,NCF-1068 / 11/30/2026,Florence / Limited Liability,,,,,COMMANDER OPERATOR LLC,N,N,163,,163,619522.803,3774572.085
13204,MYRTLE BEACH MANOR,9547 HWY 17 N,MYRTLE BEACH,SC,29572-0000,843-449-5283,"SCHMEIZL, ELIZABETH PH#: 843-449-5283",BETH.SCHMEIZL@PHOENIXSRLIVING.COM,,NCF-1041 / 12/31/2026,Horry / Limited Liability,,,,,SNH SC TENANT LLC,N,N,60,0,60,704304.913,3738569.799
13262,COVENANT PLACE NURSING CENTER,2825 CARTER RD,SUMTER,SC,29150-1712,803-469-7007,"WILSEY, JENNIFER PH#: 803-469-7007",DIRECTOR@COVENANTPLACE.COM,,NCF-1070 / 07/31/2026,Sumter / ,,,,,SUMTER OPCO LLC,N,N,28,16,44,554908.874,3757336.473
13274,SOUTHLAND HEALTH CARE CENTER,722 S DARGAN ST,FLORENCE,SC,29506-2562,843-669-4403,"MORRIS, ROBERT PH#: 864-225-2410",YAAKOV@ANGELOAKHC.COM,,NCF-1072 / 12/31/2026,Florence / Limited Liability,,,,,SOUTHLAND OPERATOR LLC,N,N,88,,88,613861.351,3783362.368
13295,LILA DOYLE POST ACUTE,101 LILA DOYLE DR,SENECA,SC,29672-9495,864-885-7675,"SEAWRIGHT, PHYLLIS PH#: 864-885-7679",RENEWALS@ENSIGNSERVICES.NET,PHYLLIS.SEAWRIGHT@PRISMAHEALTH.ORG,NCF-1073 / 10/31/2026,Oconee / Limited Liability,,,,,KINGSTON FALLS HEALTHCARE LLC,N,N,120,,120,318413.038,3840937.986
13296,OAK VIEW HEALTH AND REHABILITATION,3300 4TH AVE,CONWAY,SC,29527,843-248-5728,"THATCHER, BRENT PH#: 803-739-5282",RENEWALS@ENSIGNSERVICES.NET,BTHATCHER@ENSINSERVICES.NET,NCF-1074 / 05/31/2026,Horry / Corporation,,,,,BLUEBIRD HEALTHCARE INC,N,N,190,,190,677831.315,3743652.24
13297,OAK HARBOR HEALTHCARE,921 BOWMAN RD,MOUNT PLEASANT,SC,29464-3234,843-884-8903,"WISCOMBE, BRADEN PH#: 843-884-8903",RENEWALS@ENSIGNSERVICES.NET,,NCF-1075 / 05/31/2026,Charleston / Corporation,,,,,STARLING HEALTHCARE INC,N,N,132,,132,606842.177,3631297.033
13318,SENECA HEALTH AND REHABILITATION CENTER,140 TOKEENA RD,SENECA,SC,29678-1799,864-882-1642,"WILSON, KATHLEEN S. PH#: 864-882-1642",MICHAEL.BOKOR@RELIANTHCS.COM,,NCF-1076 / 09/30/2026,Oconee / Limited Liability,,,,,SENECA FACILITY LLC,N,N,132,,132,320023.285,3836425.949
13319,SUMTER EAST HEALTH AND REHABILITATION CENTER,880 CAROLINA AVE,SUMTER,SC,29150-2815,803-775-5394,"HATTON, BRYAN C. PH#: 803-775-5394",MICHAEL.BOKOR@RELIANTHCS.COM,BCHATTON@SAVASC.COM,NCF-1077 / 09/30/2026,Sumter / Limited Liability,,,,,SUMTER EAST FACILITY LLC,N,N,176,,176,559884.313,3756193.725
13341,MCCORMICK POST ACUTE,204 HOLIDAY ST,MCCORMICK,SC,29835,864-391-2390,"GRICE, JESSICA PH#: 803-643-3694",JESSICA.GRICE@MCCORMICKPA.COM,,NCF-1060 / 09/30/2026,McCormick / Limited Liability,,,,,MCCORMICK SKILLED NURSING LLC,N,N,120,,120,372805.641,3748370.442
13350,LAUREL CREST RETIREMENT COMMUNITY,100 JOSEPH WALKER DR,WEST COLUMBIA,SC,29169-6939,803-796-0370,"DEEL, JAMES F. PH#: 803-796-0370",JIM.DEEL@LAURELCREST.ORG,JIM.DEEL@LAURELCREST.ORG,NCF-1078 / 01/31/2026,Lexington / Non-Profit Corporation,,,,,PRESBYTERIAN COMMUNITIES OF SOUTH CAROLINA,N,N,12,,12,494070.711,3762540.533
13393,CARLYLE SENIOR CARE OF BLACKVILLE,1612 JONES BRIDGE RD,BLACKVILLE,SC,29817,803-284-4313,"COOKE, JANICE ELAINE PH#: 803-284-4313",ECOOKE@CARLYLESENIORCARE.COM,,NCF-1081 / 08/31/2026,Barnwell / Limited Liability,,,,,CARLYLE SENIOR CARE OF BLACKVILLE LLC,N,N,85,,85,475677.955,3693685.88
13394,CARLYLE SENIOR CARE OF WILLISTON,5721 SPRINGFIELD RD,WILLISTON,SC,29853-1917,803-266-3229,"ARMSTRONG, TIM E. PH#: 803-648-0434",TARMSTRONG@CARLYLESENIORCARE.COM,TARMSTRONG@CARLYLESENIORCARE.COM,NCF-1082 / 08/31/2026,Barnwell / Limited Liability,,,,,CARLYLE SENIOR CARE OF WILLISTON LLC,N,N,44,,44,461611.761,3696935.061
13415,BENNETTSVILLE HEALTH AND REHABILIATION CENTER,710 HWY 15-401 BYP W,BENNETTSVILLE,SC,29512-3641,843-479-6251,"PRUITT, KELLY PH#: 843-479-6251",JOR.KING@FUNDLTC.COM,ADMIN@DUNDEEMANOR.NET,NCF-1083 / 06/30/2026,Marlboro / Limited Liability,,,,,BENNETTSVILLE HEALTH CARE LLC,N,N,110,,110,618604.602,3830107.51
13429,BROOKVIEW HEALTHCARE CENTER,510 THOMPSON ST,GAFFNEY,SC,29340-3620,864-489-3101,"SAIN, SUSAN PH#: 864-489-3101",ADMIN@BROOKVIEW.CARE,ADMIN@BROOKVIEW.CARE,NCF-1093 / 12/31/2025,Cherokee / ,,,,,BROOKVIEW HEALTHCARE CENTER LLC,N,N,132,,132,440156.396,3879398.526
13443,FOUNTAIN INN POST ACUTE,501 GULLIVER ST,FOUNTAIN INN,SC,29644-2105,864-862-2554,"JOY, KATHERINE PH#: 864-879-1370",LEGAL@PACS.COM,KATHERINE.JOY@SA-HC.COM,NCF-1094 / 03/31/2026,Greenville / Limited Liability,,,,,FOUNTAIN INN HEALTHCARE LLC,N,N,60,,60,390939.079,3839990.861
13453,RESORTS AT BEAUFORT LLC,11 TODD DR,BEAUFORT,SC,29902-6113,843-524-8911,"GARRETT, ALEXANDRIA PH#: 843-389-9201",ADMINISTRATOR@BEAUFORTHC.COM,,NCF-1095 / 04/30/2026,Beaufort / Limited Liability,,,,,RESORTS AT BEAUFORT LLC,Y,Y,170,,170,529833.374,3585207.624
13538,ANCHOR POST ACUTE,550 EASTGATE DR,AIKEN,SC,29803-7688,803-643-3694,"DYCHES, KEELEY PH#: 864-391-2390",KEELEY.DYCHES@ANCHOR-PA.COM,,NCF-1052 / 09/30/2026,Aiken / Limited Liability,,,,,AIKEN COMMUNITY HEALTHCARE LLC,N,N,120,,120,434754.377,3702032.807
13539,RIVER FALLS POST ACUTE,2906 GREER HWY,MARIETTA,SC,29661,864-836-6381,"JENNINGS, MARK PH#: 864-836-6381",MARK.JENNINGS@RIVERFALLSPA.COM,,NCF-1059 / 09/30/2026,Greenville / Limited Liability,,,,,MARIETTA COMMUNITY HEALTHCARE LLC,N,N,44,,44,354624.167,3870854.521
13548,ASHLEY RIVER HEALTHCARE,1137 SAM RITTENBURG BLVD,CHARLESTON,SC,29407,843-763-0233, PH#: ,YPABON@ENSIGNSERVICES.NET,,NCF-1096 / 09/30/2026,Charleston / Corporation,,,,,ORANGE GROVE HEALTHCARE INC,N,N,125,,125,594503.502,3632148.64
13549,THE RESERVE HEALTHCARE AND REHABILITATION,1800 EAGLE LANDING BLVD,HANAHAN,SC,29410-8517,843-553-0656,"HICKS, GREGORY, JR. PH#: 803-662-5152",GHICKSJR@ENSIGNSERVICES.NET,,NCF-1097 / 09/30/2026,Berkeley / Corporation,,,,,RAILROAD CROSSING HEALTHCARE INC,N,N,135,,135,590170.996,3645652.439
13576,CHERRYDALE POST ACUTE,601 SULPHUR SPRINGS RD,GREENVILLE,SC,29617-1698,864-246-2721,"WATERS, JEFF PH#: 864-295-1331",MARK.MILLET@PACS.COM,JEFF.WATERS@WESTVILLAGEPA.COM,NCF-1098 / 01/31/2026,Greenville / Limited Liability,,,,,BEREA COMMUNITY HEALTHCARE LLC,N,N,132,,132,367299.601,3861680.052
13577,FOREST ACRES POST ACUTE,2601 FOREST DR,COLUMBIA,SC,29204-2363,803-256-4983,"KIZER, MELISSA R. PH#: 803-655-7101",TAYLOR.HARDY@FORESTACRESPA.COM,MELISSA.KIZER@FUNDLTC.COM,NCF-1099 / 01/31/2026,Richland / Limited Liability,,,,,FOREST ACRES COMMUNITY HEALTHCARE LLC,N,N,132,,132,499331.88,3763788.452
13578,REEDY RIVER POST ACUTE,600 SULPHUR SPRINGS RD,GREENVILLE,SC,29617-1985,864-900-9195,"DOMEN, KARA PH#: 864-246-2721",KARA.DOMEN@PACS.COM,,NCF-1100 / 01/31/2026,Greenville / Limited Liability,,,,,REEDY RIVER COMMUNITY HEALTHCARE LLC,N,N,125,,125,367115.607,3861720.637
13579,UNION POST ACUTE,709 RICE AVE EXT,UNION,SC,29379,864-427-0306,"PATRIE, CHRISTOPHER PH#: 803-831-9900",CHRISTOPHER.PATRIE@UNIONPOSTACUTE.COM,CHRISTOPHER.PATRIE@HCR-MANORCARE.COM,NCF-1101 / 01/31/2026,Union / Limited Liability,,,,,UNION COMMUNITY HEALTHCARE LLC,N,N,88,,88,440775.184,3841940.419
13606,LAKELANDS NURSING AND REHABILITATION CENTER,83 THOMSON CIR,ABBEVILLE,SC,29620-5652,864-366-5122,"REAVIS, LISA D. PH#: 803-691-5720",LISA.REAVIS@SELFREGIONAL.ORG,LREAVIS@RICEESTATE.ORG,NCF-1102 / 01/31/2026,Abbeville / ,,,,,SELF REGIONAL HEALTHCARE,N,N,94,,94,372767.019,3780738.748
13806,HONORAGE NURSING CENTER,1207 N CASHUA RD,FLORENCE,SC,29501-6969,843-665-6172,"JORDAN, HEATHER PH#: 803-478-2323",SWEESNER@WILSONSENIORCARE.COM,HJORDAN@CLARENDONLTC.ORG,NCF-1103 / 01/31/2026,Florence / Limited Liability,,,,,WILSON SENIOR CARE HONORAGE LLC,N,N,88,,88,610805.891,3786697.549
13881,OAKS POST ACUTE,151 LOVELY CIR,ORANGEBURG,SC,29115-1815,803-682-5814,"HAWS, CADEN PH#: 803-256-4983",LINDSAY.COTTINGHAM@PACS.COM,,NCF-1104 / 04/30/2026,Orangeburg / Limited Liability,,,,,ORANGEBURG COMMUNITY HEALTHCARE LLC,N,N,122,,122,514230.082,3698287.551
13948,SEVEN OAKS REHABILITATION AND HEALTHCARE CENTER,3514 SIDNEY RD,COLUMBIA,SC,29210-4494,803-798-9715,"STRAUSS, SUSAN PH#: 803-798-9715",WAYNE.BLUM@CHOICE-HEALTH.NET,,NCF-1105 / 06/30/2026,Lexington / Limited Liability,,,,,ST ANDREWS OPERATOR LLC,N,N,108,,108,487910.501,3767911.395
13976,AIKEN REHABILITATION AND CARE CENTER,3525 AUGUSTUS RD,AIKEN,SC,29801-2701,803-642-8376,"GUZMAN, CHARLES N. PH#: 803-642-8376",WANDAFOWLER@AIKENREHABILITATION.COM,,NCF-1069 / 09/30/2026,Aiken / ,,,,,PEPPER HILL SNF OPERATIONS LLC,Y,N,125,,125,427642.161,3713422.149
14042,VETERAN VILLAGE,1200 E NATIONAL CEMETERY RD,FLORENCE,SC,29506,843-432-4600,"YOUNG, SHONDA PH#: 864-834-1328",HEYWARD.HILLIARD@SCDVA.SC.GOV,,NCF-1106 / 07/31/2026,Florence / State,,,,,SOUTH CAROLINA DEPARTMENT OF VETERANS AFFAIRS,N,N,104,,104,615389.316,3782925.911
14043,RICHARD M CAMPBELL VETERANS NURSING HOME,4605 BELTON HWY,ANDERSON,SC,29621-5045,864-261-6734,"BURNETTE, CRYSTAL PH#: 864-261-6734",CBURNETTE@HMRVSI.COM,,NCF-1108 / 07/31/2026,Anderson / State,,,,,SOUTH CAROLINA DEPARTMENT OF VETERANS AFFAIRS,N,N,220,,220,355423.505,3816480.82
14044,VETERANS VICTORY HOUSE,2461 SIDNEYS RD,WALTERBORO,SC,29488-6783,843-538-3000,"SMELSER, THERESA PH#: 843-599-0773",HEYWARD.HILLIARD@SCDVA.SC.GOV,TSMELSER@HMRVSI.COM,NCF-1109 / 07/31/2026,Colleton / State,,,,,SOUTH CAROLINA DEPARTMENT OF VETERANS AFFAIRS,N,N,220,,220,536076.576,3645843.959
14048,PALMETTO PATRIOTS HOME,120 HAMPSHIRE DR,GAFFNEY,SC,29342,864-649-2000,"PALMER, CHRISTOPHER PH#: ",CPALMER@HMRVSI.COM,,NCF-1107 / 07/31/2026,Cherokee / State,,,,,SOUTH CAROLINA DEPARTMENT OF VETERANS AFFAIRS,N,N,104,,104,440354.163,3883700.927
14205,WHITE OAK MANOR ROCK HILL,1915 EBENEZER RD,ROCK HILL,SC,29732-1097,803-366-8155,"MONTGOMERY-SMALLS, JERROLYN PH#: 803-366-8155",JMSMALLS@WHITEOAKMANOR.COM,,NCF-1087 / 08/31/2026,York / Limited Liability,,,,,NHC HEALTHCARE/ROCK HILL LLC,N,N,141,,141,495388.308,3868889.891
14206,WHITE OAK MANOR COLUMBIA,3001 BEECHAVEN RD,COLUMBIA,SC,29204-2701,803-782-4363, PH#: ,MHJOLLY@WHITEOAKMANOR.COM,,NCF-1088 / 08/31/2026,Richland / ,,,,,NHC HEALTHCARE/COLUMBIA WO LLC,N,N,120,,120,500268.174,3765546.932
14207,WHITE OAK MANOR LANCASTER,253 CRAIG MANOR RD,LANCASTER,SC,29720-6531,803-286-1464,"GOSNELL, LISA R. PH#: 803-286-1837",JSKINNER@WHITEOAKMANOR.COM,LISA_GOSNELL@CHS.NET,NCF-1089 / 08/31/2026,Lancaster / Limited Liability,,,,,NHC HEALTHCARE/LANCASTER LLC,N,N,132,,132,520921.337,3845259.074
14208,WHITE OAK AT NORTH GROVE,290 N GROVE MEDICAL PARK DR,SPARTANBURG,SC,29303-4222,864-345-1700,"NELSON, ANDREW R. PH#: 864-345-1700",ANELSON@WHITEOAKMANOR.COM,ANELSON@WHITEOAKMANOR.COM,NCF-1090 / 08/31/2026,Spartanburg / ,,,,,NHC HEALTHCARE/NORTH GROVE LLC,Y,Y,132,,132,414056.865,3872657.55
14209,WHITE OAK MANOR NEWBERRY,2555 KINARD ST,NEWBERRY,SC,29108-2903,803-276-6060,"GILLIAM, MELISSA S. PH#: 803-276-6060",MGILLIAM@WHITEOAKMANOR.COM,MGILLIAM@WHITEOAKMANOR.COM,NCF-1092 / 08/31/2026,Newberry / Limited Liability,,,,,NHC HEALTHCARE/NEWBERRY LLC,N,N,146,,146,444238.19,3794358.296
14210,WHITE OAK MANOR SPARTANBURG,295 E PEARL ST,SPARTANBURG,SC,29303-3666,864-585-0241,"CECIL, O KENT, III. PH#: 864-585-0241",KCECIL@WHITEOAKMANOR.COM,KCECIL@WHITEOAKMANOR.COM,NCF-1110 / 08/31/2026,Spartanburg / Limited Liability,,,,,NHC HEALTHCARE/SPARTANBURG LLC,N,N,60,,60,414451.413,3869481.198
14211,WHITE OAK MANOR CHARLESTON,9285 MEDICAL PLAZA DR,CHARLESTON,SC,29406-9126,843-797-8282,"HEITKAMP, RYAN PH#: ",RHEITKAMP@WHITEOAKMANOR.COM,RHEITKAMP@WHITEOAKMANOR.COM,NCF-1111 / 08/31/2026,Charleston / Limited Liability,,,,,NHC HEALTHCARE/CHARLESTON WO LLC,N,N,176,,176,586439.514,3648784.261
14212,WHITE OAK MANOR YORK,111 S CONGRESS ST,YORK,SC,29745-1836,803-684-0035,"LAMBERT, MICHELLE PH#: 803-684-0035",SCPARKER@WHITEOAKMANOR.COM,MLAMBERT@WHITEOAKMANOR.COM,NCF-1084 / 08/31/2026,York / Limited Liability,,,,,NHC HEALTHCARE/YORK LLC,N,N,109,,109,477746.178,3872121.641
14213,WHITE OAK ESTATES,400 WEBBER RD,SPARTANBURG,SC,29307-2400,864-579-7004,"BOWERS, EMMA PH#: 864-990-1918",EBOWERS@WHITEOAKMANOR.COM,,NCF-1112 / 08/31/2026,Spartanburg / Limited Liability,,,,,NHC ESTATES LLC,Y,N,88,,88,420530.13,3870460.316
14238,HERITAGE POST ACUTE,515 WARLEY ST,FLORENCE,SC,29501-5199,843-662-4573,"PRUITT, KELLY PH#: 843-662-4573",ADMINISTRATOR@HERITAGEPOSTACUTE.COM,,NCF-1115 / 02/28/2026,Florence / Limited Liability,,,,,515 WARLEY OPCO LLC,Y,N,132,,132,612923.444,3783766.773
14240,CHERAW POST ACUTE,400 MOFFAT RD,CHERAW,SC,29520-3048,843-320-7500,"HAYES, CHRYSTAL PH#: 843-320-7500",ADMINISTRATOR@CHERAWPOSTACUTE.COM,,NCF-1114 / 09/30/2026,Chesterfield / Limited Liability,,,,,400 MOFFAT OPCO LLC,Y,N,120,,120,599697.19,3839062.109
14360,SALUDA NURSING CENTER,3131 NEWBERRY HWY,SALUDA,SC,29138-7808,864-445-2146,"MACK, JAMES H. PH#: 864-445-2146",DBLEDSOE@SALUDANURSING.ORG,JMACK@SALUDANURSING.ORG,NCF-0265 / 06/30/2026,Saluda / County,PO BOX 398,SALUDA,SC,29138-0398,SALUDA COUNTY,N,N,176,0,176,428954.498,3766436.645
14697,PATRIOT'S VILLAGE,915 N WISE DR,SUMTER,SC,29153,803-965-9002,"JOHNSON, TARA PH#: 000-000-0000",HEYWARD.HILLIARD@SCDVA.SC.GOV,LALA.JOHNSON@ENSIGNSERVICES.NET,NCF-1117 / 04/30/2026,Sumter / State,,,,,SOUTH CAROLINA DEPARTMENT OF VETERANS AFFAIRS,Y,Y,104,,104,559629.322,3758118.464
14782,STONE AND FEWELL VETERANS PAVILIONS,2200 HARDEN ST,COLUMBIA,SC,29203-7199,803-737-5301,"JONES, ERIC PH#: 803-737-5313",HEYWARD.HILLIARD@SCDVA.SC.GOV,ERIC.JONES@SCDMH.ORG,NCF-1116 / 07/31/2026,Richland / State,,,,,SOUTH CAROLINA DEPARTMENT OF VETERANS AFFAIRS,N,N,135,,135,497711.906,3764610.636
14925,GABLES ON PELHAM SKILLED NURSING AND REHAB,1306 PELHAM RD,GREENVILLE,SC,29615-3600,864-266-6600,"BARTHWELL, NATASHA PH#: 864-286-6600",NATASHA.BARTHWELL@GABLES-LIVING.COM,,NCF-1118 / 05/31/2026,Greenville / Limited Liability,,,,,GABLES ON PELHAM RETIREMENT LLC,N,N,45,,45,380464.197,3857799.006
15015,ELDERWOOD REHABILITATION AND NURSING CENTER OF GEORGETOWN,2715 S ISLAND RD,GEORGETOWN,SC,29440-4415,843-546-4123,"FLANSBURG, CHRISTINE PH#: 843-546-4123",CHRISTINE.FLANSBURG@GEORGETOWNNURSINGCEN,,NCF-1119 / 05/31/2026,Georgetown / Limited Liability,,,,,GEORGETOWN OPERATIONS LLC,Y,N,84,,84,658443.353,3689334.152
15066,PRESTON HEALTH CENTER,87 BIRDSONG WAY,HILTON HEAD ISLAND,SC,29926-1365,843-689-7077,"MCRAE, MONIQUE PH#: 843-689-7077",MMCRAE@THECYPRESS.COM,,NCF-1120 / 07/31/2026,Beaufort / Corporation,,,,,THE CYPRESS CLUB INC,Y,Y,69,8,77,524719.663,3566234.446
15077,PINEWOOD NURSING CARE,1761 PINEWOOD RD,SUMTER,SC,29154-9056,803-481-8591,"POLLARD, TRACI PH#: 803-481-8591",TRACI.POLLARD@SUMTERNURSINGCENTER.COM,,NCF-1121 / 05/31/2026,Sumter / Limited Liability,,,,,SUMTER OPERATIONS LLC,Y,N,96,,96,555114.535,3747728.647
